prvdr_num,FFY2012_DSH,FFY2016_DSH,DSH_Change,hospital_name,city,state,zip_code,3YR_2008_2011_AMI_Readmit_Rate,3YR_2012_2015_AMI_Readmit_Rate,AMI_Change
140286,0.0251,0.0428,0.017699999999999997,"KISHWAUKEE COMMUNITY HOSPITAL",DEKALB,IL,60115,0.1323529411764706,0.13924050632911392,0.006887565152643327
140015,0.0253,0.0757,0.0504,"BLESSING HOSPITAL",QUINCY,IL,62301,0.19012345679012346,0.14366197183098592,-0.046461484959137545
230269,0.0256,0.0463,0.0207,"WILLIAM BEAUMONT HOSPITAL-TROY",TROY,MI,48085,0.22448979591836735,0.21562952243125905,-0.0088602734871083
280125,0.0266,0.0284,0.001800000000000003,"FAITH REGIONAL HEALTH SERVICES",NORFOLK,NE,68701,0.10194174757281553,0.11229946524064172,0.010357717667826186
240010,0.0276,0.025,-0.002599999999999998,"ST MARYS HOSPITAL",ROCHESTER,MN,55902,0.15162037037037038,0.12777053455019557,-0.023849835820174803
100156,0.0282,0.0343,0.006099999999999998,"LAKE CITY MEDICAL CENTER","LAKE CITY",FL,32055,0.38596491228070173,0.1896551724137931,-0.19630973986690864
450885,0.0282,0.039,0.0108,"CENTENNIAL MEDICAL CENTER",FRISCO,TX,75035,0.2459016393442623,0.22105263157894736,-0.02484900776531493
330045,0.0283,0.032,0.003700000000000002,"HUNTINGTON HOSPITAL",HUNTINGTON,NY,11743,0.18811881188118812,0.16560509554140126,-0.022513716339786854
310050,0.0287,0.076,0.047299999999999995,"SAINT CLARE'S HOSPITAL",DENVILLE,NJ,07834,0.2590909090909091,0.23557692307692307,-0.02351398601398602
300018,0.0294,0.0399,0.010499999999999999,"WENTWORTH-DOUGLASS HOSPITAL",DOVER,NH,03820,0.24561403508771928,0.13953488372093023,-0.10607915136678905
170142,0.0295,0.0559,0.0264,"MERCY REGIONAL HEALTH CENTER",MANHATTAN,KS,66502,0.18181818181818182,0.1,-0.08181818181818182
260081,0.0299,0.0291,-0.0007999999999999986,"SSM ST CLARE HEALTH CENTER",FENTON,MO,63026,0.1976284584980237,0.16901408450704225,-0.028614373990981462
150005,0.0302,0.0555,0.0253,"HENDRICKS REGIONAL HEALTH",DANVILLE,IN,46122,0.15625,0.1368421052631579,-0.019407894736842096
230047,0.0302,0.038,0.007799999999999998,"HENRY FORD MACOMB HOSPITAL","CLINTON TOWNSHIP",MI,48038,0.21809369951534732,0.17439703153988867,-0.04369666797545865
500007,0.0304,0.0473,0.016900000000000002,"ISLAND HOSPITAL",ANACORTES,WA,98221,0.3793103448275862,0.3055555555555556,-0.07375478927203061
450358,0.0311,0.0252,-0.005899999999999999,"METHODIST HOSPITAL,THE",HOUSTON,TX,77030,0.1976401179941003,0.18571428571428572,-0.011925832279814585
140010,0.0317,0.0388,0.007100000000000002,"EVANSTON HOSPITAL",EVANSTON,IL,60201,0.17146974063400577,0.16156670746634028,-0.009903033167665498
100043,0.0320,0.0758,0.043800000000000006,"MEASE HOSPITAL DUNEDIN",DUNEDIN,FL,34698,0.20270270270270271,0.3333333333333333,0.1306306306306306
230277,0.0322,0.0792,0.04700000000000001,"HURON VALLEY-SINAI HOSPITAL","COMMERCE TOWNSHIP",MI,48382,0.20725388601036268,0.24803149606299213,0.04077761005262945
440120,0.0326,0.0812,0.0486,"TENNOVA HEALTHCARE",KNOXVILLE,TN,37917,0.19491525423728814,0.15575620767494355,-0.03915904656234459
260064,0.0328,0.0678,0.034999999999999996,"AUDRAIN MEDICAL CENTER",MEXICO,MO,65265,0.09090909090909091,0.2,0.1090909090909091
100220,0.0333,0.0826,0.049300000000000004,"GULF COAST MEDICAL CENTER LEE MEM HEALTH SYSTEM","FORT MYERS",FL,33912,0.13624678663239073,0.17475728155339806,0.03851049492100733
220090,0.0333,0.0523,0.018999999999999996,"MILFORD REGIONAL MEDICAL CENTER",MILFORD,MA,01757,0.3,0.21428571428571427,-0.08571428571428572
220060,0.0334,0.0499,0.0165,"JORDAN HOSPITAL INC",PLYMOUTH,MA,02360,0.2733812949640288,0.2116788321167883,-0.061702462847240486
100090,0.0337,0.0966,0.06290000000000001,"FLAGLER HOSPITAL","SAINT AUGUSTINE",FL,32086,0.216,0.17595307917888564,-0.04004692082111436
240053,0.0337,0.04,0.0063,"PARK NICOLLET METHODIST HOSPITAL","SAINT LOUIS PARK",MN,55426,0.16104868913857678,0.1336405529953917,-0.027408136143185075
310054,0.0343,0.027,-0.0072999999999999975,"HACKENSACK  UMC MOUNTAINSIDE",MONTCLAIR,NJ,07042,0.23529411764705882,0.15639810426540285,-0.07889601338165597
450271,0.0347,0.0533,0.0186,"WISE REGIONAL HEALTH SYSTEM",DECATUR,TX,76234,0.18446601941747573,0.1724137931034483,-0.012052226314027442
330267,0.0348,0.0483,0.013500000000000005,"HUDSON VALLEY HOSPITAL CENTER","CORTLANDT MANOR",NY,10567,0.26666666666666666,0.20588235294117646,-0.0607843137254902
490043,0.0351,0.0346,-0.0005000000000000004,"INOVA LOUDOUN HOSPITAL",LEESBURG,VA,20176,0.14615384615384616,0.16842105263157894,0.02226720647773278
100117,0.0354,0.0422,0.0068000000000000005,"BAPTIST MEDICAL CENTER  BEACHES","JACKSONVILLE BEACH",FL,32250,0.17543859649122806,0.20491803278688525,0.02947943629565719
320009,0.0355,0.1538,0.11829999999999999,"LOVELACE MEDICAL CENTER",ALBUQUERQUE,NM,87102,0.07352941176470588,0.14467408585055644,0.07114467408585055
330061,0.0355,0.0737,0.038200000000000005,"LAWRENCE HOSPITAL CENTER",BRONXVILLE,NY,10708,0.28846153846153844,0.21518987341772153,-0.07327166504381691
490050,0.0357,0.0272,-0.008500000000000004,"VIRGINIA HOSPITAL CENTER - ARLINGTON",ARLINGTON,VA,22205,0.16111111111111112,0.11920529801324503,-0.04190581309786609
220135,0.0359,0.0511,0.015199999999999998,"FALMOUTH HOSPITAL",FALMOUTH,MA,02540,0.2289156626506024,0.17777777777777778,-0.05113788487282461
100256,0.0364,0.0514,0.015,"REGIONAL MEDICAL CENTER BAYONET POINT",HUDSON,FL,34667,0.20145631067961164,0.23006134969325154,0.028605039013639894
140162,0.0370,0.0552,0.0182,"ST JOSEPH MEDICAL CENTER",BLOOMINGTON,IL,61701,0.17197452229299362,0.11574074074074074,-0.05623378155225288
450672,0.0371,0.0452,0.008099999999999996,"PLAZA MEDICAL CENTER OF FORT WORTH","FORT WORTH",TX,76104,0.20414201183431951,0.14511041009463724,-0.05903160173968228
450231,0.0374,0.0392,0.001799999999999996,"BAPTIST ST ANTHONYS HEALTH SYSTEM-BAPTIST CAMPUS",AMARILLO,TX,79106,0.1293634496919918,0.1582608695652174,0.02889741987322561
150128,0.0376,0.0751,0.0375,"COMMUNITY HOSPITAL SOUTH",INDIANAPOLIS,IN,46227,0.11612903225806452,0.13291139240506328,0.016782360146998757
330085,0.0381,0.0743,0.0362,"AURELIA OSBORN FOX MEMORIAL HOSPITAL",ONEONTA,NY,13820,0.22535211267605634,0.1864406779661017,-0.038911434709954645
100260,0.0382,0.0316,-0.006599999999999995,"ST LUCIE MEDICAL CENTER","PORT SAINT LUCIE",FL,34952,0.20987654320987653,0.31297709923664124,0.10310055602676471
140064,0.0385,0.0649,0.0264,"ST MARY MEDICAL CENTER",GALESBURG,IL,61401,0.3150684931506849,0.20754716981132076,-0.10752132333936415
290022,0.0385,0.1492,0.11069999999999999,"DESERT SPRINGS HOSPITAL","LAS VEGAS",NV,89119,0.22110552763819097,0.1965065502183406,-0.02459897741985037
290009,0.0387,0.1769,0.1382,"SAINT MARY'S REGIONAL MEDICAL CENTER",RENO,NV,89503,0.12440191387559808,0.1440677966101695,0.019665882734571413
160117,0.0388,0.0831,0.04429999999999999,"THE FINLEY HOSPITAL",DUBUQUE,IA,52001,0.171875,0.14814814814814814,-0.02372685185185186
310081,0.0390,0.0784,0.0394,"UNDERWOOD - MEMORIAL HOSPITAL",WOODBURY,NJ,08096,0.25118483412322273,0.17261904761904762,-0.07856578650417512
200001,0.0392,0.0322,-0.006999999999999999,"ST JOSEPH HOSPITAL",BANGOR,ME,04401,0.20869565217391303,0.2,-0.008695652173913021
220070,0.0399,0.0585,0.018600000000000005,"HALLMARK HEALTH SYSTEM",MELROSE,MA,02176,0.24375,0.22033898305084745,-0.02341101694915254
140148,0.0402,0.0689,0.028700000000000003,"MEMORIAL MEDICAL CENTER",SPRINGFIELD,IL,62781,0.15561569688768606,0.14722222222222223,-0.008393474665463835
340171,0.0403,0.0618,0.0215,"PRESBYTERIAN HOSPITAL MATTHEWS",MATTHEWS,NC,28106,0.22857142857142856,0.14444444444444443,-0.08412698412698413
150042,0.0407,0.0561,0.015399999999999997,"GOOD SAMARITAN HOSPITAL",VINCENNES,IN,47591,0.17010309278350516,0.1532258064516129,-0.016877286331892255
230041,0.0407,0.0548,0.014100000000000001,"MCLAREN BAY REGION","BAY CITY",MI,48708,0.19815668202764977,0.17364341085271318,-0.024513271174936596
100072,0.0409,0.0302,-0.010699999999999998,"FLORIDA HOSPITAL FISH MEMORIAL","ORANGE CITY",FL,32763,0.26744186046511625,0.20689655172413793,-0.060545308740978326
310008,0.0409,0.0824,0.0415,"HOLY NAME MEDICAL CENTER",TEANECK,NJ,07666,0.2602739726027397,0.17708333333333334,-0.08319063926940637
360075,0.0412,0.0944,0.0532,"UHHS RICHMOND HEIGHTS HOSPITAL","RICHMOND HEIGHTS",OH,44143,0.2,0.2926829268292683,0.09268292682926826
310057,0.0416,0.0872,0.0456,"VIRTUA MEMORIAL HOSPITAL OF BURLINGTON COUNTY","MOUNT HOLLY",NJ,08060,0.22483221476510068,0.205761316872428,-0.01907089789267269
500025,0.0418,0.0997,0.0579,"SWEDISH MEDICAL CENTER/CHERRY HILL",SEATTLE,WA,98122,0.1424802110817942,0.17777777777777778,0.03529756669598358
100244,0.0427,0.0705,0.02779999999999999,"CAPE CORAL HOSPITAL","CAPE CORAL",FL,33990,0.19205298013245034,0.19047619047619047,-0.0015767896562598749
230302,0.0430,0.0632,0.02020000000000001,"HENRY FORD WEST BLOOMFIELD HOSPITAL","W BLOOMFIELD",MI,48322,0.22826086956521738,0.1912568306010929,-0.03700403896412449
180102,0.0433,0.1202,0.0769,"LOURDES HOSPITAL",PADUCAH,KY,42001,0.13304721030042918,0.125,-0.00804721030042918
150035,0.0437,0.0616,0.0179,"PORTER VALPARAISO HOSPITAL",VALPARAISO,IN,46383,0.18181818181818182,0.1393939393939394,-0.04242424242424242
330304,0.0437,0.047,0.0032999999999999974,"WHITE PLAINS HOSPITAL CENTER","WHITE PLAINS",NY,10601,0.2366412213740458,0.22123893805309736,-0.015402283320948451
100249,0.0438,0.0556,0.011799999999999998,"SEVEN RIVERS REGIONAL MEDICAL CENTER","CRYSTAL RIVER",FL,34428,0.16447368421052633,0.17142857142857143,0.006954887218045103
310025,0.0439,0.1009,0.057,"BAYONNE HOSPITAL CENTER",BAYONNE,NJ,07002,0.25980392156862747,0.21138211382113822,-0.04842180774748925
520049,0.0442,0.0529,0.0087,"BELLIN MEMORIAL HSPTL","GREEN BAY",WI,54305,0.09202453987730061,0.11695906432748537,0.024934524450184764
150158,0.0444,0.0362,-0.008199999999999999,"IU HEALTH WEST HOSPITAL",AVON,IN,46123,0.11764705882352941,0.19,0.07235294117647059
450469,0.0447,0.0478,0.0031000000000000055,"TEXAS HEALTH PRESBYTERIAN HOSPITAL-WNJ",SHERMAN,TX,75091,0.16806722689075632,0.17105263157894737,0.0029854046881910568
180045,0.0448,0.1674,0.12259999999999999,"ST ELIZABETH FLORENCE",FLORENCE,KY,41042,0.28688524590163933,0.3225806451612903,0.035695399259650984
100055,0.0450,0.0415,-0.003499999999999996,"FLORIDA HOSPITAL NORTH PINELLAS","TARPON SPRINGS",FL,34689,0.23030303030303031,0.22784810126582278,-0.002454929037207537
170104,0.0451,0.0474,0.0022999999999999965,"SHAWNEE MISSION MEDICAL CENTER","SHAWNEE MISSION",KS,66204,0.22448979591836735,0.14917127071823205,-0.0753185252001353
220100,0.0451,0.053,0.007899999999999997,"SOUTH SHORE HOSPITAL","SOUTH WEYMOUTH",MA,02190,0.19933554817275748,0.17464114832535885,-0.02469439984739863
170012,0.0459,0.0356,-0.010300000000000004,"SALINA REGIONAL HEALTH CENTER",SALINA,KS,67401,0.10270270270270271,0.1318181818181818,0.029115479115479098
150173,0.0460,0.0892,0.0432,"INDIANA UNIVERSITY HEALTH ARNETT HOSPITAL",LAFAYETTE,IN,47905,0.1794871794871795,0.13166144200626959,-0.0478257374809099
170146,0.0468,0.0713,0.0245,"PROVIDENCE MEDICAL CENTER","KANSAS CITY",KS,66112,0.20437956204379562,0.20441988950276244,0.000040327458966815666
190146,0.0471,0.0517,0.0046,"EAST JEFFERSON GENERAL HOSPITAL",METAIRIE,LA,70006,0.15254237288135594,0.11052631578947368,-0.04201605709188226
450771,0.0472,0.0609,0.013700000000000004,"TEXAS HEALTH PRESBYTERIAN HOSPITAL PLANO",PLANO,TX,75093,0.2222222222222222,0.13380281690140844,-0.08841940532081377
490020,0.0472,0.0424,-0.004799999999999999,"JOHN RANDOLPH MEDICAL CENTER",HOPEWELL,VA,23860,0.18867924528301888,0.3050847457627119,0.116405500479693
140217,0.0479,0.0958,0.0479,"PROVENA - SAINT JOSEPH HOSPITAL",ELGIN,IL,60123,0.24025974025974026,0.21238938053097345,-0.027870359728766808
490046,0.0479,0.0561,0.008199999999999999,"SENTARA LEIGH HOSPITAL",NORFOLK,VA,23502,0.22818791946308725,0.15436241610738255,-0.0738255033557047
140213,0.0485,0.045,-0.003500000000000003,"SILVER CROSS HOSPITAL  AND MEDICAL CENTERS","NEW LENOX",IL,60451,0.2222222222222222,0.20491803278688525,-0.01730418943533696
330167,0.0486,0.0839,0.035300000000000005,"WINTHROP-UNIVERSITY HOSPITAL",MINEOLA,NY,11501,0.21978021978021978,0.20152091254752852,-0.018259307232691258
260095,0.0496,0.0559,0.0063,"CENTERPOINT MEDICAL CENTER OF INDEPENDENCE, LLC",INDEPENDENCE,MO,64057,0.16104868913857678,0.19130434782608696,0.03025565868751018
490004,0.0496,0.0366,-0.012999999999999998,"ROCKINGHAM MEMORIAL HOSPITAL",HARRISONBURG,VA,22801,0.2379746835443038,0.15609756097560976,-0.08187712256869403
360145,0.0498,0.1146,0.0648,"EMH REGIONAL MEDICAL CENTER",ELYRIA,OH,44035,0.1529051987767584,0.17084282460136674,0.01793762582460834
330107,0.0501,0.0629,0.012799999999999999,"PECONIC BAY MEDICAL CENTER",RIVERHEAD,NY,11901,0.25675675675675674,0.2222222222222222,-0.03453453453453453
360056,0.0502,0.0687,0.018499999999999996,"MERCY HOSPITAL FAIRFIELD",FAIRFIELD,OH,45014,0.18149466192170818,0.19047619047619047,0.008981528554482282
490093,0.0502,0.0298,-0.0204,"SENTARA CAREPLEX HOSPITAL",HAMPTON,VA,23666,0.23134328358208955,0.23770491803278687,0.006361634450697318
140007,0.0509,0.1127,0.061799999999999994,"PROVENA ST JOSEPH MEDICAL CENTER",JOLIET,IL,60435,0.2556390977443609,0.22759856630824374,-0.02804053143611715
450639,0.0511,0.0684,0.017300000000000003,"TEXAS HEALTH HARRIS METHODIST HURST-EULESS-BEDFORD",BEDFORD,TX,76022,0.18181818181818182,0.147239263803681,-0.03457891801450083
150059,0.0512,0.0448,-0.006400000000000003,"RIVERVIEW HOSPITAL",NOBLESVILLE,IN,46060,0.08955223880597014,0.15476190476190477,0.06520966595593462
360180,0.0518,0.0803,0.028499999999999998,"CLEVELAND CLINIC",CLEVELAND,OH,44195,0.23529411764705882,0.18467852257181944,-0.050615595075239384
490110,0.0519,0.0508,-0.0011000000000000038,"LEWISGALE HOSPITAL MONTGOMERY",BLACKSBURG,VA,24060,0.21818181818181817,0.12087912087912088,-0.09730269730269729
330279,0.0520,0.0848,0.0328,"MERCY HOSPITAL",BUFFALO,NY,14220,0.17696629213483145,0.19047619047619047,0.013509898341359017
360010,0.0520,0.0689,0.016900000000000005,"UNION HOSPITAL",DOVER,OH,44622,0.175,0.22727272727272727,0.052272727272727276
220029,0.0525,0.089,0.0365,"ANNA JAQUES HOSPITAL",NEWBURYPORT,MA,01950,0.3103448275862069,0.20689655172413793,-0.10344827586206898
180001,0.0529,0.1664,0.11349999999999999,"ST ELIZABETH FT THOMAS","FORT THOMAS",KY,41075,0.26519337016574585,0.25,-0.015193370165745845
340142,0.0530,0.0283,-0.0247,"CARTERET GENERAL HOSPITAL","MOREHEAD CITY",NC,28557,0.2777777777777778,0.23684210526315788,-0.04093567251461991
360211,0.0530,0.0893,0.036300000000000006,"TRINITY MEDICAL CTR EAST&TRINITY MEDICAL CTR WEST",STEUBENVILLE,OH,43952,0.23006134969325154,0.16917293233082706,-0.06088841736242448
100068,0.0540,0.0679,0.013900000000000003,"FLORIDA HOSPITAL MEMORIAL MEDICAL CENTER","DAYTONA BEACH",FL,32117,0.20595533498759305,0.1297709923664122,-0.07618434262118084
340129,0.0542,0.0501,-0.0040999999999999995,"LAKE NORMAN REGIONAL MEDICAL CENTER",MOORESVILLE,NC,28117,0.2,0.2328767123287671,0.0328767123287671
450203,0.0544,0.0543,-0.00009999999999999593,"WEATHERFORD REGIONAL MEDICAL CENTER",WEATHERFORD,TX,76086,0.2,0.18556701030927836,-0.014432989690721654
150044,0.0545,0.0629,0.008399999999999998,"FLOYD MEMORIAL HOSPITAL AND HEALTH SERVICES","NEW ALBANY",IN,47150,0.1978021978021978,0.15463917525773196,-0.04316302254446583
190236,0.0548,0.0757,0.020900000000000002,"WILLIS KNIGHTON BOSSIER HEALTH CENTER","BOSSIER CITY",LA,71111,0.16,0.1564625850340136,-0.0035374149659863907
230089,0.0551,0.1222,0.06709999999999999,"BEAUMONT HOSPITAL, GROSSE POINTE","GROSSE POINTE",MI,48230,0.19327731092436976,0.2265625,0.033285189075630245
110129,0.0552,0.1175,0.062299999999999994,"ST FRANCIS HOSPITAL, INC",COLUMBUS,GA,31995,0.14871794871794872,0.11873350923482849,-0.029984439483120226
280065,0.0552,0.0333,-0.021899999999999996,"GREAT PLAINS REGIONAL MEDICAL CENTER","NORTH PLATTE",NE,69101,0.22580645161290322,0.12931034482758622,-0.096496106785317
340039,0.0559,0.0563,0.0004000000000000045,"IREDELL MEMORIAL HOSPITAL INC",STATESVILLE,NC,28677,0.15454545454545454,0.13934426229508196,-0.015201192250372586
360040,0.0561,0.12,0.0639,"KNOX COMMUNITY HOSPITAL","MOUNT VERNON",OH,43050,0.1693548387096774,0.08208955223880597,-0.08726528647087144
140002,0.0562,0.0968,0.0406,"ALTON MEMORIAL HOSPITAL",ALTON,IL,62002,0.1574074074074074,0.16666666666666666,0.009259259259259245
170137,0.0563,0.0385,-0.017800000000000003,"LAWRENCE MEMORIAL HOSPITAL",LAWRENCE,KS,66044,0.15702479338842976,0.16666666666666666,0.009641873278236901
230193,0.0565,0.055,-0.0015000000000000013,"MCLAREN LAPEER REGION",LAPEER,MI,48446,0.19318181818181818,0.23353293413173654,0.04035111594991836
160016,0.0566,0.12,0.0634,"TRINITY REGIONAL MEDICAL CENTER","FORT DODGE",IA,50501,0.10801393728222997,0.1111111111111111,0.003097173828881139
510050,0.0566,0.1107,0.05410000000000001,"WHEELING HOSPITAL",WHEELING,WV,26003,0.1992619926199262,0.16519174041297935,-0.034070252206946844
100265,0.0569,0.0469,-0.010000000000000002,"MEASE COUNTRYSIDE HOSPITAL","SAFETY HARBOR",FL,34695,0.16173120728929385,0.1623931623931624,0.0006619551038685445
520070,0.0570,0.0744,0.017399999999999992,"MAYO CLINIC HEALTH SYSTEM EAU CLAIRE HOSPITAL","EAU CLAIRE",WI,54703,0.11494252873563218,0.11290322580645161,-0.0020393029291805725
100046,0.0573,0.0452,-0.0121,"FLORIDA HOSPITAL ZEPHYRHILLS",ZEPHYRHILLS,FL,33541,0.2113564668769716,0.18452380952380953,-0.026832657353162065
310011,0.0574,0.0822,0.024799999999999996,"CAPE REGIONAL MEDICAL CENTER INC","CAPE MAY COURT HOUSE",NJ,08210,0.36065573770491804,0.2727272727272727,-0.08792846497764534
490018,0.0575,0.031,-0.026500000000000003,"AUGUSTA HEALTH",FISHERSVILLE,VA,22939,0.15948275862068967,0.13872832369942195,-0.020754434921267717
100028,0.0576,0.0614,0.0038000000000000048,"PARRISH MEDICAL CENTER",TITUSVILLE,FL,32796,0.15508021390374332,0.19166666666666668,0.036586452762923355
490005,0.0576,0.0633,0.005699999999999997,"WINCHESTER MEDICAL CENTER INC",WINCHESTER,VA,22601,0.165075034106412,0.1487481590574374,-0.016326875048974593
190004,0.0582,0.077,0.018799999999999997,"THIBODAUX REGIONAL MEDICAL CENTER",THIBODAUX,LA,70301,0.2275132275132275,0.15819209039548024,-0.06932113711774726
230130,0.0583,0.0973,0.039,"WILLIAM BEAUMONT HOSPITAL","ROYAL OAK",MI,48073,0.22910521140609635,0.19473684210526315,-0.0343683693008332
330198,0.0583,0.0571,-0.0011999999999999997,"SOUTH NASSAU COMMUNITIES HOSPITAL",OCEANSIDE,NY,11572,0.2131979695431472,0.1758957654723127,-0.03730220407083451
360095,0.0597,0.0667,0.006999999999999992,"BLANCHARD VALLEY HOSPITAL",FINDLAY,OH,45840,0.13013698630136986,0.12921348314606743,-0.0009235031553024298
380014,0.0598,0.1239,0.06409999999999999,"GOOD SAMARITAN REGIONAL MEDICAL CENTER",CORVALLIS,OR,97330,0.13215859030837004,0.07196969696969698,-0.06018889333867307
150082,0.0602,0.0658,0.005600000000000001,"DEACONESS HOSPITAL INC",EVANSVILLE,IN,47747,0.1487603305785124,0.1791044776119403,0.030344147033427887
230141,0.0605,0.094,0.0335,"MCLAREN FLINT",FLINT,MI,48532,0.21608040201005024,0.23237179487179488,0.016291392861744636
500124,0.0606,0.0831,0.022499999999999992,"EVERGREEN HOSPITAL MEDICAL CENTER",KIRKLAND,WA,98034,0.15695067264573992,0.10569105691056911,-0.05125961573517081
100105,0.0607,0.0477,-0.012999999999999998,"INDIAN RIVER MEDICAL CENTER","VERO BEACH",FL,32960,0.17886178861788618,0.1437007874015748,-0.03516100121631138
490022,0.0607,0.0651,0.004400000000000008,"MARY WASHINGTON HOSPITAL, INC",FREDERICKSBURG,VA,22401,0.2423146473779385,0.163135593220339,-0.07917905415759952
100204,0.0614,0.0904,0.02899999999999999,"NORTH FLORIDA REGIONAL MEDICAL CENTER",GAINESVILLE,FL,32605,0.18632478632478633,0.21120689655172414,0.024882110226937815
150162,0.0614,0.0809,0.019499999999999997,"FRANCISCAN ST FRANCIS HEALTH - INDIANAPOLIS",INDIANAPOLIS,IN,46237,0.20255474452554745,0.12895927601809956,-0.07359546850744789
360055,0.0616,0.1333,0.0717,"TRUMBULL MEMORIAL HOSPITAL",WARREN,OH,44482,0.21893491124260356,0.18072289156626506,-0.0382120196763385
380004,0.0617,0.1401,0.0784,"PROVIDENCE ST VINCENT MEDICAL CENTER",PORTLAND,OR,97225,0.11853448275862069,0.1346704871060172,0.01613600434739651
100051,0.0618,0.0537,-0.008100000000000003,"SOUTH LAKE HOSPITAL",CLERMONT,FL,34711,0.22123893805309736,0.17410714285714285,-0.04713179519595451
200019,0.0621,0.0565,-0.005600000000000001,"SOUTHERN MAINE MEDICAL CENTER",BIDDEFORD,ME,04005,0.20714285714285716,0.17037037037037037,-0.03677248677248679
460021,0.0621,0.0425,-0.0196,"DIXIE REGIONAL MEDICAL CENTER","ST GEORGE",UT,84790,0.1116751269035533,0.09669811320754718,-0.014977013696006125
330023,0.0628,0.0646,0.00180000000000001,"VASSAR BROTHERS MEDICAL CENTER",POUGHKEEPSIE,NY,12601,0.19148936170212766,0.14890016920473773,-0.04258919249738993
440150,0.0630,0.0617,-0.0013000000000000025,"SUMMIT MEDICAL CENTER",HERMITAGE,TN,37076,0.16091954022988506,0.12396694214876033,-0.03695259808112472
280061,0.0633,0.0903,0.02700000000000001,"REGIONAL WEST MEDICAL CENTER",SCOTTSBLUFF,NE,69361,0.11538461538461539,0.22807017543859648,0.11268556005398109
340098,0.0636,0.0329,-0.030700000000000005,"CAROLINAS MED CENTER-MERCY",CHARLOTTE,NC,28207,0.16605166051660517,0.10526315789473684,-0.06078850262186833
100019,0.0639,0.0647,0.0007999999999999952,"HOLMES REGIONAL MEDICAL CENTER",MELBOURNE,FL,32901,0.18573551263001487,0.20833333333333334,0.022597820703318477
100109,0.0641,0.0715,0.00739999999999999,"FLORIDA HOSPITAL HEARTLAND MEDICAL CENTER",SEBRING,FL,33871,0.23708206686930092,0.17733990147783252,-0.0597421653914684
230167,0.0642,0.1538,0.0896,"MCLAREN - GREATER LANSING",LANSING,MI,48910,0.15204678362573099,0.20363636363636364,0.05158958001063266
360084,0.0644,0.1068,0.04240000000000001,"AULTMAN HOSPITAL",CANTON,OH,44710,0.1724137931034483,0.1284796573875803,-0.04393413571586799
330136,0.0646,0.1077,0.0431,"MARY IMOGENE BASSETT HOSPITAL",COOPERSTOWN,NY,13326,0.17578125,0.17083333333333334,-0.004947916666666663
340116,0.0647,0.0442,-0.02049999999999999,"FRYE REGIONAL MEDICAL CENTER",HICKORY,NC,28601,0.14143426294820718,0.11363636363636363,-0.027797899311843552
260094,0.0649,0.0845,0.019600000000000006,"SKAGGS REGIONAL MEDICAL CENTER",BRANSON,MO,65616,0.19369369369369369,0.125,-0.06869369369369369
100057,0.0658,0.0385,-0.027299999999999998,"FLORIDA HOSPITAL WATERMAN",TAVARES,FL,32778,0.2319277108433735,0.22265625,-0.009271460843373491
260062,0.0658,0.0833,0.0175,"ST LUKES NORTHLAND HOSPITAL","KANSAS CITY",MO,64154,0.18840579710144928,0.1746031746031746,-0.013802622498274686
100291,0.0660,0.0423,-0.023700000000000006,"WUESTHOFF MEDICAL CENTER - MELBOURNE",MELBOURNE,FL,32935,0.2692307692307692,0.20754716981132076,-0.061683599419448454
380017,0.0665,0.1587,0.0922,"LEGACY GOOD SAMARITAN MEDICAL CENTER",PORTLAND,OR,97210,0.1875,0.15384615384615385,-0.033653846153846145
100099,0.0666,0.0515,-0.01510000000000001,"LAKE WALES MEDICAL CENTER","LAKE WALES",FL,33853,0.2037037037037037,0.22413793103448276,0.02043422733077907
230146,0.0668,0.104,0.0372,"HENRY FORD WYANDOTTE HOSPITAL",WYANDOTTE,MI,48192,0.25089605734767023,0.16981132075471697,-0.08108473659295326
310001,0.0677,0.1194,0.05170000000000001,"HACKENSACK UNIVERSITY MEDICAL CENTER",HACKENSACK,NJ,07601,0.2280163599182004,0.1751412429378531,-0.0528751169803473
230227,0.0684,0.1005,0.032100000000000004,"MOUNT CLEMENS REGIONAL MEDICAL CENTER","MOUNT CLEMENS",MI,48043,0.24028268551236748,0.2181372549019608,-0.02214543061040669
330004,0.0684,0.0805,0.0121,"KINGSTON HOSPITAL",KINGSTON,NY,12401,0.26495726495726496,0.25,-0.01495726495726496
140030,0.0687,0.0773,0.008599999999999997,"SHERMAN HOSPITAL",ELGIN,IL,60123,0.17040358744394618,0.1522491349480969,-0.018154452495849294
440034,0.0688,0.0789,0.010099999999999998,"METHODIST MEDICAL CENTER OF OAK RIDGE","OAK RIDGE",TN,37830,0.2527075812274368,0.16049382716049382,-0.09221375406694299
330126,0.0692,0.089,0.019799999999999998,"ORANGE REGIONAL MEDICAL CENTER",MIDDLETOWN,NY,10940,0.2689393939393939,0.17511520737327188,-0.09382418656612204
460010,0.0692,0.0481,-0.0211,"INTERMOUNTAIN MEDICAL CENTER",MURRAY,UT,84157,0.09162303664921466,0.09490740740740741,0.0032843707581927534
100018,0.0693,0.0683,-0.0010000000000000009,"NAPLES COMMUNITY HOSPITAL",NAPLES,FL,34102,0.1627188465499485,0.13357400722021662,-0.029144839329731886
140289,0.0698,0.0732,0.0034000000000000002,"ANDERSON HOSPITAL",MARYVILLE,IL,62062,0.24074074074074073,0.16233766233766234,-0.07840307840307839
140052,0.0700,0.1487,0.07869999999999999,"SAINT ANTHONY'S HEALTH CENTER",ALTON,IL,62002,0.2558139534883721,0.2714285714285714,0.015614617940199305
360072,0.0700,0.1181,0.04809999999999999,"FAIRFIELD MEDICAL CENTER",LANCASTER,OH,43130,0.24050632911392406,0.1721311475409836,-0.06837518157294045
230216,0.0704,0.0967,0.02629999999999999,"PORT HURON HOSPITAL","PORT HURON",MI,48060,0.23544973544973544,0.1517412935323383,-0.08370844191739713
490101,0.0704,0.0676,-0.002800000000000011,"INOVA FAIR OAKS HOSPITAL",FAIRFAX,VA,22033,0.2857142857142857,0.16923076923076924,-0.11648351648351646
370114,0.0705,0.0797,0.0092,"ST JOHN MEDICAL CENTER, INC",TULSA,OK,74104,0.2,0.14462081128747795,-0.055379188712522065
300020,0.0706,0.1027,0.032100000000000004,"SOUTHERN NH MEDICAL CENTER",NASHUA,NH,03060,0.18045112781954886,0.1056338028169014,-0.07481732500264746
330191,0.0710,0.0642,-0.0068000000000000005,"GLENS FALLS HOSPITAL","GLENS FALLS",NY,12801,0.24253731343283583,0.12,-0.12253731343283583
490118,0.0714,0.0745,0.0030999999999999917,"HENRICO DOCTORS' HOSPITAL",RICHMOND,VA,23229,0.16569767441860464,0.115,-0.050697674418604635
500072,0.0715,0.1093,0.0378,"OLYMPIC MEDICAL CENTER","PORT ANGELES",WA,98362,0.0821917808219178,0.17391304347826086,0.09172126265634306
100062,0.0722,0.0978,0.025599999999999998,"MUNROE REGIONAL MEDICAL CENTER",OCALA,FL,34474,0.16129032258064516,0.1698595146871009,0.008569192106455736
310076,0.0722,0.1177,0.0455,"SAINT BARNABAS MEDICAL CENTER",LIVINGSTON,NJ,07039,0.19477911646586346,0.196875,0.0020958835341365334
330119,0.0722,0.1114,0.0392,"LENOX HILL HOSPITAL","NEW YORK",NY,10021,0.1962025316455696,0.18849840255591055,-0.007704129089659062
330140,0.0728,0.0898,0.017,"ST JOSEPH'S HOSPITAL HEALTH CENTER",SYRACUSE,NY,13203,0.2183794466403162,0.14151925078043703,-0.07686019585987916
260025,0.0730,0.0535,-0.019499999999999997,"HANNIBAL REGIONAL HOSPITAL",HANNIBAL,MO,63401,0.1349206349206349,0.11711711711711711,-0.0178035178035178
360001,0.0730,0.101,0.02800000000000001,"MERCY HOSPITAL ANDERSON",CINCINNATI,OH,45255,0.1615720524017467,0.14772727272727273,-0.013844779674473978
260200,0.0732,0.0444,-0.0288,"SSM ST JOSEPH HOSPITAL WEST","LAKE SAINT LOUIS",MO,63367,0.24615384615384617,0.1336405529953917,-0.11251329315845446
150026,0.0736,0.0839,0.010300000000000004,"IU HEALTH GOSHEN HOSPITAL",GOSHEN,IN,46526,0.208955223880597,0.22105263157894736,0.012097407698350354
140185,0.0737,0.0955,0.0218,"MEMORIAL HOSPITAL",BELLEVILLE,IL,62226,0.20132013201320131,0.19613259668508287,-0.005187535328118442
310073,0.0737,0.0814,0.0076999999999999985,"JERSEY SHORE UNIVERSITY MEDICAL CENTER",NEPTUNE,NJ,07754,0.2252650176678445,0.17552182163187854,-0.04974319603596597
330141,0.0737,0.0977,0.023999999999999994,"BROOKHAVEN MEMORIAL HOSPITAL MEDICAL CENTER",PATCHOGUE,NY,11772,0.30612244897959184,0.20704845814977973,-0.09907399082981211
150086,0.0741,0.1071,0.033,"DEARBORN COUNTY HOSPITAL",LAWRENCEBURG,IN,47025,0.25,0.2727272727272727,0.022727272727272707
330307,0.0746,0.1187,0.0441,"CAYUGA MEDICAL CENTER AT ITHACA",ITHACA,NY,14850,0.17204301075268819,0.13008130081300814,-0.04196170993968004
100238,0.0750,0.0733,-0.0016999999999999932,"NORTHSIDE HOSPITAL","SAINT PETERSBURG",FL,33709,0.23148148148148148,0.17266187050359713,-0.05881961097788435
330286,0.0754,0.1055,0.030100000000000002,"GOOD SAMARITAN HOSPITAL MEDICAL CENTER","WEST ISLIP",NY,11795,0.22310756972111553,0.21495327102803738,-0.008154298693078155
260011,0.0760,0.0895,0.013499999999999998,"ST MARYS HEALTH CENTER","JEFFERSON CITY",MO,65101,0.15827338129496402,0.11764705882352941,-0.040626322471434606
410011,0.0764,0.0989,0.022500000000000006,"LANDMARK MEDICAL CENTER,  INC",WOONSOCKET,RI,02895,0.1896551724137931,0.2721518987341772,0.08249672632038413
490019,0.0764,0.1009,0.024500000000000008,"CULPEPER REGIONAL HOSPITAL",CULPEPER,VA,22701,0.2972972972972973,0.2830188679245283,-0.01427842937276902
510039,0.0769,0.1458,0.06890000000000002,"OHIO VALLEY MEDICAL CENTER",WHEELING,WV,26003,0.26666666666666666,0.18032786885245902,-0.08633879781420764
350019,0.0770,0.0803,0.0032999999999999974,"ALTRU HOSPITAL","GRAND FORKS",ND,58201,0.1761006289308176,0.10320284697508897,-0.07289778195572863
340017,0.0771,0.0583,-0.018800000000000004,"MARGARET R PARDEE MEMORIAL HOSPITAL",HENDERSONVILLE,NC,28791,0.11016949152542373,0.1935483870967742,0.08337889557135046
370018,0.0773,0.0535,-0.023799999999999995,"JANE PHILLIPS MEDICAL CENTER",BARTLESVILLE,OK,74006,0.1717171717171717,0.12365591397849462,-0.04806125773867709
420027,0.0774,0.0718,-0.005599999999999994,"ANMED HEALTH",ANDERSON,SC,29621,0.13249211356466878,0.16872427983539096,0.03623216627072218
290039,0.0776,0.1613,0.0837,"MOUNTAINVIEW HOSPITAL","LAS VEGAS",NV,89128,0.22846441947565543,0.1826625386996904,-0.04580188077596503
340015,0.0777,0.1047,0.026999999999999996,"ROWAN REGIONAL MEDICAL CENTER",SALISBURY,NC,28144,0.15544041450777202,0.16037735849056603,0.004936943982794012
490119,0.0778,0.0476,-0.03019999999999999,"SENTARA PRINCESS ANNE HOSPITAL","VIRGINIA BEACH",VA,23456,0.18666666666666668,0.19047619047619047,0.0038095238095237904
420073,0.0779,0.0683,-0.009599999999999997,"LEXINGTON MEDICAL CENTER","WEST COLUMBIA",SC,29169,0.20422535211267606,0.11208791208791209,-0.09213744002476397
140127,0.0780,0.1123,0.0343,"BROMENN HEALTHCARE",NORMAL,IL,61761,0.16666666666666666,0.13609467455621302,-0.03057199211045364
330245,0.0781,0.0615,-0.016600000000000004,"ST ELIZABETH MEDICAL CENTER",UTICA,NY,13501,0.2195945945945946,0.13765182186234817,-0.08194277273224643
150007,0.0782,0.1185,0.04029999999999999,"COMMUNITY HOWARD REGIONAL HEALTH INC",KOKOMO,IN,46904,0.18705035971223022,0.1322314049586777,-0.05481895475355253
150006,0.0784,0.1179,0.03950000000000001,"INDIANA UNIVERSITY HEALTH LA PORTE HOSPITAL","LA PORTE",IN,46350,0.192,0.09271523178807947,-0.09928476821192053
150006,0.0784,0.1001,0.021699999999999997,"INDIANA UNIVERSITY HEALTH LA PORTE HOSPITAL","LA PORTE",IN,46350,0.192,0.09271523178807947,-0.09928476821192053
450820,0.0787,0.0896,0.010899999999999993,"METHODIST SUGAR LAND HOSPITAL","SUGAR LAND",TX,77479,0.22784810126582278,0.16455696202531644,-0.06329113924050633
150048,0.0789,0.1017,0.0228,"REID HOSPITAL & HEALTH CARE SERVICES",RICHMOND,IN,47374,0.15294117647058825,0.1506276150627615,-0.0023135614078267364
380020,0.0791,0.1549,0.0758,"MCKENZIE-WILLAMETTE MEDICAL CENTER",SPRINGFIELD,OR,97477,0.09183673469387756,0.1743119266055046,0.08247519191162704
360070,0.0798,0.1005,0.02070000000000001,"MERCY MEDICAL CENTER",CANTON,OH,44708,0.17559523809523808,0.16433566433566432,-0.01125957375957376
100127,0.0799,0.0613,-0.0186,"MORTON PLANT HOSPITAL",CLEARWATER,FL,33756,0.1786743515850144,0.13884007029876977,-0.03983428128624464
290041,0.0801,0.1673,0.0872,"SUMMERLIN HOSPITAL MEDICAL CENTER","LAS VEGAS",NV,89144,0.15286624203821655,0.21495327102803738,0.062087028989820825
360080,0.0802,0.1114,0.031200000000000006,"EAST OHIO REGIONAL HOSPITAL","MARTINS FERRY",OH,43935,0,0.22641509433962265,0.22641509433962265
360027,0.0807,0.1344,0.0537,"AKRON GENERAL MEDICAL CENTER",AKRON,OH,44307,0.2140845070422535,0.16666666666666666,-0.047417840375586856
360076,0.0807,0.1237,0.04300000000000001,"ATRIUM MEDICAL CENTER",FRANKLIN,OH,45005,0.17154811715481172,0.14691943127962084,-0.024628685875190875
520083,0.0811,0.0848,0.003699999999999995,"ST MARY'S HOSPITAL",MADISON,WI,53715,0.1388888888888889,0.11764705882352941,-0.021241830065359485
230099,0.0816,0.1189,0.0373,"MERCY MEMORIAL HOSPITAL SYSTEM",MONROE,MI,48162,0.23655913978494625,0.2557077625570776,0.019148622772131363
450656,0.0818,0.0426,-0.0392,"NACOGDOCHES MEDICAL CENTER",NACOGDOCHES,TX,75961,0.18085106382978725,0.18333333333333332,0.002482269503546075
410009,0.0822,0.136,0.053800000000000014,"KENT COUNTY MEMORIAL HOSPITAL",WARWICK,RI,02886,0.22641509433962265,0.1943127962085308,-0.03210229813109183
470005,0.0825,0.1268,0.04429999999999999,"RUTLAND REGIONAL MEDICAL CENTER",RUTLAND,VT,05701,0.2,0.18309859154929578,-0.01690140845070423
360009,0.0831,0.0902,0.007100000000000009,"LIMA MEMORIAL HEALTH SYSTEM",LIMA,OH,45804,0.17204301075268819,0.18992248062015504,0.017879469867466857
330125,0.0832,0.0984,0.015200000000000005,"ROCHESTER GENERAL HOSPITAL",ROCHESTER,NY,14621,0.21359223300970873,0.17061611374407584,-0.042976119265632884
450713,0.0838,0.0722,-0.0116,"ST DAVID'S SOUTH AUSTIN MEDICAL CENTER",AUSTIN,TX,78704,0.22010869565217392,0.16923076923076924,-0.05087792642140468
220071,0.0841,0.1196,0.035500000000000004,"MASSACHUSETTS GENERAL HOSPITAL",BOSTON,MA,02114,0.20672478206724781,0.2148664343786295,0.008141652311381697
140034,0.0842,0.1221,0.0379,"ST MARYS HOSPITAL",CENTRALIA,IL,62801,0.2967032967032967,0.3,0.003296703296703285
330106,0.0843,0.0764,-0.007900000000000004,"NORTH SHORE UNIVERSITY HOSPITAL",MANHASSET,NY,11030,0.23835319609967498,0.19742489270386265,-0.04092830339581233
140113,0.0845,0.1358,0.0513,"PROVENA COVENANT MEDICAL CENTER- URBANA",URBANA,IL,61801,0.20408163265306123,0.1761904761904762,-0.027891156462585026
360174,0.0846,0.1204,0.0358,"UPPER VALLEY MEDICAL CENTER",TROY,OH,45373,0.23893805309734514,0.22077922077922077,-0.018158832318124374
450677,0.0847,0.0963,0.0116,"HUGULEY HEALTH SYSTEM","FORT WORTH",TX,76115,0.14423076923076922,0.14948453608247422,0.005253766851705005
140135,0.0854,0.0953,0.009899999999999992,"DECATUR MEMORIAL HOSPITAL",DECATUR,IL,62526,0.1702127659574468,0.16489361702127658,-0.0053191489361702204
490021,0.0859,0.0854,-0.0005000000000000004,"CENTRA  HEALTH, INC",LYNCHBURG,VA,24501,0.20270270270270271,0.1747787610619469,-0.027923941640755817
310086,0.0862,0.1477,0.0615,"KENNEDY UNIVERSITY HOSPITAL - STRATFORD DIV",STRATFORD,NJ,08084,0.282312925170068,0.23828125,-0.04403167517006801
490040,0.0862,0.0709,-0.015299999999999994,"INOVA ALEXANDRIA HOSPITAL",ALEXANDRIA,VA,22304,0.21076233183856502,0.17518248175182483,-0.035579850086740195
670077,0.0864,0.131,0.0446,"METHODIST WEST HOUSTON HOSPITAL",HOUSTON,TX,77094,0,0.15053763440860216,0.15053763440860216
310044,0.0866,0.1677,0.08109999999999999,"CAPITAL HEALTH MEDICAL CENTER - HOPEWELL",PENNINGTON,NJ,08534,0.16981132075471697,0.17567567567567569,0.005864354920958714
100189,0.0868,0.1576,0.07079999999999999,"NORTHWEST MEDICAL CENTER",MARGATE,FL,33063,0.20476190476190476,0.22887323943661972,0.024111334674714963
180035,0.0875,0.1638,0.0763,"ST ELIZABETH MEDICAL CENTER NORTH",COVINGTON,KY,41014,0.20132450331125828,0.17372881355932204,-0.027595689751936242
380075,0.0876,0.1311,0.0435,"PROVIDENCE MEDFORD MEDICAL CENTER",MEDFORD,OR,97504,0.12264150943396226,0.15463917525773196,0.0319976658237697
360020,0.0881,0.1394,0.0513,"SUMMA HEALTH SYSTEMS HOSPITALS",AKRON,OH,44309,0.21149425287356322,0.18556701030927836,-0.025927242564284858
510007,0.0886,0.1202,0.0316,"ST MARY'S MEDICAL CENTER",HUNTINGTON,WV,25701,0.19410745233968804,0.17276720351390923,-0.021340248825778813
260110,0.0892,0.0839,-0.005299999999999999,"SOUTHEAST MISSOURI HOSPITAL","CAPE GIRARDEAU",MO,63701,0.18050541516245489,0.11594202898550725,-0.06456338617694764
340109,0.0896,0.0925,0.0029,"ALBEMARLE HOSPITAL AUTHORITY","ELIZABETH CITY",NC,27909,0.2077922077922078,0.11538461538461539,-0.09240759240759241
200021,0.0897,0.0479,-0.041800000000000004,"MID COAST HOSPITAL",BRUNSWICK,ME,04011,0.3673469387755102,0.19318181818181818,-0.17416512059369205
140250,0.0898,0.118,0.02819999999999999,"ADVOCATE SOUTH SUBURBAN HOSPITAL","HAZEL CREST",IL,60429,0.2088607594936709,0.2074468085106383,-0.001413950983032597
360025,0.0900,0.1481,0.05810000000000001,"FIRELANDS REGIONAL MEDICAL CENTER",SANDUSKY,OH,44870,0.16666666666666666,0.16363636363636364,-0.003030303030303022
330094,0.0902,0.1071,0.0169,"COLUMBIA MEMORIAL HOSPITAL",HUDSON,NY,12534,0.22556390977443608,0.22413793103448276,-0.0014259787399533153
490079,0.0902,0.0716,-0.018600000000000005,"MEMORIAL HOSPITAL OF MARTINSVILLE & HENRY COUNTY",MARTINSVILLE,VA,24115,0.1588785046728972,0.13829787234042554,-0.02058063233247165
510031,0.0906,0.1105,0.0199,"ST FRANCIS HOSPITAL",CHARLESTON,WV,25301,0.3888888888888889,0.35,-0.03888888888888892
450010,0.0907,0.0864,-0.004299999999999998,"UNITED REGIONAL HEALTH CARE SYSTEM","WICHITA FALLS",TX,76301,0.14775160599571735,0.1435523114355231,-0.004199294560194244
520100,0.0909,0.0982,0.007300000000000001,"BELOIT MEM HSPTL",BELOIT,WI,53511,0.15384615384615385,0.12598425196850394,-0.02786190187764992
150018,0.0910,0.1061,0.015100000000000002,"ELKHART GENERAL HOSPITAL",ELKHART,IN,46514,0.17280453257790368,0.12075471698113208,-0.052049815596771604
440048,0.0911,0.1235,0.0324,"BAPTIST MEMORIAL HOSPITAL",MEMPHIS,TN,38120,0.18993135011441648,0.1631644004944376,-0.026766949619978886
330103,0.0914,0.1013,0.009900000000000006,"OLEAN GENERAL HOSPITAL",OLEAN,NY,14760,0.2619047619047619,0.1259259259259259,-0.135978835978836
360125,0.0916,0.1288,0.0372,"ASHTABULA COUNTY MEDICAL CENTER",ASHTABULA,OH,44004,0.2112676056338028,0.3220338983050847,0.11076629267128191
340131,0.0918,0.0725,-0.01930000000000001,"CAROLINA EAST MEDICAL CENTER","NEW BERN",NC,28560,0.18700787401574803,0.16091954022988506,-0.026088333785862977
110005,0.0924,0.052,-0.0404,"NORTHSIDE HOSPITAL FORSYTH",CUMMING,GA,30041,0.2669902912621359,0.11392405063291139,-0.15306624062922453
240093,0.0928,0.1114,0.018600000000000005,"MAYO CLINIC HEALTH SYSTEM - MANKATO",MANKATO,MN,56002,0.12162162162162163,0.15083798882681565,0.02921636720519402
100092,0.0932,0.0916,-0.0016000000000000042,"WUESTHOFF MEDICAL CENTER  ROCKLEDGE",ROCKLEDGE,FL,32955,0.1724137931034483,0.24880382775119617,0.07639003464774788
330250,0.0939,0.1185,0.024599999999999997,"CHAMPLAIN VALLEY PHYSICIANS HOSPITAL MEDICAL CTR",PLATTSBURGH,NY,12901,0.24649859943977592,0.19951923076923078,-0.04697936867054514
450133,0.0939,0.1004,0.006500000000000006,"MIDLAND MEMORIAL HOSPITAL",MIDLAND,TX,79701,0.10569105691056911,0.11057692307692307,0.004885866166353961
340115,0.0943,0.0809,-0.013399999999999995,"FIRSTHEALTH MOORE REGIONAL HOSPITAL",PINEHURST,NC,28374,0.1713197969543147,0.15803108808290156,-0.013288708871413146
420048,0.0943,0.0727,-0.021599999999999994,"KERSHAW HEALTH",CAMDEN,SC,29020,0.19230769230769232,0.23376623376623376,0.04145854145854144
110008,0.0944,0.0806,-0.013799999999999993,"NORTHSIDE HOSPITAL CHEROKEE",CANTON,GA,30114,0.17857142857142858,0.1865671641791045,0.007995735607675913
240057,0.0945,0.125,0.0305,"ABBOTT NORTHWESTERN HOSPITAL",MINNEAPOLIS,MN,55407,0.11730205278592376,0.12885662431941924,0.011554571533495483
100077,0.0947,0.0576,-0.03710000000000001,"PEACE RIVER REGIONAL MEDICAL CENTER","PORT CHARLOTTE",FL,33952,0.23529411764705882,0.19805194805194806,-0.03724216959511076
140046,0.0950,0.1494,0.054400000000000004,"GOOD SAMARITAN REGIONAL HLTH CENTER","MOUNT VERNON",IL,62864,0.2138728323699422,0.16666666666666666,-0.04720616570327554
160082,0.0951,0.1367,0.041599999999999984,"IOWA METHODIST MEDICAL CENTER","DES MOINES",IA,50309,0.10860655737704918,0.10940919037199125,0.0008026329949420707
360052,0.0951,0.1235,0.028399999999999995,"GOOD SAMARITAN HOSPITAL",DAYTON,OH,45406,0.2029598308668076,0.15812917594654788,-0.04483065492025973
280003,0.0953,0.0735,-0.0218,"BRYANLGH MEDICAL CENTER",LINCOLN,NE,68506,0.13194444444444445,0.0852575488454707,-0.04668689559897375
380061,0.0966,0.1847,0.0881,"PROVIDENCE PORTLAND MEDICAL CENTER",PORTLAND,OR,97213,0.10566037735849057,0.11469534050179211,0.009034963143301544
450718,0.0972,0.0629,-0.0343,"ROUND ROCK MEDICAL CENTER","ROUND ROCK",TX,78681,0.13541666666666666,0.11643835616438356,-0.018978310502283102
140172,0.0974,0.1562,0.058800000000000005,"FRANCISCAN ST JAMES HEALTH","OLYMPIA FIELDS",IL,60461,0.26693227091633465,0.27320954907161804,0.0062772781552833945
150051,0.0975,0.1598,0.062299999999999994,"INDIANA UNIVERSITY HEALTH BLOOMINGTON HOSPITAL",BLOOMINGTON,IN,47403,0.14823529411764705,0.10817307692307693,-0.04006221719457012
100173,0.0977,0.1298,0.032100000000000004,"FLORIDA HOSPITAL TAMPA",TAMPA,FL,33613,0.17329545454545456,0.2222222222222222,0.04892676767676765
100087,0.0978,0.1177,0.0199,"SARASOTA MEMORIAL HOSPITAL",SARASOTA,FL,34239,0.14760914760914762,0.12749003984063745,-0.02011910776851017
360064,0.0984,0.1002,0.001799999999999996,"ST ELIZABETH HEALTH CENTER",YOUNGSTOWN,OH,44501,0.22404371584699453,0.17350157728706625,-0.050542138559928285
150023,0.0986,0.1208,0.02220000000000001,"UNION HOSPITAL INC","TERRE HAUTE",IN,47804,0.14482758620689656,0.151797603195739,0.006970016988842448
160047,0.0986,0.1868,0.0882,"JENNIE EDMUNDSON HOSPITAL","COUNCIL BLUFFS",IA,51503,0.23931623931623933,0.15833333333333333,-0.080982905982906
190045,0.0990,0.0907,-0.008300000000000002,"ST TAMMANY PARISH HOSPITAL",COVINGTON,LA,70433,0.14772727272727273,0.19,0.04227272727272727
140155,0.0991,0.1698,0.07070000000000001,"PROVENA ST MARYS HOSPITAL",KANKAKEE,IL,60901,0.15384615384615385,0.19672131147540983,0.04287515762925598
360086,0.0996,0.1416,0.04200000000000001,"SPRINGFIELD REGIONAL MEDICAL CENTER",SPRINGFIELD,OH,45504,0.20599250936329588,0.22594142259414227,0.019948913230846382
500079,0.0996,0.1222,0.02260000000000001,"MULTICARE GOOD SAMARITAN HOSPITAL",PUYALLUP,WA,98372,0.2076923076923077,0.18815331010452963,-0.01953899758777808
100049,0.0998,0.1269,0.027100000000000013,"HIGHLANDS REGIONAL MEDICAL CENTER",SEBRING,FL,33870,0.3125,0.21705426356589147,-0.09544573643410853
130028,0.1000,0.1093,0.009299999999999989,"PORTNEUF MEDICAL CENTER",POCATELLO,ID,83201,0.07936507936507936,0.09090909090909091,0.011544011544011551
520139,0.1005,0.1443,0.043800000000000006,"AURORA WEST ALLIS MEDICAL CENTER","WEST ALLIS",WI,53227,0.1592920353982301,0.13924050632911392,-0.02005152906911617
510029,0.1009,0.1731,0.0722,"THOMAS MEMORIAL HOSPITAL","SOUTH CHARLESTON",WV,25309,0.17424242424242425,0.17777777777777778,0.0035353535353535304
450847,0.1010,0.0526,-0.048400000000000006,"MEMORIAL HERMANN KATY HOSPITAL",KATY,TX,77494,0.32653061224489793,0.18461538461538463,-0.1419152276295133
260180,0.1015,0.1061,0.004599999999999993,"CHRISTIAN HOSPITAL NORTHEAST","SAINT LOUIS",MO,63136,0.2344139650872818,0.24172185430463577,0.00730788921735398
420079,0.1015,0.1264,0.024900000000000005,"TRIDENT MEDICAL CENTER",CHARLESTON,SC,29406,0.17695473251028807,0.16010498687664043,-0.016849745633647634
140280,0.1018,0.1425,0.040699999999999986,"TRINITY ROCK ISLAND","ROCK ISLAND",IL,61201,0.20421393841166938,0.15210355987055016,-0.05211037854111922
360066,0.1018,0.1115,0.0097,"ST RITA'S MEDICAL CENTER",LIMA,OH,45801,0.1794871794871795,0.176,-0.003487179487179498
510047,0.1018,0.1111,0.009300000000000003,"FAIRMONT GENERAL HOSPITAL",FAIRMONT,WV,26554,0.16470588235294117,0.16483516483516483,0.00012928248222365823
450484,0.1019,0.1383,0.0364,"WOODLAND HEIGHTS MEDICAL CENTER",LUFKIN,TX,75904,0.16363636363636364,0.1386861313868613,-0.024950232249502324
220176,0.1021,0.1312,0.029100000000000015,"ST VINCENT HOSPITAL",WORCESTER,MA,01608,0.15346534653465346,0.14556962025316456,-0.007895726281488907
500003,0.1021,0.1661,0.064,"SKAGIT VALLEY HOSPITAL","MOUNT VERNON",WA,98274,0.14942528735632185,0.08695652173913043,-0.06246876561719142
150113,0.1028,0.136,0.03320000000000001,"COMMUNITY HOSPITAL OF ANDERSON AND MADISON COUNTY",ANDERSON,IN,46011,0.296875,0.23529411764705882,-0.06158088235294118
450571,0.1030,0.0977,-0.005299999999999999,"SHANNON MEDICAL CENTER","SAN ANGELO",TX,76903,0.1786743515850144,0.12121212121212122,-0.05746223037289319
170006,0.1031,0.0884,-0.01469999999999999,"VIA CHRISTI HOSPITAL PITTSBURG INC",PITTSBURG,KS,66762,0.22857142857142856,0.14583333333333334,-0.08273809523809522
150015,0.1034,0.109,0.005599999999999994,"FRANCISCAN ST ANTHONY HEALTH - MICHIGAN CITY","MICHIGAN CITY",IN,46360,0.16455696202531644,0.16477272727272727,0.0002157652474108207
340070,0.1034,0.1293,0.025899999999999992,"ALAMANCE REGIONAL MEDICAL CENTER",BURLINGTON,NC,27216,0.19078947368421054,0.16363636363636364,-0.0271531100478469
220033,0.1035,0.1247,0.02120000000000001,"BEVERLY HOSPITAL CORPORATION",BEVERLY,MA,01915,0.2625482625482625,0.15677966101694915,-0.10576860153131337
220110,0.1038,0.1129,0.009099999999999997,"BRIGHAM AND WOMEN'S HOSPITAL",BOSTON,MA,02115,0.23238380809595202,0.15732368896925858,-0.07506011912669344
490013,0.1047,0.084,-0.020699999999999996,"HALIFAX REGIONAL HOSPITAL",HALIFAX,VA,24558,0.2125,0.09734513274336283,-0.11515486725663716
330218,0.1049,0.1225,0.017600000000000005,"OSWEGO HOSPITAL",OSWEGO,NY,13126,0.20930232558139536,0.2261904761904762,0.016888150609080832
360239,0.1050,0.1961,0.0911,"KETTERING MEDICAL CENTER - SYCAMORE",MIAMISBURG,OH,45342,0.1875,0.3235294117647059,0.1360294117647059
140093,0.1051,0.1543,0.049199999999999994,"PROVENA UNITED SAMARITANS MEDCTR-LOGAN",DANVILLE,IL,61832,0.29508196721311475,0.19480519480519481,-0.10027677240791993
450702,0.1052,0.1361,0.030899999999999997,"LONGVIEW REGIONAL MEDICAL CENTER",LONGVIEW,TX,75605,0.17142857142857143,0.1111111111111111,-0.060317460317460325
450083,0.1064,0.0657,-0.0407,"EAST TEXAS MEDICAL CENTER",TYLER,TX,75701,0.18963337547408343,0.15597667638483964,-0.03365669908924379
380047,0.1065,0.1579,0.051400000000000015,"ST CHARLES MEDICAL CENTER - BEND",BEND,OR,97701,0.08394160583941605,0.08561643835616438,0.0016748325167483258
340051,0.1066,0.0833,-0.0233,"WATAUGA MEDICAL CENTER",BOONE,NC,28607,0.35294117647058826,0.14912280701754385,-0.2038183694530444
100122,0.1070,0.0852,-0.0218,"NORTH OKALOOSA MEDICAL CENTER",CRESTVIEW,FL,32539,0.19047619047619047,0.2288135593220339,0.038337368845843434
290046,0.1074,0.1964,0.089,"SPRING VALLEY HOSPITAL MEDICAL CENTER","LAS VEGAS",NV,89118,0.11764705882352941,0.1901840490797546,0.0725369902562252
310038,0.1075,0.1393,0.03180000000000001,"ROBERT WOOD JOHNSON UNIVERSITY HOSPITAL","NEW BRUNSWICK",NJ,08901,0.20634920634920634,0.17857142857142858,-0.027777777777777762
190177,0.1090,0.2041,0.0951,"LAKEVIEW REGIONAL MEDICAL CENTER",COVINGTON,LA,70433,0.1485148514851485,0.17073170731707318,0.022216855831924676
140012,0.1091,0.12,0.010899999999999993,"KATHERINE SHAW BETHEA HOSPITAL",DIXON,IL,61021,0.20388349514563106,0.13333333333333333,-0.07055016181229773
220001,0.1094,0.1754,0.066,"HEALTHALLIANCE HOSPITALS, INC",LEOMINSTER,MA,01453,0.23076923076923078,0.29411764705882354,0.06334841628959276
220073,0.1096,0.1153,0.005699999999999997,"MORTON HOSPITAL",TAUNTON,MA,02780,0.26804123711340205,0.1935483870967742,-0.07449285001662787
240115,0.1097,0.118,0.008299999999999988,"MERCY HOSPITAL","COON RAPIDS",MN,55433,0.1683673469387755,0.10599078341013825,-0.062376563528637255
330226,0.1099,0.1246,0.014700000000000005,"UNITY HOSPITAL OF ROCHESTER",ROCHESTER,NY,14626,0.22818791946308725,0.1927710843373494,-0.035416835125737844
450222,0.1102,0.1067,-0.003500000000000003,"CONROE REGIONAL MEDICAL CENTER",CONROE,TX,77304,0.20569620253164558,0.15925925925925927,-0.046436943272386316
220175,0.1103,0.148,0.0377,"METROWEST MEDICAL CENTER",FRAMINGHAM,MA,01701,0.3161764705882353,0.12318840579710146,-0.19298806479113384
330259,0.1103,0.1249,0.014600000000000002,"MERCY MEDICAL CENTER","ROCKVILLE CENTRE",NY,11570,0.3548387096774194,0.24087591240875914,-0.11396279726866024
450462,0.1104,0.1023,-0.008099999999999996,"TEXAS HEALTH PRESBYTERIAN HOSPITAL  DALLAS",DALLAS,TX,75231,0.24671052631578946,0.14081145584725538,-0.10589907046853408
260138,0.1107,0.1209,0.010199999999999987,"ST LUKES HOSPITAL OF KANSAS CITY","KANSAS CITY",MO,64111,0.20275590551181102,0.17330210772833723,-0.02945379778347379
150112,0.1112,0.1414,0.030200000000000005,"COLUMBUS REGIONAL HOSPITAL",COLUMBUS,IN,47201,0.148014440433213,0.159375,0.011360559566786999
230244,0.1114,0.1757,0.0643,"GARDEN CITY HOSPITAL","GARDEN CITY",MI,48135,0.24358974358974358,0.2512820512820513,0.007692307692307693
140223,0.1123,0.0944,-0.0179,"ADVOCATE LUTHERAN GENERAL HOSPITAL","PARK RIDGE",IL,60068,0.19241192411924118,0.15960912052117263,-0.03280280359806856
220086,0.1133,0.1413,0.02800000000000001,"BETH ISRAEL DEACONESS MEDICAL CENTER",BOSTON,MA,02215,0.25219941348973607,0.1875,-0.06469941348973607
330044,0.1139,0.1997,0.08579999999999999,"FAXTON-ST LUKE'S HEALTHCARE",UTICA,NY,13503,0.27710843373493976,0.20359281437125748,-0.07351561936368228
490044,0.1142,0.1217,0.007500000000000007,"SENTARA OBICI HOSPITAL",SUFFOLK,VA,23439,0.16379310344827586,0.1625,-0.0012931034482758508
270012,0.1145,0.12,0.005499999999999991,"BENEFIS HOSPITALS INC","GREAT FALLS",MT,59405,0.12972972972972974,0.102803738317757,-0.02692599141197273
360141,0.1149,0.1633,0.0484,"NORTHSIDE MEDICAL CENTER",YOUNGSTOWN,OH,44501,0.16901408450704225,0.24060150375939848,0.07158741925235623
360077,0.1151,0.1397,0.024599999999999997,"FAIRVIEW HOSPITAL",CLEVELAND,OH,44111,0.2222222222222222,0.17843866171003717,-0.043783560512185044
110198,0.1154,0.1398,0.024400000000000005,"NORTH FULTON REGIONAL HOSPITAL",ROSWELL,GA,30076,0.2222222222222222,0.13333333333333333,-0.08888888888888888
110198,0.1154,0.0564,-0.059000000000000004,"NORTH FULTON REGIONAL HOSPITAL",ROSWELL,GA,30076,0.2222222222222222,0.13333333333333333,-0.08888888888888888
150021,0.1155,0.1401,0.024599999999999997,"PARKVIEW REGIONAL MEDICAL CENTER","FORT WAYNE",IN,46805,0.13721413721413722,0.1342685370741483,-0.0029456001399889298
150109,0.1157,0.1271,0.011399999999999993,"FRANCISCAN ST ELIZABETH HEALTH - LAFAYETTE EAST",LAFAYETTE,IN,47905,0.14285714285714285,0.1111111111111111,-0.031746031746031744
510006,0.1160,0.2029,0.08689999999999999,"UNITED HOSPITAL CENTER",BRIDGEPORT,WV,26330,0.15267175572519084,0.2011173184357542,0.048445562710563356
490067,0.1161,0.0944,-0.021699999999999997,"SOUTHSIDE REGIONAL MEDICAL CENTER",PETERSBURG,VA,23805,0.20300751879699247,0.23214285714285715,0.02913533834586468
100045,0.1167,0.098,-0.018699999999999994,"FLORIDA HOSPITAL DELAND",DELAND,FL,32720,0.22,0.23529411764705882,0.01529411764705882
380002,0.1170,0.1982,0.08119999999999998,"THREE RIVERS COMMUNITY HOSPITAL","GRANTS PASS",OR,97527,0.15384615384615385,0.14583333333333334,-0.008012820512820512
450135,0.1170,0.1201,0.0030999999999999917,"TEXAS HEALTH HARRIS METHODIST FORT WORTH","FORT WORTH",TX,76104,0.22435897435897437,0.1328125,-0.09154647435897437
340001,0.1182,0.1288,0.010599999999999998,"CAROLINAS MEDICAL CENTER-NORTHEAST",CONCORD,NC,28025,0.1848184818481848,0.15953307392996108,-0.02528540791822373
510058,0.1191,0.1554,0.03630000000000001,"CAMDEN CLARK MEDICAL CENTER",PARKERSBURG,WV,26101,0.2074074074074074,0.16452991452991453,-0.04287749287749287
230075,0.1193,0.1839,0.0646,"BRONSON BATTLE CREEK HOSPITAL","BATTLE CREEK",MI,49017,0.2,0.1590909090909091,-0.04090909090909092
230151,0.1194,0.1514,0.032,"BOTSFORD HOSPITAL","FARMINGTON HILLS",MI,48336,0.302158273381295,0.27755102040816326,-0.02460725297313171
450688,0.1198,0.1473,0.027499999999999983,"DALLAS REGIONAL MEDICAL CENTER",MESQUITE,TX,75149,0.2676056338028169,0.20253164556962025,-0.06507398823319663
340014,0.1199,0.1184,-0.0015000000000000013,"FORSYTH MEMORIAL HOSPITAL",WINSTON-SALEM,NC,27103,0.17391304347826086,0.1348314606741573,-0.039081582804103565
490045,0.1199,0.0966,-0.0233,"PRINCE WILLIAM HOSPITAL",MANASSAS,VA,20110,0.14678899082568808,0.15789473684210525,0.011105746016417173
110018,0.1200,0.12,0,"NEWTON MEDICAL CENTER",COVINGTON,GA,30014,0.19480519480519481,0.2465753424657534,0.051770147660558596
180019,0.1200,0.12,0,"MEADOWVIEW REGIONAL MEDICAL CENTER",MAYSVILLE,KY,41056,0.14285714285714285,0.18461538461538463,0.041758241758241776
190054,0.1200,0.12,0,"IBERIA GENERAL HOSPITAL AND MEDICAL CENTER","NEW IBERIA",LA,70562,0.2018348623853211,0.12612612612612611,-0.075708736259195
200050,0.1200,0.0405,-0.07949999999999999,"MAINE COAST MEMORIAL HOSPITAL",ELLSWORTH,ME,04605,0.20967741935483872,0.16891891891891891,-0.0407585004359198
200063,0.1200,0.12,0,"PENOBSCOT BAY MEDICAL CENTER",ROCKPORT,ME,04856,0.2,0.17391304347826086,-0.026086956521739146
330084,0.1200,0.12,0,"ALICE HYDE MEDICAL CENTER",MALONE,NY,12953,0,0.23076923076923078,0.23076923076923078
330239,0.1200,0.12,0,"WOMAN'S CHRISTIAN ASSOCIATION",JAMESTOWN,NY,14701,0.2767857142857143,0.20754716981132076,-0.06923854447439354
340008,0.1200,0.12,0,"SCOTLAND MEMORIAL HOSPITAL",LAURINBURG,NC,28352,0.2077922077922078,0.27058823529411763,0.06279602750190982
340119,0.1200,0.1066,-0.013399999999999995,"STANLY REGIONAL MEDICAL CENTER",ALBEMARLE,NC,28001,0.16161616161616163,0.28888888888888886,0.12727272727272723
340119,0.1200,0.12,0,"STANLY REGIONAL MEDICAL CENTER",ALBEMARLE,NC,28001,0.16161616161616163,0.28888888888888886,0.12727272727272723
340141,0.1200,0.12,0,"NEW HANOVER REGIONAL MEDICAL CENTER",WILMINGTON,NC,28402,0.1727541954590326,0.1446051167964405,-0.028149078662592086
420055,0.1200,0.12,0,"MARION REGIONAL HOSPITAL",MULLINS,SC,29574,0.30327868852459017,0.25,-0.05327868852459017
440072,0.1200,0.12,0,"DYERSBURG REGIONAL MEDICAL CENTER",DYERSBURG,TN,38024,0.3194444444444444,0.2191780821917808,-0.10026636225266361
450236,0.1200,0.12,0,"HOPKINS COUNTY MEMORIAL HOSPITAL","SULPHUR SPRINGS",TX,75482,0.1323529411764706,0.19444444444444445,0.06209150326797386
450653,0.1200,0.1118,-0.008199999999999999,"SCENIC MOUNTAIN MEDICAL CENTER","BIG SPRING",TX,79720,0.3,0.3548387096774194,0.054838709677419384
450654,0.1200,0.12,0,"STARR COUNTY MEMORIAL HOSPITAL","RIO GRANDE CITY",TX,78582,0.3508771929824561,0.2857142857142857,-0.06516290726817042
490060,0.1200,0.12,0,"CLINCH VALLEY MEDICAL CENTER",RICHLANDS,VA,24641,0.29310344827586204,0.17391304347826086,-0.11919040479760118
670060,0.1200,0.1124,-0.007599999999999996,"TEXAS REGIONAL MEDICAL CENTER AT SUNNYVALE",SUNNYVALE,TX,75182,0.2391304347826087,0.1450381679389313,-0.09409226684367741
100026,0.1201,0.074,-0.0461,"BAY MEDICAL CENTER SACRED HEART HEALTH SYSTEM","PANAMA CITY",FL,32401,0.208,0.18639798488664988,-0.02160201511335011
330090,0.1203,0.1467,0.026399999999999993,"ARNOT OGDEN MEDICAL CENTER",ELMIRA,NY,14905,0.20821114369501467,0.21407624633431085,0.0058651026392961825
490052,0.1206,0.1274,0.006800000000000014,"RIVERSIDE REGIONAL MEDICAL CENTER","NEWPORT NEWS",VA,23601,0.14395886889460155,0.16216216216216217,0.018203293267560622
370032,0.1210,0.1089,-0.0121,"DEACONESS HOSPITAL","OKLAHOMA CITY",OK,73112,0.15942028985507245,0.13675213675213677,-0.022668153102935684
140202,0.1213,0.0814,-0.039900000000000005,"ADVOCATE CONDELL MEDICAL CENTER",LIBERTYVILLE,IL,60048,0.1509433962264151,0.14315352697095435,-0.007789869255460741
440176,0.1213,0.1459,0.024599999999999997,"INDIAN PATH MEDICAL CENTER",KINGSPORT,TN,37660,0.11904761904761904,0.1717171717171717,0.05266955266955267
420007,0.1217,0.1261,0.004399999999999987,"SPARTANBURG REGIONAL MEDICAL CENTER",SPARTANBURG,SC,29303,0.18683274021352314,0.1445578231292517,-0.042274917084271446
250040,0.1222,0.121,-0.0012000000000000066,"SINGING RIVER HOSPITAL",PASCAGOULA,MS,39581,0.17401960784313725,0.17587939698492464,0.001859789141787388
460004,0.1223,0.1189,-0.0034000000000000002,"MCKAY DEE HOSPITAL CENTER",OGDEN,UT,84403,0.124,0.12574850299401197,0.001748502994011969
270049,0.1232,0.1384,0.015199999999999991,"ST VINCENT HEALTHCARE",BILLINGS,MT,59107,0.12844036697247707,0.10666666666666667,-0.021773700305810398
450617,0.1232,0.114,-0.0092,"CLEAR LAKE REGIONAL MEDICAL CENTER",WEBSTER,TX,77598,0.18764302059496568,0.17291666666666666,-0.014726353928299019
270051,0.1236,0.2164,0.09280000000000001,"KALISPELL REGIONAL MEDICAL CENTER",KALISPELL,MT,59901,0.14444444444444443,0.08450704225352113,-0.059937402190923306
330264,0.1236,0.1492,0.025599999999999998,"ST LUKE'S CORNWALL HOSPITAL",NEWBURGH,NY,12550,0.264,0.18587360594795538,-0.07812639405204463
450424,0.1236,0.1284,0.004799999999999985,"SAN JACINTO METHODIST HOSPITAL",BAYTOWN,TX,77521,0.2072072072072072,0.16417910447761194,-0.04302810272959526
110030,0.1237,0.1327,0.009000000000000008,"CARTERSVILLE MEDICAL CENTER",CARTERSVILLE,GA,30120,0.22727272727272727,0.16822429906542055,-0.059048428207306713
450775,0.1244,0.1312,0.006800000000000014,"KINGWOOD MEDICAL CENTER",KINGWOOD,TX,77325,0.21084337349397592,0.2119815668202765,0.0011381933263005795
200009,0.1245,0.1393,0.014800000000000008,"MAINE MEDICAL CENTER",PORTLAND,ME,04102,0.13737201365187712,0.12058570198105081,-0.01678631167082631
520004,0.1245,0.1222,-0.0022999999999999965,"MAYO CLINIC HLTH SYSTEM- FRANCISCAN MED CTR, INC","LA CROSSE",WI,54601,0.11016949152542373,0.11504424778761062,0.004874756262186891
200031,0.1248,0.0967,-0.0281,"CARY MEDICAL CENTER",CARIBOU,ME,04736,0.225,0.22916666666666666,0.004166666666666652
190111,0.1252,0.1364,0.011199999999999988,"WILLIS KNIGHTON MEDICAL CENTER",SHREVEPORT,LA,71103,0.15851272015655576,0.17269736842105263,0.014184648264496863
440125,0.1253,0.1195,-0.0058,"FORT SANDERS REGIONAL MEDICAL CENTER",KNOXVILLE,TN,37916,0.16428571428571428,0.14883720930232558,-0.015448504983388706
310070,0.1263,0.1478,0.02149999999999999,"SAINT PETER'S UNIVERSITY HOSPITAL","NEW BRUNSWICK",NJ,08901,0.288,0.25,-0.03799999999999998
140224,0.1264,0.1405,0.014100000000000001,"SAINT JOSEPH HOSPITAL",CHICAGO,IL,60657,0.2463768115942029,0.24305555555555555,-0.0033212560386473577
440035,0.1265,0.1667,0.040199999999999986,"GATEWAY MEDICAL CENTER",CLARKSVILLE,TN,37040,0.21081081081081082,0.21019108280254778,-0.000619728008263043
190040,0.1269,0.1816,0.0547,"SLIDELL MEMORIAL HOSPITAL",SLIDELL,LA,70458,0.25,0.2,-0.04999999999999999
250048,0.1269,0.1222,-0.00470000000000001,"ST DOMINIC-JACKSON MEMORIAL HOSPITAL",JACKSON,MS,39216,0.17398945518453426,0.17793103448275863,0.0039415792982243625
500026,0.1269,0.1703,0.043399999999999994,"SWEDISH EDMONDS HOSPITAL",EDMONDS,WA,98026,0.22875816993464052,0.19333333333333333,-0.035424836601307186
170122,0.1271,0.1186,-0.008499999999999994,"VIA CHRISTI HOSPITALS WICHITA INC",WICHITA,KS,67214,0.17806451612903226,0.12414965986394558,-0.053914856265086686
140174,0.1274,0.1484,0.02099999999999999,"PROVENA MERCY MEDICAL CENTER",AURORA,IL,60506,0.2535211267605634,0.16901408450704225,-0.08450704225352113
240047,0.1275,0.1316,0.0040999999999999925,"ST LUKES HOSPITAL",DULUTH,MN,55805,0.2,0.1282051282051282,-0.07179487179487182
360172,0.1279,0.1503,0.022399999999999975,"MERCY REGIONAL MEDICAL CENTER",LORAIN,OH,44053,0.17940199335548174,0.1568627450980392,-0.022539248257442523
100067,0.1288,0.0721,-0.0567,"ST ANTHONY'S HOSPITAL","SAINT PETERSBURG",FL,33705,0.23026315789473684,0.18627450980392157,-0.04398864809081526
160045,0.1292,0.2392,0.10999999999999999,"ST LUKES HOSPITAL","CEDAR RAPIDS",IA,52402,0.14324324324324325,0.09836065573770492,-0.044882587505538335
110069,0.1296,0.14,0.01040000000000002,"HOUSTON MEDICAL CENTER","WARNER ROBINS",GA,31093,0.2823529411764706,0.15736040609137056,-0.12499253508510003
320085,0.1298,0.2014,0.0716,"MOUNTAIN VIEW REGIONAL MEDICAL CENTER","LAS CRUCES",NM,88011,0.17133956386292834,0.13588850174216027,-0.03545106212076807
450280,0.1302,0.0434,-0.08680000000000002,"BAYLOR MEDICAL CENTER AT GARLAND",GARLAND,TX,75042,0.11475409836065574,0.15178571428571427,0.037031615925058534
460001,0.1302,0.1455,0.01529999999999998,"UTAH VALLEY REGIONAL MEDICAL CENTER",PROVO,UT,84604,0.13220338983050847,0.10666666666666667,-0.0255367231638418
100157,0.1307,0.1177,-0.013000000000000012,"LAKELAND REGIONAL MEDICAL CENTER",LAKELAND,FL,33805,0.20972222222222223,0.2118003025718608,0.002078080349638578
390180,0.1307,0.188,0.05729999999999999,"CROZER CHESTER MEDICAL CENTER",UPLAND,PA,19013,0.18007662835249041,0.17073170731707318,-0.00934492103541723
100179,0.1312,0.1521,0.020900000000000002,"MEMORIAL HOSPITAL JACKSONVILLE",JACKSONVILLE,FL,32216,0.20754716981132076,0.20198675496688742,-0.005560414844433342
330394,0.1312,0.1799,0.04869999999999999,"UNITED HEALTH SERVICES HOSPITALS, INC","JOHNSON CITY",NY,13790,0.1705685618729097,0.16322314049586778,-0.007345421377041916
150089,0.1321,0.1661,0.034,"INDIANA UNIVERSITY HEALTH BALL MEMORIAL HOSPITAL",MUNCIE,IN,47303,0.12529002320185614,0.18625277161862527,0.06096274841676913
220020,0.1321,0.1409,0.008800000000000002,"SAINT ANNE'S HOSPITAL","FALL RIVER",MA,02721,0.2542372881355932,0.24615384615384617,-0.008083441981747042
310039,0.1322,0.1846,0.052399999999999974,"RARITAN BAY MEDICAL CENTER","PERTH AMBOY",NJ,08861,0.3170731707317073,0.25177304964539005,-0.06530012108631728
110029,0.1324,0.1113,-0.021099999999999994,"NORTHEAST GEORGIA MEDICAL CENTER, INC",GAINESVILLE,GA,30501,0.15435356200527706,0.12855209742895804,-0.025801464576319016
100093,0.1325,0.1395,0.007000000000000006,"BAPTIST HOSPITAL",PENSACOLA,FL,32501,0.1631578947368421,0.14545454545454545,-0.017703349282296665
150004,0.1326,0.1649,0.032299999999999995,"FRANCISCAN ST MARGARET HEALTH - HAMMOND",HAMMOND,IN,46320,0.2835249042145594,0.22388059701492538,-0.05964430719963401
500016,0.1327,0.1522,0.01949999999999999,"CENTRAL WASHINGTON HOSPITAL",WENATCHEE,WA,98807,0.08796296296296297,0.09853249475890985,0.010569531795946885
100131,0.1330,0.1206,-0.012400000000000008,"AVENTURA HOSPITAL AND MEDICAL CENTER",AVENTURA,FL,33180,0.23366834170854273,0.2706185567010309,0.036950214992488184
160110,0.1330,0.1454,0.012399999999999994,"ALLEN MEMORIAL HOSPITAL",WATERLOO,IA,50703,0.16304347826086957,0.13075060532687652,-0.03229287293399305
330393,0.1332,0.1373,0.0040999999999999925,"UNIVERSITY HOSPITAL ( STONY BROOK )","STONY BROOK",NY,11794,0.23613595706618962,0.19655521783181357,-0.03958073923437605
360039,0.1335,0.169,0.035500000000000004,"GENESIS HEALTHCARE SYSTEM",ZANESVILLE,OH,43701,0.21495327102803738,0.15030060120240482,-0.06465266982563256
310006,0.1336,0.2129,0.07930000000000001,"ST MARY'S HOSPITAL, PASSAIC",PASSAIC,NJ,07055,0.20408163265306123,0.19480519480519481,-0.009276437847866414
360218,0.1340,0.2016,0.0676,"LICKING MEMORIAL HOSPITAL HOMECARE",NEWARK,OH,43055,0.17355371900826447,0.14012738853503184,-0.033426330473232624
130049,0.1341,0.1257,-0.00839999999999999,"KOOTENAI MEDICAL CENTER","COEUR D'ALENE",ID,83814,0.09266409266409266,0.09686609686609686,0.0042020042020042
240038,0.1341,0.1398,0.005700000000000011,"UNITED HOSPITAL","SAINT PAUL",MN,55102,0.1758957654723127,0.14506172839506173,-0.030834037077250964
380050,0.1344,0.1866,0.052199999999999996,"SKY LAKES MEDICAL CENTER","KLAMATH FALLS",OR,97601,0.1276595744680851,0.1076923076923077,-0.019967266775777398
250009,0.1345,0.1088,-0.025700000000000014,"MAGNOLIA REGIONAL HEALTH CENTER",CORINTH,MS,38834,0.1919191919191919,0.17845117845117844,-0.013468013468013462
100017,0.1346,0.1561,0.02149999999999999,"HALIFAX HEALTH MEDICAL CENTER","DAYTONA BEACH",FL,32114,0.18028169014084508,0.1564245810055866,-0.023857109135258486
440189,0.1350,0.1185,-0.016500000000000015,"REGIONAL HOSPITAL OF JACKSON",JACKSON,TN,38305,0.24260355029585798,0.20754716981132076,-0.035056380484537214
440193,0.1353,0.1615,0.0262,"UNIVERSITY MEDICAL CENTER",LEBANON,TN,37087,0.25,0.23636363636363636,-0.013636363636363641
490113,0.1357,0.1187,-0.016999999999999987,"SENTARA POTOMAC HOSPITAL",WOODBRIDGE,VA,22191,0.16363636363636364,0.22764227642276422,0.06400591278640058
100088,0.1362,0.167,0.030800000000000022,"BAPTIST MEDICAL CENTER",JACKSONVILLE,FL,32207,0.15331807780320367,0.1590493601462523,0.0057312823430486215
490063,0.1362,0.1268,-0.009399999999999992,"INOVA FAIRFAX HOSPITAL","FALLS CHURCH",VA,22042,0.16868798235942667,0.16205533596837945,-0.006632646391047214
190204,0.1364,0.1072,-0.02919999999999999,"OCHSNER MEDICAL CENTER - NORTHSHORE, LLC",SLIDELL,LA,70461,0.17073170731707318,0.1625,-0.008231707317073178
440161,0.1364,0.1652,0.02880000000000002,"CENTENNIAL MEDICAL CENTER",NASHVILLE,TN,37203,0.15135135135135136,0.16114790286975716,0.009796551518405805
260017,0.1376,0.1357,-0.0019000000000000128,"PHELPS COUNTY REGIONAL MEDICAL CENTER",ROLLA,MO,65401,0.17073170731707318,0.1111111111111111,-0.05962059620596208
170086,0.1379,0.1386,0.0007000000000000062,"STORMONT-VAIL HEALTHCARE",TOPEKA,KS,66604,0.14705882352941177,0.1388888888888889,-0.008169934640522875
250141,0.1379,0.1383,0.00040000000000001146,"BAPTIST MEMORIAL HOSPITAL DESOTO",SOUTHAVEN,MS,38671,0.21335807050092764,0.18468468468468469,-0.028673385816242958
520087,0.1379,0.1394,0.0015000000000000013,"GUNDERSEN LUTH MED CTR","LA CROSSE",WI,54601,0.134375,0.1263537906137184,-0.008021209386281591
500024,0.1384,0.1273,-0.011099999999999999,"PROVIDENCE ST PETER HOSPITAL",OLYMPIA,WA,98506,0.1073345259391771,0.1267175572519084,0.019383031312731294
360133,0.1385,0.2169,0.0784,"GRANDVIEW HOSPITAL & MEDICAL CENTER",DAYTON,OH,45405,0.22033898305084745,0.21505376344086022,-0.005285219609987235
230080,0.1387,0.1644,0.0257,"CENTRAL MICHIGAN COMMUNITY HOSPITAL","MOUNT PLEASANT",MI,48858,0.24489795918367346,0.24242424242424243,-0.0024737167594310328
340010,0.1387,0.1544,0.01570000000000002,"WAYNE MEMORIAL HOSPITAL",GOLDSBORO,NC,27534,0.21428571428571427,0.20253164556962025,-0.011754068716094024
340021,0.1392,0.1391,-0.00009999999999998899,"CLEVELAND REGIONAL MEDICAL CENTER",SHELBY,NC,28150,0.19,0.20481927710843373,0.014819277108433726
310084,0.1397,0.3027,0.16300000000000003,"KIMBALL MEDICAL CENTER",LAKEWOOD,NJ,08701,0.30857142857142855,0.19658119658119658,-0.11199023199023198
100052,0.1399,0.127,-0.012899999999999995,"WINTER HAVEN HOSPITAL","WINTER HAVEN",FL,33881,0.20408163265306123,0.18571428571428572,-0.01836734693877551
220074,0.1401,0.1618,0.021699999999999997,"SOUTHCOAST HOSPITAL GROUP, INC","FALL RIVER",MA,02720,0.23091603053435114,0.18979591836734694,-0.0411201121670042
360132,0.1401,0.1929,0.052799999999999986,"FORT HAMILTON HUGHES MEMORIAL HOSPITAL",HAMILTON,OH,45013,0.16049382716049382,0.1262135922330097,-0.03428023492748411
260032,0.1406,0.1358,-0.004799999999999999,"BARNES JEWISH HOSPITAL","SAINT LOUIS",MO,63110,0.23868312757201646,0.2175226586102719,-0.02116046896174456
340002,0.1409,0.15,0.009099999999999997,"MEMORIAL MISSION HOSPITAL AND ASHEVILLE SURGERY CE",ASHEVILLE,NC,28801,0.16587997302764665,0.1134020618556701,-0.052477911171976546
230230,0.1410,0.1754,0.034400000000000014,"EDWARD W SPARROW HOSPITAL",LANSING,MI,48912,0.15473441108545036,0.16236162361623616,0.0076272125307857985
250004,0.1410,0.1459,0.0049000000000000155,"NORTH MISSISSIPPI MEDICAL CENTER",TUPELO,MS,38801,0.17571059431524547,0.14241960183767227,-0.033290992477573195
180116,0.1414,0.1529,0.01150000000000001,"JACKSON PURCHASE MEDICAL CENTER",MAYFIELD,KY,42066,0.2222222222222222,0.3181818181818182,0.09595959595959597
380051,0.1422,0.156,0.013800000000000007,"SALEM HOSPITAL",SALEM,OR,97301,0.17279411764705882,0.1054421768707483,-0.06735194077631051
500014,0.1424,0.1617,0.01930000000000001,"PROVIDENCE REGIONAL MEDICAL CENTER EVERETT",EVERETT,WA,98201,0.1958762886597938,0.13317757009345793,-0.06269871856633588
330153,0.1426,0.1629,0.020299999999999985,"ELLIS HOSPITAL",SCHENECTADY,NY,12308,0.1800356506238859,0.11363636363636363,-0.06639928698752227
440006,0.1426,0.1648,0.022199999999999998,"SKYLINE MEDICAL CENTER",NASHVILLE,TN,37207,0.15306122448979592,0.14864864864864866,-0.004412575841147265
330078,0.1429,0.1754,0.0325,"SISTERS OF CHARITY HOSPITAL",BUFFALO,NY,14214,0.2376237623762376,0.17391304347826086,-0.06371071889797675
380018,0.1442,0.2028,0.05860000000000001,"ROGUE VALLEY MEDICAL CENTER",MEDFORD,OR,97504,0.10121457489878542,0.08247422680412371,-0.018740348094661713
260040,0.1445,0.1665,0.02200000000000002,"COX MEDICAL CENTER",SPRINGFIELD,MO,65807,0.18448275862068966,0.14202334630350194,-0.04245941231718772
220046,0.1447,0.1845,0.0398,"BERKSHIRE MEDICAL CENTER INC",PITTSFIELD,MA,01201,0.24691358024691357,0.1984126984126984,-0.048500881834215165
410004,0.1454,0.216,0.0706,"ROGER WILLIAMS MEDICAL CENTER",PROVIDENCE,RI,02908,0.1875,0.2158273381294964,0.028327338129496393
310009,0.1457,0.1934,0.04769999999999999,"CLARA MAASS MEDICAL CENTER",BELLEVILLE,NJ,07109,0.24497991967871485,0.20446096654275092,-0.04051895313596393
110023,0.1458,0.1524,0.006599999999999995,"GORDON HOSPITAL",CALHOUN,GA,30701,0.234375,0.2545454545454545,0.02017045454545452
250104,0.1466,0.1404,-0.006200000000000011,"ANDERSON REGIONAL MEDICAL CENTER",MERIDIAN,MS,39301,0.155893536121673,0.14329268292682926,-0.012600853194843747
140208,0.1467,0.1604,0.01369999999999999,"ADVOCATE CHRIST HOSPITAL & MEDICAL CENTER","OAK LAWN",IL,60453,0.24126455906821964,0.2289156626506024,-0.012348896417617244
500077,0.1467,0.1918,0.0451,"PROVIDENCE HOLY FAMILY HOSPITAL",SPOKANE,WA,99208,0.125,0.1917808219178082,0.06678082191780821
250034,0.1468,0.1215,-0.025300000000000017,"BAPTIST MEMORIAL HOSPITAL NORTH MS",OXFORD,MS,38655,0.15841584158415842,0.15359477124183007,-0.004821070342328343
380060,0.1469,0.2099,0.063,"ADVENTIST MEDICAL CENTER",PORTLAND,OR,97216,0.16666666666666666,0.14093959731543623,-0.025727069351230425
310064,0.1472,0.2024,0.0552,"ATLANTICARE REGIONAL MEDICAL CENTER - CITY DIV","ATLANTIC CITY",NJ,08401,0.22202486678507993,0.16815476190476192,-0.053870104880318015
340126,0.1475,0.1706,0.02310000000000001,"WILSON MEDICAL CENTER",WILSON,NC,27893,0.24731182795698925,0.2413793103448276,-0.005932517612161653
140209,0.1476,0.1734,0.02579999999999999,"METHODIST MEDICAL CENTER OF ILLINOIS",PEORIA,IL,61636,0.1625441696113074,0.11808118081180811,-0.044462988799499295
420071,0.1479,0.1395,-0.00839999999999999,"SELF REGIONAL HEALTHCARE",GREENWOOD,SC,29646,0.15162454873646208,0.1582089552238806,0.006584406487418509
140091,0.1484,0.1674,0.01899999999999999,"CARLE FOUNDATION HOSPITAL",URBANA,IL,61801,0.20170454545454544,0.1640625,-0.03764204545454544
330104,0.1484,0.2216,0.07319999999999999,"NYACK HOSPITAL",NYACK,NY,10960,0.2916666666666667,0.21739130434782608,-0.0742753623188406
140251,0.1486,0.1908,0.04219999999999999,"OUR LADY OF THE RESURRECTION MED CTR",CHICAGO,IL,60634,0.30165289256198347,0.16037735849056603,-0.14127553407141744
130018,0.1491,0.2156,0.0665,"EASTERN IDAHO REGIONAL MEDICAL CENTER","IDAHO FALLS",ID,83404,0.11065573770491803,0.08013937282229965,-0.030516364882618385
450324,0.1495,0.0599,-0.08959999999999999,"TEXOMA MEDICAL CENTER",DENISON,TX,75020,0.22748815165876776,0.18324607329842932,-0.044242078360338444
220035,0.1501,0.1908,0.040699999999999986,"NORTH SHORE MEDICAL CENTER",SALEM,MA,01970,0.17158176943699732,0.1476510067114094,-0.023930762725587917
510008,0.1501,0.1981,0.04799999999999999,"CITY HOSPITAL",MARTINSBURG,WV,25401,0.1935483870967742,0.16091954022988506,-0.03262884686688913
370025,0.1509,0.1377,-0.013200000000000017,"MUSKOGEE REGIONAL MEDICAL CENTER",MUSKOGEE,OK,74401,0.19254658385093168,0.17123287671232876,-0.021313707138602922
520138,0.1519,0.1949,0.04299999999999998,"AURORA ST LUKES MEDICAL CENTER",MILWAUKEE,WI,53215,0.18136439267886856,0.1704422869471413,-0.01092210573172725
130006,0.1527,0.1449,-0.007800000000000001,"ST LUKES REGIONAL MEDICAL CENTER",BOISE,ID,83712,0.12430939226519337,0.09650924024640657,-0.0278001520187868
450678,0.1528,0.1588,0.006000000000000005,"DOCTORS HOSPITAL",DALLAS,TX,75218,0.16541353383458646,0.19672131147540983,0.031307777640823375
520193,0.1528,0.134,-0.018799999999999983,"AURORA BAYCARE MED CTR","GREEN BAY",WI,54311,0.20422535211267606,0.17037037037037037,-0.033854981742305695
450299,0.1539,0.1768,0.022900000000000004,"COLLEGE STATION MEDICAL CENTER","COLLEGE STATION",TX,77842,0.1590909090909091,0.16923076923076924,0.010139860139860152
100071,0.1544,0.178,0.023599999999999982,"BROOKSVILLE REGIONAL HOSPITAL",BROOKSVILLE,FL,34601,0.18548387096774194,0.12931034482758622,-0.05617352614015572
180013,0.1545,0.2106,0.05610000000000001,"THE MEDICAL CENTER AT BOWLING GREEN","BOWLING GREEN",KY,42101,0.17073170731707318,0.20341047503045068,0.03267876771337749
180044,0.1547,0.2349,0.0802,"PIKEVILLE MEDICAL CENTER",PIKEVILLE,KY,41501,0.2149122807017544,0.19488817891373802,-0.020024101788016363
140084,0.1550,0.2048,0.04980000000000001,"VISTA MEDICAL CENTER EAST",WAUKEGAN,IL,60085,0.17575757575757575,0.15217391304347827,-0.02358366271409748
230021,0.1550,0.2016,0.0466,"LAKELAND HOSPITAL, ST JOSEPH","ST JOSEPH",MI,49085,0.20437956204379562,0.16806722689075632,-0.036312335153039305
450844,0.1554,0.1331,-0.022300000000000014,"METHODIST WILLOWBROOK HOSPITAL",HOUSTON,TX,77070,0.18181818181818182,0.19133574007220217,0.009517558254020342
360159,0.1557,0.2028,0.0471,"ADENA REGIONAL MEDICAL CENTER",CHILLICOTHE,OH,45601,0.22380952380952382,0.18699186991869918,-0.03681765389082464
390070,0.1561,0.1236,-0.03249999999999999,"LOWER BUCKS HOSPITAL",BRISTOL,PA,19007,0.136986301369863,0.25,0.113013698630137
240001,0.1570,0.164,0.007000000000000006,"NORTH MEMORIAL MEDICAL CENTER",ROBBINSDALE,MN,55422,0.14622641509433962,0.12562814070351758,-0.02059827439082204
420082,0.1580,0.1655,0.007500000000000007,"AIKEN REGIONAL MEDICAL CENTER",AIKEN,SC,29801,0.16666666666666666,0.08333333333333333,-0.08333333333333333
220095,0.1584,0.2071,0.04869999999999999,"HEYWOOD HOSPITAL",GARDNER,MA,01440,0.27450980392156865,0.19444444444444445,-0.0800653594771242
100007,0.1590,0.1343,-0.0247,"FLORIDA HOSPITAL",ORLANDO,FL,32803,0.2507440476190476,0.18089887640449437,-0.06984517121455325
330163,0.1598,0.2424,0.0826,"EASTERN NIAGARA HOSPITAL",LOCKPORT,NY,14094,0.2716049382716049,0.2191780821917808,-0.05242685607982411
450518,0.1599,0.1851,0.0252,"THE MEDICAL CENTER OF SOUTHEAST TEXAS","PORT ARTHUR",TX,77640,0.12631578947368421,0.14942528735632185,0.023109497882637636
260005,0.1604,0.1372,-0.0232,"SSM ST JOSEPH HEALTH CENTER","SAINT CHARLES",MO,63301,0.2363013698630137,0.20276497695852536,-0.033536392904488344
140164,0.1612,0.1665,0.005299999999999999,"MEMORIAL HOSPITAL OF CARBONDALE",CARBONDALE,IL,62902,0.1529126213592233,0.1738241308793456,0.0209115095201223
410007,0.1613,0.1948,0.0335,"RHODE ISLAND HOSPITAL",PROVIDENCE,RI,02902,0.20930232558139536,0.1765834932821497,-0.03271883229924566
310032,0.1617,0.2014,0.039699999999999985,"SOUTH JERSEY HEALTHCARE REGIONAL MEDICAL CENTER",VINELAND,NJ,08360,0.27011494252873564,0.24242424242424243,-0.027690700104493204
490024,0.1619,0.1572,-0.004699999999999982,"CARILION ROANOKE MEMORIAL CENTER",ROANOKE,VA,24014,0.1611271676300578,0.15311418685121106,-0.00801298077884674
110031,0.1631,0.1359,-0.027200000000000002,"SPALDING REGIONAL MEDICAL CENTER",GRIFFIN,GA,30223,0.17647058823529413,0.14201183431952663,-0.0344587539157675
110031,0.1631,0.1248,-0.0383,"SPALDING REGIONAL MEDICAL CENTER",GRIFFIN,GA,30223,0.17647058823529413,0.14201183431952663,-0.0344587539157675
340130,0.1637,0.1513,-0.012400000000000022,"CAROLINAS MEDICAL CENTER-UNION",MONROE,NC,28110,0.28421052631578947,0.24285714285714285,-0.041353383458646614
490007,0.1652,0.16,-0.00520000000000001,"SENTARA NORFOLK GENERAL HOSPITAL",NORFOLK,VA,23507,0.19373776908023482,0.14351851851851852,-0.050219250561716305
360234,0.1662,0.0985,-0.06769999999999998,"MERCY FRANCISCAN HOSPITAL - MT AIRY",CINCINNATI,OH,45239,0.25806451612903225,0.1810344827586207,-0.07703003337041156
110177,0.1663,0.1717,0.005399999999999988,"DOCTORS HOSPITAL",AUGUSTA,GA,30909,0.125,0.21518987341772153,0.09018987341772153
510022,0.1669,0.1866,0.019699999999999995,"CHARLESTON AREA MEDICAL CENTER",CHARLESTON,WV,25301,0.19728506787330316,0.17066895368782162,-0.026616114185481543
420070,0.1670,0.2046,0.037599999999999995,"TUOMEY HEALTHCARE SYSTEM",SUMTER,SC,29150,0.2,0.2608695652173913,0.060869565217391286
420070,0.1670,0.1827,0.015699999999999992,"TUOMEY HEALTHCARE SYSTEM",SUMTER,SC,29150,0.2,0.2608695652173913,0.060869565217391286
100012,0.1671,0.1835,0.016399999999999998,"LEE MEMORIAL HOSPITAL","FORT MYERS",FL,33901,0.1802773497688752,0.18425196850393702,0.00397461873506183
470003,0.1677,0.173,0.005299999999999999,"FLETCHER ALLEN HOSPITAL OF VERMONT",BURLINGTON,VT,05401,0.15254237288135594,0.12897196261682242,-0.02357041026453352
190002,0.1678,0.2248,0.056999999999999995,"LAFAYETTE GENERAL MEDICAL CENTER",LAFAYETTE,LA,70503,0.22777777777777777,0.20095693779904306,-0.026820839978734717
220111,0.1678,0.2506,0.08279999999999998,"GOOD SAMARITAN MEDICAL CENTER",BROCKTON,MA,02301,0.25287356321839083,0.16521739130434782,-0.08765617191404301
110074,0.1679,0.1607,-0.007199999999999984,"ATHENS REGIONAL MEDICAL CENTER",ATHENS,GA,30606,0.15196998123827393,0.12121212121212122,-0.030757860026152717
100243,0.1681,0.1612,-0.0068999999999999895,"BRANDON REGIONAL HOSPITAL",BRANDON,FL,33511,0.19714964370546317,0.1895734597156398,-0.007576183989823376
220163,0.1681,0.2146,0.046500000000000014,"UMASS MEMORIAL MEDICAL CENTER INC",WORCESTER,MA,01655,0.21133412042502953,0.17088607594936708,-0.04044804447566244
160024,0.1684,0.2653,0.09689999999999999,"IOWA LUTHERAN HOSPITAL","DES MOINES",IA,50316,0.2014388489208633,0.09401709401709402,-0.10742175490376929
230142,0.1684,0.1877,0.01930000000000001,"OAKWOOD ANNAPOLIS HOSPITAL",WAYNE,MI,48184,0.23076923076923078,0.22807017543859648,-0.0026990553306343035
420036,0.1684,0.1661,-0.0022999999999999965,"SPRINGS MEMORIAL HOSPITAL",LANCASTER,SC,29720,0.23134328358208955,0.3137254901960784,0.08238220661398887
100268,0.1690,0.1339,-0.03510000000000002,"WEST BOCA MEDICAL CENTER","BOCA RATON",FL,33428,0.22950819672131148,0.24,0.01049180327868851
450730,0.1695,0.1113,-0.058200000000000016,"BAYLOR MEDICAL CENTER AT CARROLLTON",CARROLLTON,TX,75010,0.2833333333333333,0.2,-0.08333333333333331
180048,0.1698,0.2063,0.036500000000000005,"EPHRAIM MCDOWELL REGIONAL MEDICAL CENTER",DANVILLE,KY,40422,0.1388888888888889,0.19597989949748743,0.05709101060859853
260027,0.1701,0.148,-0.02210000000000001,"RESEARCH MEDICAL CENTER","KANSAS CITY",MO,64132,0.1793478260869565,0.1510791366906475,-0.028268689396309027
190160,0.1703,0.1891,0.018799999999999983,"GLENWOOD REGIONAL MEDICAL CENTER","WEST MONROE",LA,71291,0.2222222222222222,0.21568627450980393,-0.006535947712418277
110095,0.1720,0.1849,0.012900000000000023,"TIFT REGIONAL MEDICAL CENTER",TIFTON,GA,31793,0.11363636363636363,0.17482517482517482,0.061188811188811185
140067,0.1725,0.1916,0.019100000000000006,"SAINT FRANCIS MEDICAL CENTER",PEORIA,IL,61637,0.14518760195758565,0.13458950201884254,-0.01059809993874311
340091,0.1730,0.1562,-0.01679999999999998,"MOSES H CONE MEMORIAL HOSPITAL, THE",GREENSBORO,NC,27401,0.1689291101055807,0.12280701754385964,-0.04612209256172106
340027,0.1736,0.1435,-0.030100000000000016,"LENOIR MEMORIAL HOSPITAL",KINSTON,NC,28501,0.2222222222222222,0.23417721518987342,0.011954992967651207
260104,0.1755,0.1637,-0.011799999999999977,"SSM DEPAUL HEALTH CENTER",BRIDGETON,MO,63044,0.2533783783783784,0.1718213058419244,-0.081557072536454
330158,0.1766,0.1901,0.013499999999999984,"GOOD SAMARITAN HOSPITAL OF SUFFERN",SUFFERN,NY,10901,0.20267686424474188,0.1871345029239766,-0.01554236132076528
110122,0.1772,0.1841,0.006900000000000017,"SOUTH GEORGIA MEDICAL CENTER",VALDOSTA,GA,31603,0.19805194805194806,0.18238993710691823,-0.015662010945029836
230020,0.1777,0.2186,0.04089999999999999,"OAKWOOD HOSPITAL AND MEDICAL CENTER",DEARBORN,MI,48124,0.2273105745212323,0.19201725997842503,-0.035293314542807264
360068,0.1783,0.1918,0.013500000000000012,"TOLEDO HOSPITAL THE",TOLEDO,OH,43606,0.13937282229965156,0.1324404761904762,-0.006932346109175369
100035,0.1784,0.1414,-0.037000000000000005,"MANATEE MEMORIAL HOSPITAL",BRADENTON,FL,34208,0.17721518987341772,0.1384083044982699,-0.038806885375147815
450684,0.1788,0.137,-0.041799999999999976,"MEMORIAL HERMANN NORTHEAST",HUMBLE,TX,77338,0.19424460431654678,0.18243243243243243,-0.011812171884114347
260105,0.1791,0.2338,0.0547,"ST LOUIS UNIVERSITY HOSPITAL","SAINT LOUIS",MO,63110,0.15730337078651685,0.28205128205128205,0.1247479112647652
330043,0.1792,0.1567,-0.022499999999999992,"SOUTHSIDE HOSPITAL","BAY SHORE",NY,11706,0.23696682464454977,0.15384615384615385,-0.08312067079839591
110038,0.1796,0.1646,-0.015000000000000013,"JOHN D ARCHBOLD MEMORIAL HOSPITAL",THOMASVILLE,GA,31792,0.12345679012345678,0.16019417475728157,0.03673738463382478
100275,0.1805,0.1739,-0.006599999999999995,"WELLINGTON REGIONAL MEDICAL CENTER",WELLINGTON,FL,33414,0.20408163265306123,0.13580246913580246,-0.06827916351725877
100030,0.1811,0.1452,-0.035900000000000015,"HEALTH CENTRAL",OCOEE,FL,34761,0.2125,0.16541353383458646,-0.04708646616541354
360051,0.1827,0.2074,0.0247,"MIAMI VALLEY HOSPITAL",DAYTON,OH,45409,0.16589861751152074,0.14533622559652928,-0.020562391914991457
140054,0.1829,0.2011,0.018199999999999994,"MACNEAL  HOSPITAL",BERWYN,IL,60402,0.20657276995305165,0.1443850267379679,-0.062187743215083746
230207,0.1829,0.2222,0.0393,"MCLAREN OAKLAND",PONTIAC,MI,48342,0.25,0.25,0
140186,0.1831,0.2046,0.02149999999999999,"RIVERSIDE MEDICAL CENTER",KANKAKEE,IL,60901,0.20930232558139536,0.14432989690721648,-0.06497242867417888
330013,0.1831,0.1839,0.0007999999999999952,"ALBANY MEDICAL CENTER HOSPITAL",ALBANY,NY,12208,0.18453865336658354,0.19799498746867167,0.01345633410208813
220036,0.1849,0.2297,0.04479999999999998,"ST ELIZABETH'S MEDICAL CENTER",BRIGHTON,MA,02135,0.24274406332453827,0.2282051282051282,-0.014538935119410068
140304,0.1871,0.1555,-0.03159999999999999,"ADVENTIST BOLINGBROOK HOSPITAL",BOLINGBROOK,IL,60440,0.26666666666666666,0.1746031746031746,-0.09206349206349207
110016,0.1877,0.1679,-0.019800000000000012,"WEST GEORGIA MEDICAL CENTER",LAGRANGE,GA,30240,0.14285714285714285,0.1949685534591195,0.05211141060197666
180009,0.1878,0.2204,0.03260000000000002,"KING'S DAUGHTERS' MEDICAL CENTER",ASHLAND,KY,41101,0.21912832929782083,0.20133111480865223,-0.0177972144891686
330386,0.1878,0.2027,0.014899999999999997,"CATSKILL REGIONAL MEDICAL CENTER",HARRIS,NY,12742,0.23076923076923078,0.30612244897959184,0.07535321821036106
170123,0.1883,0.1608,-0.027499999999999997,"WESLEY MEDICAL CENTER",WICHITA,KS,67214,0.12559241706161137,0.12962962962962962,0.004037212568018256
100002,0.1884,0.1594,-0.029000000000000026,"BETHESDA MEMORIAL HOSPITAL","BOYNTON BEACH",FL,33435,0.16265060240963855,0.16464891041162227,0.001998308001983723
250094,0.1884,0.2203,0.031899999999999984,"WESLEY MEDICAL CENTER",HATTIESBURG,MS,39402,0.19270833333333334,0.18571428571428572,-0.006994047619047622
190039,0.1886,0.1805,-0.008099999999999996,"WEST JEFFERSON MEDICAL CENTER",MARRERO,LA,70072,0.18243243243243243,0.24786324786324787,0.06543081543081544
190039,0.1886,0.2094,0.020800000000000013,"WEST JEFFERSON MEDICAL CENTER",MARRERO,LA,70072,0.18243243243243243,0.24786324786324787,0.06543081543081544
310075,0.1886,0.2461,0.05750000000000002,"MONMOUTH MEDICAL CENTER","LONG BRANCH",NJ,07740,0.2348993288590604,0.20689655172413793,-0.02800277713492247
440015,0.1896,0.166,-0.023599999999999982,"UNIVERSITY OF TN MEMORIAL HOSPITAL",KNOXVILLE,TN,37920,0.17980295566502463,0.16034985422740525,-0.019453101437619386
220080,0.1902,0.2481,0.05789999999999998,"HOLY FAMILY HOSPITAL",METHUEN,MA,01844,0.22549019607843138,0.1889763779527559,-0.03651381812567547
260137,0.1906,0.1456,-0.044999999999999984,"FREEMAN HEALTH SYSTEM - FREEMAN WEST",JOPLIN,MO,64804,0.189010989010989,0.13940520446096655,-0.04960578455002246
100063,0.1915,0.189,-0.0025000000000000022,"MORTON PLANT NORTH BAY HOSPITAL","NEW PORT RICHEY",FL,34652,0.16417910447761194,0.22988505747126436,0.06570595299365242
190008,0.1915,0.1851,-0.006400000000000017,"TERREBONNE GENERAL MEDICAL CENTER",HOUMA,LA,70360,0.1510204081632653,0.15579710144927536,0.0047766932860100475
250100,0.1915,0.1847,-0.0068000000000000005,"BAPTIST MEM HOSP/GOLDEN TRIANGLE INC",COLUMBUS,MS,39701,0.1348314606741573,0.11695906432748537,-0.017872396346671926
140080,0.1929,0.2316,0.03870000000000001,"RHC ST FRANCIS HOSPITAL",EVANSTON,IL,60202,0.26717557251908397,0.22666666666666666,-0.040508905852417315
450152,0.1934,0.2022,0.008800000000000002,"METROPLEX HOSPITAL",KILLEEN,TX,76542,0.1875,0.19047619047619047,0.0029761904761904656
310083,0.1935,0.2938,0.1003,"EAST ORANGE GENERAL HOSPITAL","EAST ORANGE",NJ,07018,0.3939393939393939,0.25,-0.14393939393939392
250019,0.1938,0.1559,-0.03789999999999999,"MEMORIAL HOSPITAL AT GULFPORT",GULFPORT,MS,39502,0.22026431718061673,0.2057142857142857,-0.01455003146633102
360137,0.1946,0.211,0.016399999999999998,"UNIVERSITY HOSPITALS OF CLEVELAND",CLEVELAND,OH,44106,0.21899736147757257,0.19732441471571907,-0.021672946761853495
150002,0.1952,0.231,0.0358,"METHODIST HOSPITALS INC",GARY,IN,46402,0.22268907563025211,0.23741007194244604,0.014720996312193924
100246,0.1955,0.2013,0.0058,"LAWNWOOD REGIONAL MEDICAL CENTER & HEART INSTITUTE","FORT PIERCE",FL,34950,0.1956989247311828,0.20363636363636364,0.007937438905180838
450147,0.1967,0.1509,-0.04580000000000001,"DETAR HOSPITAL NAVARRO",VICTORIA,TX,77902,0.18725099601593626,0.14342629482071714,-0.04382470119521911
340069,0.1971,0.2095,0.012399999999999994,"WAKEMED, RALEIGH CAMPUS",RALEIGH,NC,27610,0.19249394673123488,0.1517509727626459,-0.040742973968588975
370202,0.1972,0.0779,-0.11929999999999999,"HILLCREST HOSPITAL SOUTH",TULSA,OK,74133,0.17277486910994763,0.13488372093023257,-0.03789114817971506
120006,0.1983,0.1814,-0.0169,"CASTLE MEDICAL CENTER",KAILUA,HI,96734,0.2882882882882883,0.1792452830188679,-0.10904300526942037
450132,0.1989,0.1703,-0.028599999999999987,"MEDICAL CENTER HOSPITAL",ODESSA,TX,79761,0.13075506445672191,0.16997167138810199,0.03921660693138007
100135,0.1992,0.1654,-0.0338,"TALLAHASSEE MEMORIAL HEALTHCARE",TALLAHASSEE,FL,32308,0.1425287356321839,0.1796116504854369,0.03708291485325299
420051,0.2002,0.1832,-0.016999999999999987,"MCLEOD REGIONAL MEDICAL CENTER-PEE DEE",FLORENCE,SC,29506,0.2339667458432304,0.18311688311688312,-0.050849862726347284
500058,0.2003,0.2227,0.022400000000000003,"KADLEC REGIONAL MEDICAL CENTER",RICHLAND,WA,99352,0.10789473684210527,0.13387423935091278,0.02597950250880751
220052,0.2029,0.266,0.06310000000000002,"SIGNATURE HEALTHCARE BROCKTON HOSPITAL",BROCKTON,MA,02302,0.1794871794871795,0.1891891891891892,0.009702009702009712
420078,0.2029,0.232,0.029100000000000015,"GREENVILLE MEMORIAL HOSPITAL",GREENVILLE,SC,29605,0.12691131498470948,0.1157167530224525,-0.011194561962256974
340053,0.2032,0.1828,-0.0204,"PRESBYTERIAN HOSPITAL",CHARLOTTE,NC,28233,0.16520210896309315,0.1766304347826087,0.011428325819515556
420020,0.2033,0.1369,-0.06640000000000001,"GEORGETOWN MEMORIAL HOSPITAL",GEORGETOWN,SC,29440,0.22522522522522523,0.25210084033613445,0.026875615110909218
330241,0.2043,0.2434,0.039099999999999996,"UNIVERSITY HOSPITAL S U N Y HEALTH SCIENCE CENTER",SYRACUSE,NY,13210,0.21142857142857144,0.15311004784688995,-0.05831852358168149
100110,0.2047,0.1789,-0.02579999999999999,"OSCEOLA REGIONAL MEDICAL CENTER",KISSIMMEE,FL,34741,0.21940928270042195,0.2246153846153846,0.005206101914962652
110107,0.2047,0.1934,-0.011300000000000004,"MEDICAL CENTER OF CENTRAL GEORGIA",MACON,GA,31201,0.192090395480226,0.18045112781954886,-0.011639267660677133
160146,0.2062,0.2545,0.04830000000000001,"ST LUKES REGIONAL MEDICAL CENTER","SIOUX CITY",IA,51104,0.2391304347826087,0.12598425196850394,-0.11314618281410477
100242,0.2066,0.1998,-0.0068000000000000005,"GULF COAST MEDICAL CENTER","PANAMA CITY",FL,32405,0.32142857142857145,0.21678321678321677,-0.10464535464535468
420068,0.2076,0.245,0.03739999999999999,"TRMC OF ORANGEBURG & CALHOUN",ORANGEBURG,SC,29115,0.27722772277227725,0.23376623376623376,-0.04346148900604349
330160,0.2083,0.2042,-0.00410000000000002,"STATEN ISLAND UNIVERSITY HOSPITAL","STATEN ISLAND",NY,10305,0.2068230277185501,0.17553191489361702,-0.031291112824933076
250058,0.2086,0.1623,-0.04630000000000001,"SOUTH CENTRAL REG MED CTR",LAUREL,MS,39440,0.18181818181818182,0.2786885245901639,0.09687034277198209
330184,0.2090,0.1897,-0.019299999999999984,"SOUND SHORE MEDICAL CENTER OF WESTSCHESTER","NEW ROCHELLE",NY,10802,0.31007751937984496,0.2413793103448276,-0.06869820903501736
250078,0.2118,0.1993,-0.012499999999999983,"FORREST GENERAL HOSPITAL",HATTIESBURG,MS,39404,0.1588447653429603,0.18379446640316205,0.02494970106020175
310096,0.2119,0.2904,0.07849999999999999,"SAINT MICHAEL'S MEDICAL CENTER, INC",NEWARK,NJ,07102,0.34868421052631576,0.2254335260115607,-0.12325068451475507
310096,0.2119,0.3037,0.09180000000000002,"SAINT MICHAEL'S MEDICAL CENTER, INC",NEWARK,NJ,07102,0.34868421052631576,0.2254335260115607,-0.12325068451475507
320021,0.2122,0.2661,0.0539,"PRESBYTERIAN HOSPITAL",ALBUQUERQUE,NM,87106,0.12808988764044943,0.11041666666666666,-0.017673220973782766
290021,0.2124,0.3305,0.11810000000000001,"VALLEY HOSPITAL MEDICAL CENTER","LAS VEGAS",NV,89106,0.23333333333333334,0.19767441860465115,-0.035658914728682184
190202,0.2132,0.2481,0.03489999999999999,"OCHSNER MEDICAL CENTER-BATON ROUGE","BATON ROUGE",LA,70816,0.21428571428571427,0.13402061855670103,-0.08026509572901325
500044,0.2143,0.2335,0.019200000000000023,"DEACONESS HOSPITAL",SPOKANE,WA,99210,0.12883435582822086,0.12643678160919541,-0.00239757421902545
220063,0.2156,0.1893,-0.026300000000000018,"LOWELL GENERAL HOSPITAL",LOWELL,MA,01854,0.22608695652173913,0.1827956989247312,-0.04329125759700794
140118,0.2179,0.231,0.0131,"METROSOUTH MEDICAL CENTER","BLUE ISLAND",IL,60406,0.35036496350364965,0.23809523809523808,-0.11226972540841157
150058,0.2181,0.2577,0.039599999999999996,"MEMORIAL HOSPITAL OF SOUTH BEND","SOUTH BEND",IN,46601,0.1393939393939394,0.14661654135338345,0.007222601959444047
440049,0.2184,0.2192,0.0007999999999999952,"METHODIST HEALTHCARE MEMPHIS HOSPITALS",MEMPHIS,TN,38104,0.21230398069963813,0.16666666666666666,-0.04563731403297147
450037,0.2186,0.1904,-0.028199999999999975,"GOOD SHEPHERD MEDICAL CENTER",LONGVIEW,TX,75601,0.18938053097345134,0.1707865168539326,-0.018594014119518748
140191,0.2192,0.2472,0.027999999999999997,"INGALLS MEMORIAL HOSPITAL",HARVEY,IL,60426,0.2585669781931464,0.22262773722627738,-0.03593924096686901
240080,0.2198,0.2199,0.00010000000000001674,"UNIVERSITY OF MINNESOTA  MEDICAL CENTER, FAIRVIEW",MINNEAPOLIS,MN,55454,0.17391304347826086,0.1565217391304348,-0.01739130434782607
150074,0.2204,0.2598,0.03939999999999996,"COMMUNITY HOSPITAL EAST",INDIANAPOLIS,IN,46219,0.17886178861788618,0.1625615763546798,-0.01630021226320638
110001,0.2214,0.2228,0.0013999999999999846,"HAMILTON MEDICAL CENTER",DALTON,GA,30720,0.08661417322834646,0.12184873949579832,0.03523456626745186
450200,0.2215,0.1851,-0.036400000000000016,"WADLEY REGIONAL MEDICAL CENTER",TEXARKANA,TX,75501,0.18705035971223022,0.13414634146341464,-0.052904018248815576
110036,0.2234,0.262,0.03860000000000002,"MEMORIAL HEALTH UNIV MED CEN, INC",SAVANNAH,GA,31403,0.13486842105263158,0.13445378151260504,-0.0004146395400265457
330005,0.2247,0.1996,-0.02510000000000001,"KALEIDA HEALTH",BUFFALO,NY,14210,0.23771580345285526,0.15459610027855153,-0.08311970317430373
500054,0.2250,0.2386,0.013600000000000001,"PROVIDENCE SACRED HEART MEDICAL CENTER",SPOKANE,WA,99204,0.1,0.09433962264150944,-0.005660377358490565
310003,0.2253,0.2577,0.032399999999999984,"PALISADES MEDICAL CTR-NY PRESBYTERIAN HEALTHCARE S","NORTH BERGEN",NJ,07047,0.3089430894308943,0.24193548387096775,-0.06700760555992658
370149,0.2255,0.1997,-0.025800000000000017,"UNITY HEALTH CENTER",SHAWNEE,OK,74804,0.19540229885057472,0.1743119266055046,-0.021090372245070127
110075,0.2272,0.2325,0.005299999999999999,"EAST GEORGIA REGIONAL MEDICAL CENTER",STATESBORO,GA,30458,0.24444444444444444,0.19047619047619047,-0.05396825396825397
330261,0.2272,0.2344,0.007199999999999984,"PHELPS MEMORIAL HOSPITAL ASSN","SLEEPY HOLLOW",NY,10591,0.1935483870967742,0.21428571428571427,0.020737327188940086
190036,0.2276,0.1912,-0.03639999999999999,"OCHSNER FOUNDATION HOSPITAL","NEW ORLEANS",LA,70121,0.21164021164021163,0.24149659863945577,0.029856386999244144
100154,0.2282,0.275,0.046800000000000036,"SOUTH MIAMI HOSPITAL, INC","SOUTH MIAMI",FL,33143,0.19597989949748743,0.13142857142857142,-0.064551328068916
450137,0.2301,0.219,-0.011099999999999999,"BAYLOR ALL SAINTS MEDICAL CENTER AT FW","FORT WORTH",TX,76104,0.17355371900826447,0.17,-0.0035537190082644554
140048,0.2306,0.275,0.04440000000000002,"ADVOCATE TRINITY HOSPITAL",CHICAGO,IL,60617,0.2543859649122807,0.25806451612903225,0.0036785512167515355
180017,0.2307,0.2824,0.051699999999999996,"T J SAMSON COMMUNITY HOSPITAL",GLASGOW,KY,42141,0.19545454545454546,0.13333333333333333,-0.06212121212121213
140114,0.2308,0.2785,0.04770000000000002,"SWEDISH COVENANT HOSPITAL",CHICAGO,IL,60625,0.1781818181818182,0.17567567567567569,-0.0025061425061425058
100032,0.2332,0.1874,-0.04579999999999998,"BAYFRONT MEDICAL CENTER INC","SAINT PETERSBURG",FL,33701,0.19607843137254902,0.18,-0.016078431372549024
340028,0.2334,0.2608,0.02739999999999998,"CAPE FEAR VALLEY MEDICAL CENTER",FAYETTEVILLE,NC,28302,0.19274809160305342,0.17903930131004367,-0.013708790293009754
180088,0.2336,0.2647,0.03109999999999999,"NORTON HOSPITALS, INC",LOUISVILLE,KY,40202,0.1970310391363023,0.16391852570320078,-0.03311251343310151
500150,0.2339,0.1786,-0.05529999999999999,"LEGACY SALMON CREEK MEDICAL CENTER",VANCOUVER,WA,98686,0.22388059701492538,0.22950819672131148,0.005627599706386099
190065,0.2341,0.1397,-0.09440000000000001,"BATON ROUGE GENERAL MEDICAL CENTER","BATON ROUGE",LA,70806,0.16030534351145037,0.1752136752136752,0.01490833170222483
220116,0.2360,0.2924,0.056400000000000006,"TUFTS MEDICAL CENTER",BOSTON,MA,02111,0.22982885085574573,0.2676470588235294,0.03781820796778368
230017,0.2375,0.2265,-0.010999999999999982,"BRONSON METHODIST HOSPITAL",KALAMAZOO,MI,49007,0.12682926829268293,0.1737891737891738,0.04695990549649087
340040,0.2375,0.224,-0.013499999999999984,"VIDANT MEDICAL CENTER",GREENVILLE,NC,27835,0.19985304922850844,0.18626784500339905,-0.013585204225109393
340113,0.2377,0.2283,-0.009399999999999992,"CAROLINAS MEDICAL CENTER/BEHAV HEALTH",CHARLOTTE,NC,28203,0.19042871385842472,0.15952732644017725,-0.030901387418247467
320018,0.2382,0.3432,0.10500000000000001,"MEMORIAL MEDICAL CENTER INC","LAS CRUCES",NM,88011,0.16292134831460675,0.10752688172043011,-0.05539446659417664
250069,0.2383,0.2435,0.005199999999999982,"RUSH FOUNDATION HOSPITAL",MERIDIAN,MS,39301,0.08783783783783784,0.16071428571428573,0.07287644787644788
340075,0.2413,0.1718,-0.06949999999999998,"GRACE HOSPITAL INC",MORGANTON,NC,28655,0.14925373134328357,0.1744186046511628,0.025164873307879226
450747,0.2418,0.1624,-0.0794,"PALESTINE REGIONAL MEDICAL CENTER",PALESTINE,TX,75801,0.13157894736842105,0.16176470588235295,0.030185758513931904
500129,0.2443,0.3102,0.06589999999999999,"TACOMA GENERAL ALLENMORE HOSPITAL",TACOMA,WA,98415,0.17358490566037735,0.19682539682539682,0.023240491165019472
450431,0.2462,0.1992,-0.047000000000000014,"ST DAVIDS MEDICAL CENTER",AUSTIN,TX,78705,0.1459227467811159,0.12527964205816555,-0.020643104722950334
250097,0.2478,0.2364,-0.011399999999999993,"SOUTHWEST MS REGIONAL MEDICAL CENTER",MCCOMB,MS,39649,0.15306122448979592,0.17142857142857143,0.01836734693877551
330203,0.2479,0.2579,0.010000000000000009,"CROUSE HOSPITAL",SYRACUSE,NY,13210,0.2102803738317757,0.1375,-0.07278037383177569
450686,0.2484,0.2239,-0.024500000000000022,"UNIVERSITY MEDICAL CENTER",LUBBOCK,TX,79415,0.2132701421800948,0.17708333333333334,-0.036186808846761453
230053,0.2503,0.2966,0.04629999999999995,"HENRY FORD HOSPITAL",DETROIT,MI,48202,0.2470978441127695,0.19668737060041408,-0.05041047351235542
420018,0.2519,0.259,0.007099999999999995,"PALMETTO HEALTH RICHLAND",COLUMBIA,SC,29203,0.1554959785522788,0.15517241379310345,-0.00032356475917535987
500036,0.2519,0.2733,0.021399999999999975,"YAKIMA VALLEY MEMORIAL HOSPITAL",YAKIMA,WA,98902,0.18584070796460178,0.11764705882352941,-0.06819364914107237
150056,0.2522,0.2768,0.02460000000000001,"INDIANA UNIVERSITY HEALTH",INDIANAPOLIS,IN,46206,0.19247787610619468,0.16772823779193205,-0.024749638314262634
260078,0.2528,0.1984,-0.05440000000000003,"OZARKS MEDICAL CENTER","WEST PLAINS",MO,65775,0.11458333333333333,0.13043478260869565,0.01585144927536232
330024,0.2548,0.267,0.012199999999999989,"MOUNT SINAI HOSPITAL","NEW YORK",NY,10029,0.26688632619439867,0.2109375,-0.05594882619439867
220077,0.2570,0.2535,-0.003500000000000003,"BAYSTATE MEDICAL CENTER",SPRINGFIELD,MA,01199,0.16086547507055504,0.14690265486725665,-0.013962820203298393
190060,0.2594,0.299,0.03959999999999997,"LAKE CHARLES MEMORIAL HOSPITAL","LAKE CHARLES",LA,70601,0.2545454545454545,0.12337662337662338,-0.13116883116883116
310019,0.2599,0.3021,0.04219999999999996,"ST JOSEPH'S REGIONAL MEDICAL CENTER",PATERSON,NJ,07503,0.24561403508771928,0.2018348623853211,-0.04377917270239817
180132,0.2610,0.3112,0.05019999999999997,"LAKE CUMBERLAND REGIONAL HOSPITAL",SOMERSET,KY,42502,0.13100436681222707,0.15915915915915915,0.028154792346932078
100006,0.2617,0.2523,-0.009399999999999964,"ORLANDO HEALTH",ORLANDO,FL,32806,0.2629695885509839,0.1773308957952468,-0.0856386927557371
240106,0.2622,0.2518,-0.010399999999999965,"REGIONS HOSPITAL","SAINT PAUL",MN,55101,0.12184873949579832,0.11244979919678715,-0.009398940299011171
310016,0.2655,0.3599,0.09439999999999998,"CHRIST HOSPITAL","JERSEY CITY",NJ,07306,0.23776223776223776,0.2975206611570248,0.05975842339478704
510001,0.2660,0.274,0.008000000000000007,"WEST VIRGINIA UNIVERSITY HOSPITALS",MORGANTOWN,WV,26506,0.20725388601036268,0.1895734597156398,-0.017680426294722884
140182,0.2664,0.2264,-0.040000000000000036,"ADVOCATE ILLINOIS MASONIC MEDICAL CENTER",CHICAGO,IL,60657,0.25165562913907286,0.1889763779527559,-0.06267925118631695
330195,0.2669,0.233,-0.03390000000000001,"LONG ISLAND JEWISH MEDICAL CENTER","NEW HYDE PARK",NY,11040,0.21727019498607242,0.21637426900584794,-0.0008959259802244768
100128,0.2679,0.2615,-0.006400000000000017,"TAMPA GENERAL HOSPITAL",TAMPA,FL,33606,0.19504643962848298,0.2288135593220339,0.03376711969355092
310014,0.2691,0.2923,0.0232,"COOPER UNIVERSITY HOSPITAL",CAMDEN,NJ,08103,0.23308270676691728,0.22784810126582278,-0.0052346055010945025
450330,0.2710,0.1608,-0.11020000000000002,"OAKBEND MEDICAL CENTER",RICHMOND,TX,77469,0.24528301886792453,0.16176470588235295,-0.08351831298557158
310027,0.2727,0.3461,0.07340000000000002,"TRINITAS REGIONAL MEDICAL CENTER",ELIZABETH,NJ,07207,0.2857142857142857,0.24,-0.04571428571428571
370014,0.2737,0.2707,-0.0030000000000000027,"MEDICAL CENTER OF SOUTHEASTERN OKLAHOMA",DURANT,OK,74702,0.34328358208955223,0.2696078431372549,-0.07367573895229734
260119,0.2757,0.2756,-0.00009999999999998899,"POPLAR BLUFF REGIONAL MEDICAL CENTER","POPLAR BLUFF",MO,63901,0.2222222222222222,0.203125,-0.01909722222222221
290003,0.2771,0.4087,0.1316,"SUNRISE HOSPITAL AND MEDICAL CENTER","LAS VEGAS",NV,89109,0.2063953488372093,0.19186046511627908,-0.01453488372093023
220010,0.2776,0.3116,0.033999999999999975,"LAWRENCE GENERAL HOSPITAL",LAWRENCE,MA,01842,0.20353982300884957,0.23671497584541062,0.033175152836561056
330201,0.2821,0.2811,-0.0010000000000000009,"KINGSBROOK JEWISH MEDICAL CENTER",BROOKLYN,NY,11203,0,0.2807017543859649,0.2807017543859649
140292,0.2822,0.3008,0.018600000000000005,"ADVENTIST GLENOAKS","GLENDALE HEIGHTS",IL,60139,0.24390243902439024,0.2619047619047619,0.01800232288037168
310040,0.2830,0.3579,0.07490000000000002,"HOBOKEN UNIVERSITY MEDICAL CENTER",HOBOKEN,NJ,07030,0.23809523809523808,0.3269230769230769,0.08882783882783885
330028,0.2839,0.2843,0.00040000000000001146,"RICHMOND UNIVERSITY MEDICAL CENTER","STATEN ISLAND",NY,10304,0.2631578947368421,0.27419354838709675,0.011035653650254662
440156,0.2842,0.3335,0.04930000000000001,"PARKRIDGE MEDICAL CENTER",CHATTANOOGA,TN,37404,0.12075471698113208,0.17408906882591094,0.05333435184477886
340050,0.2845,0.2564,-0.02809999999999996,"SOUTHEASTERN REGIONAL MEDICAL CENTER",LUMBERTON,NC,28359,0.22264150943396227,0.21691176470588236,-0.005729744728079911
450097,0.2857,0.2882,0.0025000000000000022,"BAYSHORE MEDICAL CENTER",PASADENA,TX,77504,0.192090395480226,0.19161676646706588,-0.0004736290131601151
330101,0.2858,0.2797,-0.006099999999999994,"NEW YORK-PRESBYTERIAN HOSPITAL","NEW YORK",NY,10021,0.2229965156794425,0.19829424307036247,-0.024702272609080034
330234,0.2864,0.3003,0.013900000000000023,"WESTCHESTER MEDICAL CENTER",VALHALLA,NY,10595,0.2170418006430868,0.16063348416289594,-0.05640831648019087
450855,0.2895,0.2538,-0.035699999999999954,"HARLINGEN MEDICAL CENTER",HARLINGEN,TX,78550,0.22556390977443608,0.17037037037037037,-0.05519353940406571
360112,0.2937,0.346,0.05229999999999996,"MERCY ST VINCENT MEDICAL CENTER",TOLEDO,OH,43608,0.1969439728353141,0.1603563474387528,-0.036587625396561296
100008,0.2940,0.2434,-0.05059999999999998,"BAPTIST HOSPITAL OF MIAMI INC",MIAMI,FL,33176,0.18101545253863136,0.14356435643564355,-0.0374510961029878
100075,0.2991,0.2742,-0.024899999999999978,"ST JOSEPH'S HOSPITAL",TAMPA,FL,33677,0.17218543046357615,0.19672131147540983,0.024535881011833682
190026,0.3001,0.29,-0.010099999999999998,"RAPIDES REGIONAL MEDICAL CENTER",ALEXANDRIA,LA,71301,0.22676579925650558,0.16772151898734178,-0.05904428026916381
140125,0.3009,0.3929,0.09200000000000003,"GATEWAY REGIONAL MEDICAL CENTER","GRANITE CITY",IL,62040,0.16666666666666666,0.18032786885245902,0.013661202185792365
450209,0.3011,0.3152,0.014100000000000001,"NORTHWEST TEXAS HOSPITAL",AMARILLO,TX,79106,0.124,0.09646302250803858,-0.02753697749196142
110165,0.3190,0.295,-0.02400000000000002,"SOUTHERN REGIONAL MEDICAL CENTER",RIVERDALE,GA,30274,0.15671641791044777,0.14150943396226415,-0.015206983948183622
450644,0.3206,0.2977,-0.022899999999999976,"WEST HOUSTON MEDICAL CENTER",HOUSTON,TX,77082,0.1891891891891892,0.22131147540983606,0.03212228622064686
250072,0.3218,0.3002,-0.021599999999999953,"CENTRAL MISSISSIPPI MEDICAL CENTER",JACKSON,MS,39204,0.27450980392156865,0.22857142857142856,-0.04593837535014009
380007,0.3224,0.3881,0.06569999999999998,"LEGACY EMANUEL MEDICAL CENTER",PORTLAND,OR,97227,0.1794871794871795,0.18604651162790697,0.006559332140727486
670047,0.3240,0.2951,-0.028900000000000037,"SIERRA PROVIDENCE EAST MEDICAL CENTER","EL PASO",TX,79938,0.15217391304347827,0.2191780821917808,0.06700416914830254
390290,0.3253,0.398,0.07270000000000004,"HAHNEMANN UNIVERSITY HOSPITAL",PHILADELPHIA,PA,19102,0.2,0.19327731092436976,-0.006722689075630256
100050,0.3313,0.4513,0.12,"PALM SPRINGS GENERAL HOSPITAL",HIALEAH,FL,33012,0.32967032967032966,0.22105263157894736,-0.1086176980913823
100034,0.3391,0.1706,-0.1685,"MOUNT SINAI MEDICAL CENTER","MIAMI BEACH",FL,33140,0.1995249406175772,0.1850828729281768,-0.0144420676894004
330169,0.3395,0.3496,0.010099999999999998,"BETH ISRAEL MEDICAL CENTER","NEW YORK",NY,10003,0.25343811394891946,0.2130841121495327,-0.04035400179938675
450716,0.3395,0.3688,0.029299999999999993,"CYPRESS FAIRBANKS MEDICAL CENTER",HOUSTON,TX,77065,0.17647058823529413,0.16279069767441862,-0.013679890560875513
370037,0.3396,0.1903,-0.14930000000000002,"ST ANTHONY HOSPITAL","OKLAHOMA CITY",OK,73101,0.16161616161616163,0.17164179104477612,0.010025629428614485
310002,0.3414,0.3813,0.03989999999999999,"NEWARK BETH ISRAEL MEDICAL CENTER",NEWARK,NJ,07112,0.30548302872062666,0.2209737827715356,-0.08450924594909107
230024,0.3420,0.404,0.062,"SINAI-GRACE HOSPITAL",DETROIT,MI,48235,0.2878411910669975,0.2342857142857143,-0.05355547678128322
330208,0.3426,0.4267,0.08410000000000001,"ST JOHN'S RIVERSIDE HOSPITAL",YONKERS,NY,10701,0.3684210526315789,0.24731182795698925,-0.12110922467458968
330046,0.3470,0.3474,0.00040000000000001146,"ST LUKE'S ROOSEVELT HOSPITAL","NEW YORK",NY,10025,0.23303834808259588,0.24295774647887325,0.009919398396277368
330236,0.3570,0.2954,-0.06159999999999999,"NEW YORK METHODIST HOSPITAL",BROOKLYN,NY,11215,0.28793774319066145,0.22811671087533156,-0.0598210323153299
110115,0.3589,0.3212,-0.03770000000000001,"ATLANTA MEDICAL CENTER",ATLANTA,GA,30312,0.1282051282051282,0.234375,0.1061698717948718
110115,0.3589,0.2665,-0.09239999999999998,"ATLANTA MEDICAL CENTER",ATLANTA,GA,30312,0.1282051282051282,0.234375,0.1061698717948718
330055,0.3643,0.3211,-0.043200000000000016,"NEW YORK HOSPITAL MEDICAL CENTER OF QUEENS",FLUSHING,NY,11355,0.24725274725274726,0.1552346570397112,-0.09201809021303606
250082,0.3646,0.3414,-0.0232,"DELTA REGIONAL MEDICAL CENTER",GREENVILLE,MS,38704,0.2596685082872928,0.16149068322981366,-0.09817782505747916
450661,0.3651,0.3412,-0.023899999999999977,"ODESSA REGIONAL HOSPITAL",ODESSA,TX,79761,0.12903225806451613,0.16145833333333334,0.03242607526881722
100209,0.3673,0.4088,0.04149999999999998,"KENDALL REGIONAL MEDICAL CENTER",MIAMI,FL,33175,0.23694779116465864,0.2138364779874214,-0.023111313177237247
110079,0.3713,0.3914,0.020100000000000007,"GRADY MEMORIAL HOSPITAL",ATLANTA,GA,30303,0.25,0.2336448598130841,-0.01635514018691589
190176,0.3728,0.3718,-0.0010000000000000009,"TULANE MEDICAL CENTER","NEW ORLEANS",LA,70112,0.1527777777777778,0.2545454545454545,0.10176767676767673
330193,0.3791,0.4111,0.03200000000000003,"FLUSHING HOSPITAL MEDICAL CENTER",FLUSHING,NY,11355,0.30935251798561153,0.2916666666666667,-0.017685851318944845
450039,0.3803,0.3441,-0.03620000000000001,"JPS HEALTH NETWORK","FORT WORTH",TX,76104,0.17543859649122806,0.1896551724137931,0.014216575922565033
250099,0.3846,0.2915,-0.09310000000000002,"GREENWOOD LEFLORE HOSPITAL",GREENWOOD,MS,38930,0.2905982905982906,0.18032786885245902,-0.1102704217458316
510055,0.3916,0.434,0.04239999999999999,"CABELL-HUNTINGTON HOSPITAL INC",HUNTINGTON,WV,25701,0.20588235294117646,0.2112676056338028,0.005385252692626352
310074,0.4005,0.3447,-0.055800000000000016,"LIBERTYHEALTH-JERSEY CITY MEDICAL CENTER CAMPUS","JERSEY CITY",NJ,07302,0.3153153153153153,0.189873417721519,-0.12544189759379631
260091,0.4064,0.3977,-0.008699999999999986,"SSM ST MARYS HEALTH CENTER","RICHMOND HEIGHTS",MO,63117,0.2569832402234637,0.12435233160621761,-0.13263090861724608
330350,0.4105,0.4485,0.038000000000000034,"UNIVERSITY HOSPITAL OF BROOKLYN ( DOWNSTATE )",BROOKLYN,NY,11203,0.3167701863354037,0.23469387755102042,-0.0820763087843833
360059,0.4123,0.4688,0.056499999999999995,"METROHEALTH SYSTEM",CLEVELAND,OH,44109,0.20300751879699247,0.22641509433962265,0.023407575542630177
330056,0.4193,0.4527,0.033399999999999985,"BROOKLYN HOSPITAL CENTER AT DOWNTOWN CAMPUS",BROOKLYN,NY,11201,0.3561643835616438,0.3492063492063492,-0.006958034355294629
330019,0.4258,0.4211,-0.0047000000000000375,"NEW YORK COMMUNITY HOSPITAL OF BROOKLYN, INC.",BROOKLYN,NY,11229,0.39285714285714285,0.23214285714285715,-0.1607142857142857
230273,0.4274,0.4851,0.057699999999999974,"DETROIT RECEIVING HOSPITAL & UNIV HEALTH CENTER",DETROIT,MI,48201,0.2872340425531915,0.2441860465116279,-0.04304799604156362
190098,0.4337,0.4823,0.04860000000000003,"LSU HEALTH SCIENCES CENTER - SHREVEPORT",SHREVEPORT,LA,71130,0.2631578947368421,0.2358490566037736,-0.027308838133068503
250042,0.4455,0.4474,0.0019000000000000128,"NORTHWEST MISSISSIPPI REGIONAL MEDICAL CENTER",CLARKSDALE,MS,38614,0.3076923076923077,0.2903225806451613,-0.0173697270471464
150024,0.4459,0.4824,0.03649999999999998,"WILLIAM N WISHARD MEMORIAL HOSPITAL",INDIANAPOLIS,IN,46202,0.21428571428571427,0.16,-0.05428571428571427
240004,0.4469,0.4423,-0.004599999999999993,"HENNEPIN COUNTY MEDICAL CENTER",MINNEAPOLIS,MN,55415,0.18309859154929578,0.1643835616438356,-0.018715029905460173
230104,0.4472,0.4715,0.02429999999999999,"HARPER UNIVERSITY HOSPITAL",DETROIT,MI,48201,0.27146814404432135,0.25874125874125875,-0.012726885303062596
100187,0.4473,0.4317,-0.015600000000000003,"PALMETTO GENERAL HOSPITAL",HIALEAH,FL,33016,0.23986486486486486,0.25573770491803277,0.015872840053167914
450029,0.4532,0.4173,-0.03589999999999999,"LAREDO MEDICAL CENTER",LAREDO,TX,78044,0.20915032679738563,0.21604938271604937,0.0068990559186637435
220031,0.4536,0.5016,0.04800000000000004,"BOSTON MEDICAL CENTER CORPORATION",BOSTON,MA,02118,0.2563451776649746,0.14661654135338345,-0.10972863631159116
450662,0.4697,0.3664,-0.1033,"VALLEY REGIONAL MEDICAL CENTER",BROWNSVILLE,TX,78526,0.16,0.17886178861788618,0.018861788617886177
330014,0.4711,0.477,0.005899999999999961,"JAMAICA HOSPITAL MEDICAL CENTER",JAMAICA,NY,11418,0.33668341708542715,0.2158273381294964,-0.12085607895593076
450711,0.4725,0.456,-0.01649999999999996,"RIO GRANDE REGIONAL HOSPITAL",MCALLEN,TX,78503,0.2658959537572254,0.2411764705882353,-0.024719483168990114
330233,0.4813,0.4676,-0.01369999999999999,"BROOKDALE HOSPITAL MEDICAL CENTER",BROOKLYN,NY,11212,0.20175438596491227,0.208955223880597,0.007200837915684738
450119,0.4867,0.4632,-0.02350000000000002,"SOUTH TEXAS HEALTH SYSTEM",EDINBURG,TX,78539,0.22004357298474944,0.17195767195767195,-0.04808590102707749
330194,0.4899,0.4505,-0.03939999999999999,"MAIMONIDES MEDICAL CENTER",BROOKLYN,NY,11219,0.2673611111111111,0.17814207650273223,-0.08921903460837888
330059,0.4901,0.3972,-0.09289999999999998,"MONTEFIORE MEDICAL CENTER",BRONX,NY,10467,0.225752508361204,0.20282186948853614,-0.022930638872667858
140180,0.5031,0.5118,0.008700000000000041,"ST MARY & ELIZABETH MED CTR-DIVISION CAMPUS",CHICAGO,IL,60622,0.28125,0.17142857142857143,-0.10982142857142857
330221,0.5169,0.5294,0.012499999999999956,"WYCKOFF HEIGHTS MEDICAL CENTER",BROOKLYN,NY,11237,0.32608695652173914,0.2898550724637681,-0.03623188405797101
450015,0.5346,0.492,-0.04259999999999997,"PARKLAND HEALTH AND HOSPITAL SYSTEM",DALLAS,TX,75235,0.21621621621621623,0.23943661971830985,0.023220403502093617
450697,0.5357,0.4828,-0.05289999999999995,"SOUTHWEST GENERAL HOSPITAL","SAN ANTONIO",TX,78224,0.16071428571428573,0.19285714285714287,0.03214285714285714
100022,0.5644,0.4363,-0.1281,"JACKSON MEMORIAL HOSPITAL",MIAMI,FL,33136,0.2663755458515284,0.2288135593220339,-0.037561986529494495
450869,0.5712,0.5319,-0.0393,"DOCTORS HOSPITAL AT RENAISSANCE",EDINBURG,TX,78539,0.17532467532467533,0.16216216216216217,-0.013162513162513156
450176,0.5965,0.5071,-0.08940000000000003,"MISSION REGIONAL MEDICAL CENTER",MISSION,TX,78572,0.2564102564102564,0.2184873949579832,-0.03792286145227319
330009,0.7690,0.7215,-0.04749999999999999,"BRONX-LEBANON HOSPITAL CENTER",BRONX,NY,10456,0.30952380952380953,0.3333333333333333,0.02380952380952378
