prvdr_num,FFY2012_DSH,FFY2016_DSH,DSH_Change,hospital_name,city,state,zip_code,3YR_2008_2011_HF_Readmit_Rate,3YR_2012_2015_HF_Readmit_Rate,HF_Change
140286,0.0251,0.0428,0.017699999999999997,"KISHWAUKEE COMMUNITY HOSPITAL",DEKALB,IL,60115,0.24786324786324787,0.2292358803986711,-0.01862736746457677
140015,0.0253,0.0757,0.0504,"BLESSING HOSPITAL",QUINCY,IL,62301,0.22376738305941846,0.2222222222222222,-0.0015451608371962466
230269,0.0256,0.0463,0.0207,"WILLIAM BEAUMONT HOSPITAL-TROY",TROY,MI,48085,0.3008415147265077,0.23335488041370395,-0.06748663431280377
280125,0.0266,0.0284,0.001800000000000003,"FAITH REGIONAL HEALTH SERVICES",NORFOLK,NE,68701,0.17573221757322174,0.1574468085106383,-0.01828540906258344
240010,0.0276,0.025,-0.002599999999999998,"ST MARYS HOSPITAL",ROCHESTER,MN,55902,0.250901225666907,0.17633042096902304,-0.07457080469788394
420101,0.0276,0.0976,0.07,"COASTAL CAROLINA HOSPITAL",HARDEEVILLE,SC,29927,0.25688073394495414,0.2323943661971831,-0.02448636774777105
100156,0.0282,0.0343,0.006099999999999998,"LAKE CITY MEDICAL CENTER","LAKE CITY",FL,32055,0.25826446280991733,0.24197002141327623,-0.0162944413966411
450885,0.0282,0.039,0.0108,"CENTENNIAL MEDICAL CENTER",FRISCO,TX,75035,0.28994082840236685,0.2336448598130841,-0.056295968589282736
330045,0.0283,0.032,0.003700000000000002,"HUNTINGTON HOSPITAL",HUNTINGTON,NY,11743,0.2586037364798427,0.22233201581027667,-0.03627172066956602
310050,0.0287,0.076,0.047299999999999995,"SAINT CLARE'S HOSPITAL",DENVILLE,NJ,07834,0.2554399243140965,0.24498886414253898,-0.01045106017155753
300018,0.0294,0.0399,0.010499999999999999,"WENTWORTH-DOUGLASS HOSPITAL",DOVER,NH,03820,0.22559652928416485,0.22762148337595908,0.0020249540917942344
170142,0.0295,0.0559,0.0264,"MERCY REGIONAL HEALTH CENTER",MANHATTAN,KS,66502,0.2413793103448276,0.19375,-0.04762931034482759
260081,0.0299,0.0291,-0.0007999999999999986,"SSM ST CLARE HEALTH CENTER",FENTON,MO,63026,0.24947145877378435,0.2349869451697128,-0.014484513604071547
150005,0.0302,0.0555,0.0253,"HENDRICKS REGIONAL HEALTH",DANVILLE,IN,46122,0.19519519519519518,0.17073170731707318,-0.024463487878121998
230047,0.0302,0.038,0.007799999999999998,"HENRY FORD MACOMB HOSPITAL","CLINTON TOWNSHIP",MI,48038,0.2886671418389166,0.2443820224719101,-0.04428511936700652
240059,0.0302,0.0325,0.0023,"REGINA MEDICAL CENTER",HASTINGS,MN,55033,0.25287356321839083,0.2537313432835821,0.0008577800651912715
500007,0.0304,0.0473,0.016900000000000002,"ISLAND HOSPITAL",ANACORTES,WA,98221,0.21621621621621623,0.16666666666666666,-0.04954954954954957
450358,0.0311,0.0252,-0.005899999999999999,"METHODIST HOSPITAL,THE",HOUSTON,TX,77030,0.23295454545454544,0.23373676248108927,0.0007822170265438244
520107,0.0312,0.0413,0.010100000000000005,"HOLY FAMILY MEMORIAL INC",MANITOWOC,WI,54221,0.22279792746113988,0.12574850299401197,-0.09704942446712791
140010,0.0317,0.0388,0.007100000000000002,"EVANSTON HOSPITAL",EVANSTON,IL,60201,0.2286742034943474,0.2088084939048368,-0.01986570958951059
100043,0.0320,0.0758,0.043800000000000006,"MEASE HOSPITAL DUNEDIN",DUNEDIN,FL,34698,0.16591928251121077,0.1890547263681592,0.023135443856948434
230277,0.0322,0.0792,0.04700000000000001,"HURON VALLEY-SINAI HOSPITAL","COMMERCE TOWNSHIP",MI,48382,0.2987249544626594,0.24752475247524752,-0.051200201987411875
440120,0.0326,0.0812,0.0486,"TENNOVA HEALTHCARE",KNOXVILLE,TN,37917,0.20251396648044692,0.21875,0.016236033519553078
220050,0.0327,0.0394,0.006699999999999998,"BAYSTATE MARY LANE HOSPITAL",WARE,MA,01082,0.19090909090909092,0.1485148514851485,-0.04239423942394241
260064,0.0328,0.0678,0.034999999999999996,"AUDRAIN MEDICAL CENTER",MEXICO,MO,65265,0.17073170731707318,0.16216216216216217,-0.008569545154911012
100206,0.0330,0.0412,0.008199999999999999,"MEMORIAL HOSPITAL OF TAMPA",TAMPA,FL,33609,0.24644549763033174,0.22631578947368422,-0.020129708156647524
100220,0.0333,0.0826,0.049300000000000004,"GULF COAST MEDICAL CENTER LEE MEM HEALTH SYSTEM","FORT MYERS",FL,33912,0.2777777777777778,0.22789115646258504,-0.04988662131519275
220090,0.0333,0.0523,0.018999999999999996,"MILFORD REGIONAL MEDICAL CENTER",MILFORD,MA,01757,0.27079646017699116,0.27695167286245354,0.0061552126854623745
220060,0.0334,0.0499,0.0165,"JORDAN HOSPITAL INC",PLYMOUTH,MA,02360,0.2787769784172662,0.19784172661870503,-0.08093525179856115
420104,0.0335,0.0447,0.011199999999999995,"MOUNT PLEASANT HOSPITAL","MOUNT PLEASANT",SC,29466,0,0.18947368421052632,0.18947368421052632
100090,0.0337,0.0966,0.06290000000000001,"FLAGLER HOSPITAL","SAINT AUGUSTINE",FL,32086,0.26964933494558646,0.2526002971768202,-0.017049037768766262
240053,0.0337,0.04,0.0063,"PARK NICOLLET METHODIST HOSPITAL","SAINT LOUIS PARK",MN,55426,0.2027491408934708,0.20889748549323017,0.006148344599759381
310054,0.0343,0.027,-0.0072999999999999975,"HACKENSACK  UMC MOUNTAINSIDE",MONTCLAIR,NJ,07042,0.24447513812154695,0.2465753424657534,0.0021002043442064633
450271,0.0347,0.0533,0.0186,"WISE REGIONAL HEALTH SYSTEM",DECATUR,TX,76234,0.26277372262773724,0.2608695652173913,-0.0019041574103459413
330267,0.0348,0.0483,0.013500000000000005,"HUDSON VALLEY HOSPITAL CENTER","CORTLANDT MANOR",NY,10567,0.2806236080178174,0.24354243542435425,-0.037081172593463135
490043,0.0351,0.0346,-0.0005000000000000004,"INOVA LOUDOUN HOSPITAL",LEESBURG,VA,20176,0.24,0.22137404580152673,-0.018625954198473266
100117,0.0354,0.0422,0.0068000000000000005,"BAPTIST MEDICAL CENTER  BEACHES","JACKSONVILLE BEACH",FL,32250,0.25846153846153846,0.21635883905013192,-0.04210269941140654
320009,0.0355,0.1538,0.11829999999999999,"LOVELACE MEDICAL CENTER",ALBUQUERQUE,NM,87102,0.20567375886524822,0.14420803782505912,-0.0614657210401891
330061,0.0355,0.0737,0.038200000000000005,"LAWRENCE HOSPITAL CENTER",BRONXVILLE,NY,10708,0.2330316742081448,0.2657580919931857,0.03272641778504087
490050,0.0357,0.0272,-0.008500000000000004,"VIRGINIA HOSPITAL CENTER - ARLINGTON",ARLINGTON,VA,22205,0.16114790286975716,0.1791530944625407,0.018005191592783548
220135,0.0359,0.0511,0.015199999999999998,"FALMOUTH HOSPITAL",FALMOUTH,MA,02540,0.22181146025878004,0.21897810218978103,-0.002833358068999009
230040,0.0359,0.078,0.0421,"PENNOCK HOSPITAL",HASTINGS,MI,49058,0.17647058823529413,0.2028985507246377,0.026427962489343565
370083,0.0359,0.1291,0.09319999999999999,"PUSHMATAHA CTY-TN OF ANTLERS HOSP AUTH",ANTLERS,OK,74523,0.4155844155844156,0.2641509433962264,-0.1514334721881892
100256,0.0364,0.0514,0.015,"REGIONAL MEDICAL CENTER BAYONET POINT",HUDSON,FL,34667,0.25869565217391305,0.2361111111111111,-0.022584541062801944
140294,0.0366,0.0546,0.018000000000000002,"CROSSROADS COMMUNITY HOSPITAL","MOUNT VERNON",IL,62864,0.26666666666666666,0.32,0.053333333333333344
140162,0.0370,0.0552,0.0182,"ST JOSEPH MEDICAL CENTER",BLOOMINGTON,IL,61701,0.23870967741935484,0.1926605504587156,-0.04604912696063923
450672,0.0371,0.0452,0.008099999999999996,"PLAZA MEDICAL CENTER OF FORT WORTH","FORT WORTH",TX,76104,0.2489451476793249,0.21142857142857144,-0.03751657625075347
450231,0.0374,0.0392,0.001799999999999996,"BAPTIST ST ANTHONYS HEALTH SYSTEM-BAPTIST CAMPUS",AMARILLO,TX,79106,0.18863636363636363,0.1867612293144208,-0.001875134321942834
150128,0.0376,0.0751,0.0375,"COMMUNITY HOSPITAL SOUTH",INDIANAPOLIS,IN,46227,0.25326370757180156,0.1736111111111111,-0.07965259646069045
360026,0.0379,0.0489,0.010999999999999996,"GREENE MEMORIAL HOSPITAL",XENIA,OH,45385,0.24413145539906103,0.20353982300884957,-0.04059163239021146
330085,0.0381,0.0743,0.0362,"AURELIA OSBORN FOX MEMORIAL HOSPITAL",ONEONTA,NY,13820,0.2994011976047904,0.22950819672131148,-0.06989300088347891
100260,0.0382,0.0316,-0.006599999999999995,"ST LUCIE MEDICAL CENTER","PORT SAINT LUCIE",FL,34952,0.23645970937912814,0.273972602739726,0.037512893360597876
140064,0.0385,0.0649,0.0264,"ST MARY MEDICAL CENTER",GALESBURG,IL,61401,0.2140077821011673,0.20408163265306123,-0.009926149448106075
290022,0.0385,0.1492,0.11069999999999999,"DESERT SPRINGS HOSPITAL","LAS VEGAS",NV,89119,0.25,0.25263157894736843,0.0026315789473684292
360071,0.0385,0.0744,0.035899999999999994,"VAN WERT COUNTY HOSPITAL","VAN WERT",OH,45891,0.1941747572815534,0.14285714285714285,-0.051317614424410546
290009,0.0387,0.1769,0.1382,"SAINT MARY'S REGIONAL MEDICAL CENTER",RENO,NV,89503,0.19940476190476192,0.1962864721485411,-0.0031182897562208045
160117,0.0388,0.0831,0.04429999999999999,"THE FINLEY HOSPITAL",DUBUQUE,IA,52001,0.22875816993464052,0.2077922077922078,-0.02096596214243271
390116,0.0389,0.0285,-0.010399999999999996,"MERCY SUBURBAN HOSPITAL",NORRISTOWN,PA,19401,0.2680851063829787,0.22962962962962963,-0.038455476753349094
310081,0.0390,0.0784,0.0394,"UNDERWOOD - MEMORIAL HOSPITAL",WOODBURY,NJ,08096,0.29914529914529914,0.22840409956076135,-0.07074119958453778
200001,0.0392,0.0322,-0.006999999999999999,"ST JOSEPH HOSPITAL",BANGOR,ME,04401,0.23129251700680273,0.2013888888888889,-0.029903628117913833
360121,0.0392,0.0617,0.0225,"COMMUNITY HOSPITALS AND WELLNESS CENTERS",BRYAN,OH,43506,0.215311004784689,0.17045454545454544,-0.04485645933014357
110040,0.0396,0.12,0.0804,"NORTHRIDGE MEDICAL CENTER",COMMERCE,GA,30529,0.22727272727272727,0.22807017543859648,0.0007974481658692134
220070,0.0399,0.0585,0.018600000000000005,"HALLMARK HEALTH SYSTEM",MELROSE,MA,02176,0.23920265780730898,0.21995708154506438,-0.0192455762622446
140148,0.0402,0.0689,0.028700000000000003,"MEMORIAL MEDICAL CENTER",SPRINGFIELD,IL,62781,0.2373968835930339,0.20518602029312288,-0.03221086329991102
340171,0.0403,0.0618,0.0215,"PRESBYTERIAN HOSPITAL MATTHEWS",MATTHEWS,NC,28106,0.18950437317784258,0.1747787610619469,-0.014725612115895681
450604,0.0406,0.0333,-0.007299999999999994,"HILL COUNTRY MEMORIAL HOSPITAL INC",FREDERICKSBURG,TX,78624,0.14634146341463414,0.10982658959537572,-0.036514873819258414
150042,0.0407,0.0561,0.015399999999999997,"GOOD SAMARITAN HOSPITAL",VINCENNES,IN,47591,0.20833333333333334,0.2184873949579832,0.010154061624649852
230041,0.0407,0.0548,0.014100000000000001,"MCLAREN BAY REGION","BAY CITY",MI,48708,0.23255813953488372,0.228003784295175,-0.004554355239708707
100072,0.0409,0.0302,-0.010699999999999998,"FLORIDA HOSPITAL FISH MEMORIAL","ORANGE CITY",FL,32763,0.288135593220339,0.2656,-0.02253559322033899
310008,0.0409,0.0824,0.0415,"HOLY NAME MEDICAL CENTER",TEANECK,NJ,07666,0.30309072781655033,0.18915801614763553,-0.1139327116689148
150037,0.0411,0.0332,-0.007899999999999997,"HANCOCK REGIONAL HOSPITAL",GREENFIELD,IN,46140,0.22885572139303484,0.19230769230769232,-0.03654802908534252
280032,0.0412,0.0559,0.014699999999999998,"MARY LANNING MEMORIAL HOSPITAL",HASTINGS,NE,68901,0.1867704280155642,0.125,-0.061770428015564205
360075,0.0412,0.0944,0.0532,"UHHS RICHMOND HEIGHTS HOSPITAL","RICHMOND HEIGHTS",OH,44143,0.3474178403755869,0.2543859649122807,-0.09303187546330616
310057,0.0416,0.0872,0.0456,"VIRTUA MEMORIAL HOSPITAL OF BURLINGTON COUNTY","MOUNT HOLLY",NJ,08060,0.24623115577889448,0.20114942528735633,-0.04508173049153816
500025,0.0418,0.0997,0.0579,"SWEDISH MEDICAL CENTER/CHERRY HILL",SEATTLE,WA,98122,0.24845679012345678,0.20080321285140562,-0.04765357727205116
360074,0.0421,0.0452,0.0030999999999999986,"FLOWER HOSPITAL",SYLVANIA,OH,43560,0.22950819672131148,0.22483221476510068,-0.004675981956210801
360078,0.0421,0.0794,0.0373,"ROBINSON MEMORIAL HOSPITAL",RAVENNA,OH,44266,0.26448362720403024,0.2,-0.06448362720403022
100244,0.0427,0.0705,0.02779999999999999,"CAPE CORAL HOSPITAL","CAPE CORAL",FL,33990,0.22341696535244923,0.22105263157894736,-0.00236433377350187
230302,0.0430,0.0632,0.02020000000000001,"HENRY FORD WEST BLOOMFIELD HOSPITAL","W BLOOMFIELD",MI,48322,0.2440677966101695,0.2399193548387097,-0.004148441771459815
240044,0.0430,0.0821,0.03910000000000001,"WINONA HEALTH SERVICES",WINONA,MN,55987,0.1619718309859155,0.2032520325203252,0.0412802015344097
330144,0.0430,0.1239,0.0809,"IRA DAVENPORT MEMORIAL HOSPITAL, INC",BATH,NY,14810,0.2441860465116279,0.2558139534883721,0.011627906976744207
180102,0.0433,0.1202,0.0769,"LOURDES HOSPITAL",PADUCAH,KY,42001,0.25,0.20109689213893966,-0.048903107861060335
140011,0.0434,0.0762,0.0328,"HERRIN HOSPITAL",HERRIN,IL,62948,0.2693409742120344,0.26855123674911663,-0.0007897374629177722
150035,0.0437,0.0616,0.0179,"PORTER VALPARAISO HOSPITAL",VALPARAISO,IN,46383,0.25594405594405595,0.22861356932153393,-0.02733048662252202
330222,0.0437,0.0474,0.003699999999999995,"SARATOGA HOSPITAL","SARATOGA SPRINGS",NY,12866,0.2890792291220557,0.1858108108108108,-0.10326841831124489
330304,0.0437,0.047,0.0032999999999999974,"WHITE PLAINS HOSPITAL CENTER","WHITE PLAINS",NY,10601,0.24781849912739964,0.22416812609457093,-0.023650373032828714
100249,0.0438,0.0556,0.011799999999999998,"SEVEN RIVERS REGIONAL MEDICAL CENTER","CRYSTAL RIVER",FL,34428,0.250814332247557,0.19642857142857142,-0.05438576081898558
310025,0.0439,0.1009,0.057,"BAYONNE HOSPITAL CENTER",BAYONNE,NJ,07002,0.2982456140350877,0.2665094339622642,-0.03173618007282353
330157,0.0439,0.12,0.0761,"SAMARITAN MEDICAL CENTER",WATERTOWN,NY,13601,0.21875,0.2005420054200542,-0.01820799457994579
520034,0.0439,0.0748,0.030900000000000004,"AURORA MED CTR MANITOWOC CTY","TWO RIVERS",WI,54241,0.12280701754385964,0.11214953271028037,-0.01065748483357927
150161,0.0442,0.0955,0.0513,"INDIANA UNIVERSITY HEALTH NORTH HOSPITAL",CARMEL,IN,46032,0.18,0.1891891891891892,0.009189189189189206
520049,0.0442,0.0529,0.0087,"BELLIN MEMORIAL HSPTL","GREEN BAY",WI,54305,0.14328358208955225,0.1513157894736842,0.008032207384131962
150158,0.0444,0.0362,-0.008199999999999999,"IU HEALTH WEST HOSPITAL",AVON,IN,46123,0.2230769230769231,0.19623655913978494,-0.02684036393713815
240030,0.0444,0.0481,0.003699999999999995,"DOUGLAS COUNTY HOSPITAL",ALEXANDRIA,MN,56308,0.125,0.23423423423423423,0.10923423423423423
450469,0.0447,0.0478,0.0031000000000000055,"TEXAS HEALTH PRESBYTERIAN HOSPITAL-WNJ",SHERMAN,TX,75091,0.2193158953722334,0.1837270341207349,-0.03558886125149849
180045,0.0448,0.1674,0.12259999999999999,"ST ELIZABETH FLORENCE",FLORENCE,KY,41042,0.328125,0.2802056555269923,-0.04791934447300772
330340,0.0448,0.0733,0.028500000000000004,"SOUTHAMPTON HOSPITAL",SOUTHAMPTON,NY,11968,0.2897196261682243,0.25177304964539005,-0.03794657652283423
100055,0.0450,0.0415,-0.003499999999999996,"FLORIDA HOSPITAL NORTH PINELLAS","TARPON SPRINGS",FL,34689,0.25,0.2317596566523605,-0.018240343347639493
170104,0.0451,0.0474,0.0022999999999999965,"SHAWNEE MISSION MEDICAL CENTER","SHAWNEE MISSION",KS,66204,0.24686192468619247,0.17567567567567569,-0.07118624901051679
220100,0.0451,0.053,0.007899999999999997,"SOUTH SHORE HOSPITAL","SOUTH WEYMOUTH",MA,02190,0.25885383129426914,0.1919463087248322,-0.06690752256943694
360032,0.0457,0.0326,-0.0131,"GRAND LAKE HEALTH SYSTEM","SAINT MARYS",OH,45885,0.23404255319148937,0.15337423312883436,-0.08066832006265501
360089,0.0458,0.1069,0.061099999999999995,"MERCY TIFFIN HOSPITAL",TIFFIN,OH,44883,0.22099447513812154,0.17123287671232876,-0.04976159842579278
170012,0.0459,0.0356,-0.010300000000000004,"SALINA REGIONAL HEALTH CENTER",SALINA,KS,67401,0.15483870967741936,0.18716577540106952,0.032327065723650156
150173,0.0460,0.0892,0.0432,"INDIANA UNIVERSITY HEALTH ARNETT HOSPITAL",LAFAYETTE,IN,47905,0.2179930795847751,0.21568627450980393,-0.0023068050749711633
360046,0.0463,0.0695,0.023200000000000005,"MCCULLOUGH-HYDE MEMORIAL HOSPITAL",OXFORD,OH,45056,0.20707070707070707,0.3412698412698413,0.1341991341991342
520071,0.0466,0.0519,0.005299999999999999,"FORT HEALTHCARE","FORT ATKINSON",WI,53538,0.15789473684210525,0.14,-0.01789473684210524
170146,0.0468,0.0713,0.0245,"PROVIDENCE MEDICAL CENTER","KANSAS CITY",KS,66112,0.2817258883248731,0.2388451443569554,-0.04288074396791772
190146,0.0471,0.0517,0.0046,"EAST JEFFERSON GENERAL HOSPITAL",METAIRIE,LA,70006,0.19314285714285714,0.15981012658227847,-0.03333273056057867
450771,0.0472,0.0609,0.013700000000000004,"TEXAS HEALTH PRESBYTERIAN HOSPITAL PLANO",PLANO,TX,75093,0.2476780185758514,0.19245283018867926,-0.055225188387172136
490020,0.0472,0.0424,-0.004799999999999999,"JOHN RANDOLPH MEDICAL CENTER",HOPEWELL,VA,23860,0.2746478873239437,0.2242152466367713,-0.050432640687172375
140217,0.0479,0.0958,0.0479,"PROVENA - SAINT JOSEPH HOSPITAL",ELGIN,IL,60123,0.2393617021276596,0.24175824175824176,0.002396539630582173
490046,0.0479,0.0561,0.008199999999999999,"SENTARA LEIGH HOSPITAL",NORFOLK,VA,23502,0.20588235294117646,0.22883597883597884,0.022953625894802376
220119,0.0484,0.1205,0.0721,"FAULKNER HOSPITAL",BOSTON,MA,02130,0.2560646900269542,0.2560646900269542,0
140213,0.0485,0.045,-0.003500000000000003,"SILVER CROSS HOSPITAL  AND MEDICAL CENTERS","NEW LENOX",IL,60451,0.2786127167630058,0.23111510791366907,-0.04749760884933674
250044,0.0486,0.0459,-0.002699999999999994,"BAPTIST MEMORIAL HOSPITAL BOONEVILLE",BOONEVILLE,MS,38829,0.30128205128205127,0.20212765957446807,-0.0991543917075832
330167,0.0486,0.0839,0.035300000000000005,"WINTHROP-UNIVERSITY HOSPITAL",MINEOLA,NY,11501,0.25252525252525254,0.22933333333333333,-0.023191919191919208
170145,0.0493,0.12,0.0707,"COFFEYVILLE REGIONAL MEDICAL CENTER",COFFEYVILLE,KS,67337,0.27848101265822783,0.17037037037037037,-0.10811064228785747
260095,0.0496,0.0559,0.0063,"CENTERPOINT MEDICAL CENTER OF INDEPENDENCE, LLC",INDEPENDENCE,MO,64057,0.1947069943289225,0.2229580573951435,0.028251063066220994
490004,0.0496,0.0366,-0.012999999999999998,"ROCKINGHAM MEMORIAL HOSPITAL",HARRISONBURG,VA,22801,0.24307692307692308,0.20168067226890757,-0.04139625080801551
240014,0.0498,0.0486,-0.0011999999999999997,"NORTHFIELD HOSPITAL",NORTHFIELD,MN,55057,0.19387755102040816,0.21311475409836064,0.019237203077952486
360145,0.0498,0.1146,0.0648,"EMH REGIONAL MEDICAL CENTER",ELYRIA,OH,44035,0.275,0.25862068965517243,-0.01637931034482759
330107,0.0501,0.0629,0.012799999999999999,"PECONIC BAY MEDICAL CENTER",RIVERHEAD,NY,11901,0.20558375634517767,0.22946175637393768,0.023878000028760005
360056,0.0502,0.0687,0.018499999999999996,"MERCY HOSPITAL FAIRFIELD",FAIRFIELD,OH,45014,0.22240802675585283,0.19940029985007496,-0.023007726905777875
490093,0.0502,0.0298,-0.0204,"SENTARA CAREPLEX HOSPITAL",HAMPTON,VA,23666,0.21544715447154472,0.23552123552123552,0.0200740810496908
140007,0.0509,0.1127,0.061799999999999994,"PROVENA ST JOSEPH MEDICAL CENTER",JOLIET,IL,60435,0.28422619047619047,0.2749003984063745,-0.009325792069815986
450639,0.0511,0.0684,0.017300000000000003,"TEXAS HEALTH HARRIS METHODIST HURST-EULESS-BEDFORD",BEDFORD,TX,76022,0.23578947368421052,0.1900647948164147,-0.045724678867795826
150059,0.0512,0.0448,-0.006400000000000003,"RIVERVIEW HOSPITAL",NOBLESVILLE,IN,46060,0.2024793388429752,0.17486338797814208,-0.027615950864833122
490117,0.0512,0.0877,0.0365,"CARILION TAZEWELL COMMUNITY HOSPITAL",TAZEWELL,VA,24651,0.26881720430107525,0.4090909090909091,0.14027370478983386
670043,0.0514,0.0309,-0.0205,"CEDAR PARK REGIONAL MEDICAL CENTER","CEDAR PARK",TX,78613,0.31683168316831684,0.21428571428571427,-0.10254596888260256
520198,0.0515,0.0996,0.0481,"AURORA MED CTR OSHKOSH",OSHKOSH,WI,54904,0.20279720279720279,0.12727272727272726,-0.07552447552447553
360180,0.0518,0.0803,0.028499999999999998,"CLEVELAND CLINIC",CLEVELAND,OH,44195,0.30426356589147285,0.25100240577385724,-0.053261160117615614
490110,0.0519,0.0508,-0.0011000000000000038,"LEWISGALE HOSPITAL MONTGOMERY",BLACKSBURG,VA,24060,0.25609756097560976,0.17218543046357615,-0.08391213051203361
330279,0.0520,0.0848,0.0328,"MERCY HOSPITAL",BUFFALO,NY,14220,0.2074074074074074,0.1865671641791045,-0.020840243228302913
360010,0.0520,0.0689,0.016900000000000005,"UNION HOSPITAL",DOVER,OH,44622,0.30151843817787416,0.24603174603174602,-0.05548669214612814
160104,0.0524,0.12,0.0676,"TRINITY BETTENDORF",BETTENDORF,IA,52722,0.22807017543859648,0.25,0.02192982456140352
220029,0.0525,0.089,0.0365,"ANNA JAQUES HOSPITAL",NEWBURYPORT,MA,01950,0.27205882352941174,0.26628895184135976,-0.005769871688051986
360044,0.0525,0.1111,0.058600000000000006,"WAYNE HOSPITAL",GREENVILLE,OH,45331,0.25190839694656486,0.21105527638190955,-0.040853120564655315
220065,0.0526,0.0598,0.007199999999999998,"NOBLE HOSPITAL",WESTFIELD,MA,01085,0.22380952380952382,0.19095477386934673,-0.03285474994017709
180001,0.0529,0.1664,0.11349999999999999,"ST ELIZABETH FT THOMAS","FORT THOMAS",KY,41075,0.2884097035040431,0.21005917159763313,-0.07835053190640998
670068,0.0529,0.0565,0.003599999999999999,"TEXAS HEALTH PRESBYTERIAN HOSPITAL FLOWER MOUND","FLOWER MOUND",TX,75028,0.29411764705882354,0.2222222222222222,-0.07189542483660133
340142,0.0530,0.0283,-0.0247,"CARTERET GENERAL HOSPITAL","MOREHEAD CITY",NC,28557,0.23443983402489627,0.22774869109947643,-0.006691142925419835
360211,0.0530,0.0893,0.036300000000000006,"TRINITY MEDICAL CTR EAST&TRINITY MEDICAL CTR WEST",STEUBENVILLE,OH,43952,0.25990675990675993,0.2544,-0.005506759906759917
190013,0.0531,0.2283,0.1752,"WEST CALCASIEU CAMERON HOSPITAL",SULPHUR,LA,70663,0.18421052631578946,0.2388888888888889,0.05467836257309944
150075,0.0533,0.101,0.047700000000000006,"BLUFFTON REGIONAL MEDICAL CENTER",BLUFFTON,IN,46714,0.18421052631578946,0.20512820512820512,0.020917678812415658
450596,0.0533,0.0467,-0.006600000000000002,"LAKE GRANBURY MEDICAL CENTER",GRANBURY,TX,76048,0.16363636363636364,0.16167664670658682,-0.0019597169297768113
100068,0.0540,0.0679,0.013900000000000003,"FLORIDA HOSPITAL MEMORIAL MEDICAL CENTER","DAYTONA BEACH",FL,32117,0.21656976744186046,0.22306525037936267,0.006495482937502212
220015,0.0541,0.071,0.01689999999999999,"COOLEY DICKINSON HOSPITAL INC,THE",NORTHAMPTON,MA,01060,0.20347394540942929,0.14690721649484537,-0.05656672891458392
340129,0.0542,0.0501,-0.0040999999999999995,"LAKE NORMAN REGIONAL MEDICAL CENTER",MOORESVILLE,NC,28117,0.2255892255892256,0.16981132075471697,-0.05577790483450862
450203,0.0544,0.0543,-0.00009999999999999593,"WEATHERFORD REGIONAL MEDICAL CENTER",WEATHERFORD,TX,76086,0.21453287197231835,0.16091954022988506,-0.053613331742433296
150044,0.0545,0.0629,0.008399999999999998,"FLOYD MEMORIAL HOSPITAL AND HEALTH SERVICES","NEW ALBANY",IN,47150,0.25796661608497723,0.2444794952681388,-0.013487120816838422
380037,0.0546,0.1008,0.0462,"PROVIDENCE NEWBERG MEDICAL CENTER",NEWBERG,OR,97132,0.16049382716049382,0.1864406779661017,0.02594685080560788
190236,0.0548,0.0757,0.020900000000000002,"WILLIS KNIGHTON BOSSIER HEALTH CENTER","BOSSIER CITY",LA,71111,0.23598130841121495,0.236144578313253,0.00016326990203804903
230089,0.0551,0.1222,0.06709999999999999,"BEAUMONT HOSPITAL, GROSSE POINTE","GROSSE POINTE",MI,48230,0.27053140096618356,0.24150943396226415,-0.029021967003919402
110129,0.0552,0.1175,0.062299999999999994,"ST FRANCIS HOSPITAL, INC",COLUMBUS,GA,31995,0.21461716937354988,0.17035398230088494,-0.04426318707266494
280065,0.0552,0.0333,-0.021899999999999996,"GREAT PLAINS REGIONAL MEDICAL CENTER","NORTH PLATTE",NE,69101,0.3149171270718232,0.19678714859437751,-0.11812997847744566
460041,0.0552,0.0827,0.027499999999999997,"DAVIS HOSPITAL AND MEDICAL CENTER",LAYTON,UT,84041,0.14953271028037382,0.15671641791044777,0.007183707630073949
440137,0.0556,0.0543,-0.0012999999999999956,"HERITAGE MEDICAL CENTER",SHELBYVILLE,TN,37160,0.30597014925373134,0.17391304347826086,-0.13205710577547047
340039,0.0559,0.0563,0.0004000000000000045,"IREDELL MEMORIAL HOSPITAL INC",STATESVILLE,NC,28677,0.2600806451612903,0.21016166281755197,-0.049918982343738344
520102,0.0559,0.0938,0.037899999999999996,"AURORA LAKELAND MED CTR",ELKHORN,WI,53121,0.11797752808988764,0.18115942028985507,0.06318189219996743
360040,0.0561,0.12,0.0639,"KNOX COMMUNITY HOSPITAL","MOUNT VERNON",OH,43050,0.19455252918287938,0.185,-0.009552529182879382
140002,0.0562,0.0968,0.0406,"ALTON MEMORIAL HOSPITAL",ALTON,IL,62002,0.22832369942196531,0.2236842105263158,-0.004639488895649524
170137,0.0563,0.0385,-0.017800000000000003,"LAWRENCE MEMORIAL HOSPITAL",LAWRENCE,KS,66044,0.2033195020746888,0.25,0.046680497925311204
410006,0.0563,0.0965,0.0402,"NEWPORT HOSPITAL",NEWPORT,RI,02840,0.2330508474576271,0.1814814814814815,-0.051569365976145615
230193,0.0565,0.055,-0.0015000000000000013,"MCLAREN LAPEER REGION",LAPEER,MI,48446,0.3033033033033033,0.2413793103448276,-0.0619239929584757
160016,0.0566,0.12,0.0634,"TRINITY REGIONAL MEDICAL CENTER","FORT DODGE",IA,50501,0.18722466960352424,0.12290502793296089,-0.06431964167056335
510050,0.0566,0.1107,0.05410000000000001,"WHEELING HOSPITAL",WHEELING,WV,26003,0.23809523809523808,0.25133689839572193,0.013241660300483848
100265,0.0569,0.0469,-0.010000000000000002,"MEASE COUNTRYSIDE HOSPITAL","SAFETY HARBOR",FL,34695,0.22164948453608246,0.2124492557510149,-0.009200228785067571
520070,0.0570,0.0744,0.017399999999999992,"MAYO CLINIC HEALTH SYSTEM EAU CLAIRE HOSPITAL","EAU CLAIRE",WI,54703,0.1556420233463035,0.1582608695652174,0.002618846218913895
520045,0.0571,0.0787,0.021600000000000008,"THEDA CLARK MED CTR",NEENAH,WI,54956,0.21634615384615385,0.17532467532467533,-0.04102147852147853
190088,0.0572,0.1156,0.058399999999999994,"SPRINGHILL MEDICAL CENTER",SPRINGHILL,LA,71075,0.3008130081300813,0.2222222222222222,-0.07859078590785912
100046,0.0573,0.0452,-0.0121,"FLORIDA HOSPITAL ZEPHYRHILLS",ZEPHYRHILLS,FL,33541,0.2141623488773748,0.21141649048625794,-0.002745858391116851
310011,0.0574,0.0822,0.024799999999999996,"CAPE REGIONAL MEDICAL CENTER INC","CAPE MAY COURT HOUSE",NJ,08210,0.2949101796407186,0.1875,-0.10741017964071858
490018,0.0575,0.031,-0.026500000000000003,"AUGUSTA HEALTH",FISHERSVILLE,VA,22939,0.21012269938650308,0.1848101265822785,-0.02531257280422458
100028,0.0576,0.0614,0.0038000000000000048,"PARRISH MEDICAL CENTER",TITUSVILLE,FL,32796,0.25416666666666665,0.21641791044776118,-0.03774875621890547
490005,0.0576,0.0633,0.005699999999999997,"WINCHESTER MEDICAL CENTER INC",WINCHESTER,VA,22601,0.21480878763222133,0.22462787550744248,0.00981908787522115
150001,0.0580,0.1045,0.04649999999999999,"JOHNSON MEMORIAL HOSPITAL",FRANKLIN,IN,46131,0.1695906432748538,0.14285714285714285,-0.026733500417710943
190004,0.0582,0.077,0.018799999999999997,"THIBODAUX REGIONAL MEDICAL CENTER",THIBODAUX,LA,70301,0.23151750972762647,0.23198198198198197,0.00046447225435550243
170017,0.0583,0.0502,-0.008099999999999996,"SUSAN B ALLEN MEMORIAL HOSPITAL","EL DORADO",KS,67042,0.2543859649122807,0.16901408450704225,-0.08537188040523846
230130,0.0583,0.0973,0.039,"WILLIAM BEAUMONT HOSPITAL","ROYAL OAK",MI,48073,0.2676056338028169,0.2560101223112611,-0.011595511491555799
330198,0.0583,0.0571,-0.0011999999999999997,"SOUTH NASSAU COMMUNITIES HOSPITAL",OCEANSIDE,NY,11572,0.2718651211801897,0.2366167023554604,-0.03524841882472929
330058,0.0585,0.0307,-0.027800000000000002,"GENEVA GENERAL HOSPITAL",GENEVA,NY,14456,0.20689655172413793,0.27631578947368424,0.06941923774954631
180095,0.0595,0.0775,0.018000000000000002,"CRITTENDEN HEALTH SYSTEM",MARION,KY,42064,0.275,0.25925925925925924,-0.015740740740740777
360095,0.0597,0.0667,0.006999999999999992,"BLANCHARD VALLEY HOSPITAL",FINDLAY,OH,45840,0.17307692307692307,0.17325227963525835,0.0001753565583352823
380014,0.0598,0.1239,0.06409999999999999,"GOOD SAMARITAN REGIONAL MEDICAL CENTER",CORVALLIS,OR,97330,0.15135135135135136,0.12658227848101267,-0.024769072870338693
150082,0.0602,0.0658,0.005600000000000001,"DEACONESS HOSPITAL INC",EVANSVILLE,IN,47747,0.22502250225022502,0.2340261739799846,0.009003671729759577
230141,0.0605,0.094,0.0335,"MCLAREN FLINT",FLINT,MI,48532,0.2716845878136201,0.26586102719033233,-0.00582356062328776
500124,0.0606,0.0831,0.022499999999999992,"EVERGREEN HOSPITAL MEDICAL CENTER",KIRKLAND,WA,98034,0.18295739348370926,0.1728395061728395,-0.010117887310869766
100105,0.0607,0.0477,-0.012999999999999998,"INDIAN RIVER MEDICAL CENTER","VERO BEACH",FL,32960,0.21836506159014557,0.22544642857142858,0.007081366981283005
490022,0.0607,0.0651,0.004400000000000008,"MARY WASHINGTON HOSPITAL, INC",FREDERICKSBURG,VA,22401,0.2901896125309151,0.18867924528301888,-0.1015103672478962
450379,0.0613,0.212,0.1507,"DALLAS MEDICAL CENTER",DALLAS,TX,75234,0.2916666666666667,0.27358490566037735,-0.018081761006289332
100204,0.0614,0.0904,0.02899999999999999,"NORTH FLORIDA REGIONAL MEDICAL CENTER",GAINESVILLE,FL,32605,0.24720496894409938,0.235625,-0.011579968944099378
150162,0.0614,0.0809,0.019499999999999997,"FRANCISCAN ST FRANCIS HEALTH - INDIANAPOLIS",INDIANAPOLIS,IN,46237,0.23186528497409326,0.17758046614872364,-0.05428481882536962
360055,0.0616,0.1333,0.0717,"TRUMBULL MEMORIAL HOSPITAL",WARREN,OH,44482,0.275974025974026,0.26222222222222225,-0.013751803751803737
450351,0.0616,0.0552,-0.006400000000000003,"TEXAS HEALTH HARRIS METHODIST HOSPITAL STEPHENVILL",STEPHENVILLE,TX,76401,0.1787709497206704,0.23684210526315788,0.058071155542487485
380004,0.0617,0.1401,0.0784,"PROVIDENCE ST VINCENT MEDICAL CENTER",PORTLAND,OR,97225,0.15682656826568267,0.1524390243902439,-0.004387543875438771
100051,0.0618,0.0537,-0.008100000000000003,"SOUTH LAKE HOSPITAL",CLERMONT,FL,34711,0.27901234567901234,0.2188183807439825,-0.06019396493502985
180066,0.0619,0.1136,0.05170000000000001,"LOGAN MEMORIAL HOSPITAL",RUSSELLVILLE,KY,42276,0.2441860465116279,0.29545454545454547,0.05126849894291757
360144,0.0619,0.1293,0.0674,"SOUTH POINTE HOSPITAL","WARRENSVILLE HEIGHTS",OH,44122,0.3349282296650718,0.24475524475524477,-0.09017298490982703
150133,0.0621,0.0556,-0.006500000000000006,"KOSCIUSKO COMMUNITY HOSPITAL",WARSAW,IN,46580,0.23529411764705882,0.20114942528735633,-0.034144692359702494
200019,0.0621,0.0565,-0.005600000000000001,"SOUTHERN MAINE MEDICAL CENTER",BIDDEFORD,ME,04005,0.19955654101995565,0.20077972709551656,0.0012231860755609059
460021,0.0621,0.0425,-0.0196,"DIXIE REGIONAL MEDICAL CENTER","ST GEORGE",UT,84790,0.1497175141242938,0.13839285714285715,-0.011324656981436643
360262,0.0624,0.0925,0.030100000000000002,"MERCY ST ANNE HOSPITAL",TOLEDO,OH,43623,0.265625,0.1978798586572438,-0.0677451413427562
220030,0.0627,0.0407,-0.022000000000000006,"WING MEMORIAL HOSPITAL AND MEDICAL CENTER",PALMER,MA,01069,0.25901639344262295,0.16806722689075632,-0.09094916655186663
330023,0.0628,0.0646,0.00180000000000001,"VASSAR BROTHERS MEDICAL CENTER",POUGHKEEPSIE,NY,12601,0.273431448489543,0.22102747909199522,-0.05240396939754777
440150,0.0630,0.0617,-0.0013000000000000025,"SUMMIT MEDICAL CENTER",HERMITAGE,TN,37076,0.273972602739726,0.22371967654986524,-0.05025292618986077
230022,0.0632,0.1589,0.09570000000000001,"COMMUNITY HEALTH CENTER OF BRANCH COUNTY",COLDWATER,MI,49036,0.22988505747126436,0.2914572864321608,0.061572228960896425
280061,0.0633,0.0903,0.02700000000000001,"REGIONAL WEST MEDICAL CENTER",SCOTTSBLUFF,NE,69361,0.15625,0.14215686274509803,-0.014093137254901966
340098,0.0636,0.0329,-0.030700000000000005,"CAROLINAS MED CENTER-MERCY",CHARLOTTE,NC,28207,0.22866894197952217,0.19305555555555556,-0.03561338642396661
100019,0.0639,0.0647,0.0007999999999999952,"HOLMES REGIONAL MEDICAL CENTER",MELBOURNE,FL,32901,0.2787878787878788,0.24206008583690988,-0.036727792950968924
150097,0.0640,0.0994,0.0354,"MAJOR HOSPITAL",SHELBYVILLE,IN,46176,0.2641509433962264,0.2185792349726776,-0.04557170842354882
100109,0.0641,0.0715,0.00739999999999999,"FLORIDA HOSPITAL HEARTLAND MEDICAL CENTER",SEBRING,FL,33871,0.22427745664739884,0.2158438576349024,-0.008433599012496434
230167,0.0642,0.1538,0.0896,"MCLAREN - GREATER LANSING",LANSING,MI,48910,0.2520891364902507,0.2114695340501792,-0.04061960244007151
340037,0.0642,0.0515,-0.012699999999999996,"KINGS MOUNTAIN HOSPITAL INC","KINGS MOUNTAIN",NC,28086,0.19540229885057472,0.23595505617977527,0.04055275732920055
360002,0.0642,0.0651,0.0009000000000000119,"SAMARITAN HOSPITAL - PEOPLES HOSPITAL",ASHLAND,OH,44805,0.1834319526627219,0.16666666666666666,-0.01676528599605523
360084,0.0644,0.1068,0.04240000000000001,"AULTMAN HOSPITAL",CANTON,OH,44710,0.2100954979536153,0.19583333333333333,-0.014262164620281959
490111,0.0645,0.078,0.013499999999999998,"WYTHE COUNTY COMMUNITY HOSPITAL",WYTHEVILLE,VA,24382,0.2681564245810056,0.20125786163522014,-0.06689856294578544
330136,0.0646,0.1077,0.0431,"MARY IMOGENE BASSETT HOSPITAL",COOPERSTOWN,NY,13326,0.24744897959183673,0.18686868686868688,-0.06058029272314985
340116,0.0647,0.0442,-0.02049999999999999,"FRYE REGIONAL MEDICAL CENTER",HICKORY,NC,28601,0.19008264462809918,0.21010638297872342,0.020023738350624237
260094,0.0649,0.0845,0.019600000000000006,"SKAGGS REGIONAL MEDICAL CENTER",BRANSON,MO,65616,0.23113207547169812,0.25936599423631124,0.02823391876461312
220008,0.0657,0.076,0.010300000000000004,"STURDY MEMORIAL HOSPITAL",ATTLEBORO,MA,02703,0.23573200992555832,0.19782608695652174,-0.03790592296903658
100057,0.0658,0.0385,-0.027299999999999998,"FLORIDA HOSPITAL WATERMAN",TAVARES,FL,32778,0.23235613463626492,0.253227408142999,0.020871273506734067
260062,0.0658,0.0833,0.0175,"ST LUKES NORTHLAND HOSPITAL","KANSAS CITY",MO,64154,0.2159090909090909,0.1760797342192691,-0.03982935668982182
520189,0.0658,0.0609,-0.004899999999999995,"AURORA MED CTR KENOSHA",KENOSHA,WI,53142,0.24489795918367346,0.24705882352941178,0.0021608643457383114
100291,0.0660,0.0423,-0.023700000000000006,"WUESTHOFF MEDICAL CENTER - MELBOURNE",MELBOURNE,FL,32935,0.2482758620689655,0.2777777777777778,0.029501915708812276
380017,0.0665,0.1587,0.0922,"LEGACY GOOD SAMARITAN MEDICAL CENTER",PORTLAND,OR,97210,0.199203187250996,0.23387096774193547,0.034667780490939465
100099,0.0666,0.0515,-0.01510000000000001,"LAKE WALES MEDICAL CENTER","LAKE WALES",FL,33853,0.2619047619047619,0.2925170068027211,0.030612244897959162
100302,0.0666,0.0326,-0.03400000000000001,"ST CLOUD REGIONAL MEDICAL CENTER","SAINT CLOUD",FL,34769,0.25806451612903225,0.21311475409836064,-0.04494976203067161
260057,0.0666,0.0457,-0.02090000000000001,"CAMERON REGIONAL MEDICAL CENTER",CAMERON,MO,64429,0.2206896551724138,0.22330097087378642,0.0026113157013726296
330277,0.0666,0.0641,-0.0025000000000000022,"CORNING HOSPITAL",CORNING,NY,14830,0.26498422712933756,0.3064516129032258,0.041467385773888255
230146,0.0668,0.104,0.0372,"HENRY FORD WYANDOTTE HOSPITAL",WYANDOTTE,MI,48192,0.29640151515151514,0.26097560975609757,-0.03542590539541757
310001,0.0677,0.1194,0.05170000000000001,"HACKENSACK UNIVERSITY MEDICAL CENTER",HACKENSACK,NJ,07601,0.2795129698253044,0.26353790613718414,-0.01597506368812024
240052,0.0683,0.0723,0.0040000000000000036,"LAKE REGION HEALTHCARE CORPORATION","FERGUS FALLS",MN,56537,0.21794871794871795,0.14634146341463414,-0.07160725453408381
230227,0.0684,0.1005,0.032100000000000004,"MOUNT CLEMENS REGIONAL MEDICAL CENTER","MOUNT CLEMENS",MI,48043,0.2697095435684647,0.2506297229219144,-0.01907982064655034
330004,0.0684,0.0805,0.0121,"KINGSTON HOSPITAL",KINGSTON,NY,12401,0.23877068557919623,0.23076923076923078,-0.008001454809965447
140030,0.0687,0.0773,0.008599999999999997,"SHERMAN HOSPITAL",ELGIN,IL,60123,0.2533783783783784,0.19815059445178335,-0.05522778392659505
440034,0.0688,0.0789,0.010099999999999998,"METHODIST MEDICAL CENTER OF OAK RIDGE","OAK RIDGE",TN,37830,0.2809734513274336,0.20643939393939395,-0.07453405738803967
110039,0.0689,0.1145,0.0456,"TRINITY HOSPITAL OF AUGUSTA",AUGUSTA,GA,30904,0.17355371900826447,0.2777777777777778,0.10422405876951332
450072,0.0690,0.0354,-0.033600000000000005,"BRAZOSPORT REGIONAL HEALTH SYSTEM","LAKE JACKSON",TX,77566,0.2350597609561753,0.250996015936255,0.015936254980079667
330126,0.0692,0.089,0.019799999999999998,"ORANGE REGIONAL MEDICAL CENTER",MIDDLETOWN,NY,10940,0.3239910313901345,0.2783109404990403,-0.045680090891094205
420009,0.0692,0.0246,-0.0446,"OCONEE MEDICAL CENTER",SENECA,SC,29672,0.2,0.17455621301775148,-0.02544378698224853
460010,0.0692,0.0481,-0.0211,"INTERMOUNTAIN MEDICAL CENTER",MURRAY,UT,84157,0.18861209964412812,0.15210355987055016,-0.03650853977357796
100018,0.0693,0.0683,-0.0010000000000000009,"NAPLES COMMUNITY HOSPITAL",NAPLES,FL,34102,0.22533062054933875,0.19290211791642817,-0.03242850263291058
140110,0.0694,0.2247,0.1553,"OTTAWA REGIONAL HOSPITAL & HEALTHCARE CENTER",OTTAWA,IL,61350,0.1834319526627219,0.21393034825870647,0.03049839559598458
470012,0.0694,0.1107,0.0413,"SOUTHWESTERN VERMONT MEDICAL CENTER",BENNINGTON,VT,05201,0.2465277777777778,0.20376175548589343,-0.042766022291884365
140289,0.0698,0.0732,0.0034000000000000002,"ANDERSON HOSPITAL",MARYVILLE,IL,62062,0.21774193548387097,0.1859504132231405,-0.03179152226073048
140052,0.0700,0.1487,0.07869999999999999,"SAINT ANTHONY'S HEALTH CENTER",ALTON,IL,62002,0.2556053811659193,0.2810810810810811,0.025475699915161798
360072,0.0700,0.1181,0.04809999999999999,"FAIRFIELD MEDICAL CENTER",LANCASTER,OH,43130,0.2332214765100671,0.23563218390804597,0.0024107073979788562
230216,0.0704,0.0967,0.02629999999999999,"PORT HURON HOSPITAL","PORT HURON",MI,48060,0.2764084507042254,0.2376237623762376,-0.03878468832798776
490101,0.0704,0.0676,-0.002800000000000011,"INOVA FAIR OAKS HOSPITAL",FAIRFAX,VA,22033,0.23142857142857143,0.21264367816091953,-0.018784893267651898
510013,0.0704,0.1039,0.0335,"REYNOLDS MEMORIAL HOSPITAL","GLEN DALE",WV,26038,0.21910112359550563,0.1984732824427481,-0.020627841152757537
370114,0.0705,0.0797,0.0092,"ST JOHN MEDICAL CENTER, INC",TULSA,OK,74104,0.22513812154696133,0.21981776765375854,-0.005320353893202789
300020,0.0706,0.1027,0.032100000000000004,"SOUTHERN NH MEDICAL CENTER",NASHUA,NH,03060,0.22443181818181818,0.20393120393120392,-0.020500614250614252
450580,0.0708,0.12,0.049199999999999994,"EAST TEXAS MEDICAL CENTER CROCKETT",CROCKETT,TX,75835,0.24242424242424243,0.21212121212121213,-0.030303030303030304
330191,0.0710,0.0642,-0.0068000000000000005,"GLENS FALLS HOSPITAL","GLENS FALLS",NY,12801,0.2920353982300885,0.21649484536082475,-0.07554055286926376
360082,0.0710,0.1543,0.0833,"EUCLID HOSPITAL",EUCLID,OH,44119,0.27823691460055094,0.24770642201834864,-0.030530492582202307
490118,0.0714,0.0745,0.0030999999999999917,"HENRICO DOCTORS' HOSPITAL",RICHMOND,VA,23229,0.21902874132804756,0.17805383022774326,-0.040974911100304295
260160,0.0715,0.0404,-0.031099999999999996,"MISSOURI SOUTHERN HEALTHCARE",DEXTER,MO,63841,0.27225130890052357,0.13861386138613863,-0.13363744751438494
450099,0.0715,0.0422,-0.029299999999999993,"PAMPA REGIONAL MEDICAL CENTER",PAMPA,TX,79065,0.2706766917293233,0.11904761904761904,-0.15162907268170425
500072,0.0715,0.1093,0.0378,"OLYMPIC MEDICAL CENTER","PORT ANGELES",WA,98362,0.15693430656934307,0.1661807580174927,0.009246451448149645
450148,0.0716,0.0524,-0.019199999999999995,"TEXAS HEALTH HARRIS METHODIST HOSPITAL CLEBURNE",CLEBURNE,TX,76033,0.17551020408163265,0.19745222929936307,0.02194202521773042
100062,0.0722,0.0978,0.025599999999999998,"MUNROE REGIONAL MEDICAL CENTER",OCALA,FL,34474,0.23344947735191637,0.1990521327014218,-0.03439734465049457
310076,0.0722,0.1177,0.0455,"SAINT BARNABAS MEDICAL CENTER",LIVINGSTON,NJ,07039,0.26488352027610007,0.2097345132743363,-0.05514900700176378
330119,0.0722,0.1114,0.0392,"LENOX HILL HOSPITAL","NEW YORK",NY,10021,0.27717391304347827,0.2711267605633803,-0.0060471524800979615
330140,0.0728,0.0898,0.017,"ST JOSEPH'S HOSPITAL HEALTH CENTER",SYRACUSE,NY,13203,0.27465986394557823,0.24036281179138322,-0.03429705215419501
260025,0.0730,0.0535,-0.019499999999999997,"HANNIBAL REGIONAL HOSPITAL",HANNIBAL,MO,63401,0.21764705882352942,0.23658536585365852,0.01893830703012911
360001,0.0730,0.101,0.02800000000000001,"MERCY HOSPITAL ANDERSON",CINCINNATI,OH,45255,0.2441860465116279,0.2605932203389831,0.01640717382735518
260200,0.0732,0.0444,-0.0288,"SSM ST JOSEPH HOSPITAL WEST","LAKE SAINT LOUIS",MO,63367,0.21142857142857144,0.2076271186440678,-0.0038014527845036394
150026,0.0736,0.0839,0.010300000000000004,"IU HEALTH GOSHEN HOSPITAL",GOSHEN,IN,46526,0.18831168831168832,0.12698412698412698,-0.06132756132756134
140185,0.0737,0.0955,0.0218,"MEMORIAL HOSPITAL",BELLEVILLE,IL,62226,0.26134969325153373,0.2368995633187773,-0.024450129932756443
290054,0.0737,0.158,0.0843,"CENTENNIAL HILLS HOSPITAL MEDICAL CENTER","LAS VEGAS",NV,89149,0.2967741935483871,0.2100456621004566,-0.08672853144793047
310073,0.0737,0.0814,0.0076999999999999985,"JERSEY SHORE UNIVERSITY MEDICAL CENTER",NEPTUNE,NJ,07754,0.25057603686635943,0.21685082872928177,-0.03372520813707766
330141,0.0737,0.0977,0.023999999999999994,"BROOKHAVEN MEMORIAL HOSPITAL MEDICAL CENTER",PATCHOGUE,NY,11772,0.3284182305630027,0.25383542538354253,-0.07458280517946014
150086,0.0741,0.1071,0.033,"DEARBORN COUNTY HOSPITAL",LAWRENCEBURG,IN,47025,0.27461139896373055,0.2616822429906542,-0.012929155973076367
330307,0.0746,0.1187,0.0441,"CAYUGA MEDICAL CENTER AT ITHACA",ITHACA,NY,14850,0.1557377049180328,0.17532467532467533,0.019586970406642534
500119,0.0746,0.1562,0.0816,"VALLEY HOSPITAL",SPOKANE,WA,99216,0.22608695652173913,0.18478260869565216,-0.04130434782608697
140160,0.0747,0.0832,0.008499999999999994,"FHN MEMORIAL HOSPITAL",FREEPORT,IL,61032,0.21122112211221122,0.21498371335504887,0.0037625912428376485
490089,0.0748,0.0292,-0.0456,"CARILION FRANKLIN MEMORIAL HOSPITAL","ROCKY MOUNT",VA,24151,0.1986754966887417,0.1893491124260355,-0.009326384262706211
100238,0.0750,0.0733,-0.0016999999999999932,"NORTHSIDE HOSPITAL","SAINT PETERSBURG",FL,33709,0.2894736842105263,0.24700239808153476,-0.042471286128991564
330286,0.0754,0.1055,0.030100000000000002,"GOOD SAMARITAN HOSPITAL MEDICAL CENTER","WEST ISLIP",NY,11795,0.2597898758357211,0.24313186813186813,-0.01665800770385298
160013,0.0759,0.12,0.0441,"TRINITY MUSCATINE",MUSCATINE,IA,52761,0.21875,0.15384615384615385,-0.06490384615384615
100140,0.0760,0.0883,0.012300000000000005,"BAPTIST MEDICAL CENTER - NASSAU","FERNANDINA BEACH",FL,32034,0.1875,0.20540540540540542,0.017905405405405417
260011,0.0760,0.0895,0.013499999999999998,"ST MARYS HEALTH CENTER","JEFFERSON CITY",MO,65101,0.24703087885985747,0.28604118993135014,0.039010311071492665
410011,0.0764,0.0989,0.022500000000000006,"LANDMARK MEDICAL CENTER,  INC",WOONSOCKET,RI,02895,0.2445054945054945,0.28703703703703703,0.04253154253154254
490019,0.0764,0.1009,0.024500000000000008,"CULPEPER REGIONAL HOSPITAL",CULPEPER,VA,22701,0.3333333333333333,0.2546816479400749,-0.0786516853932584
510039,0.0769,0.1458,0.06890000000000002,"OHIO VALLEY MEDICAL CENTER",WHEELING,WV,26003,0.26143790849673204,0.3,0.03856209150326795
350019,0.0770,0.0803,0.0032999999999999974,"ALTRU HOSPITAL","GRAND FORKS",ND,58201,0.23037974683544304,0.1787941787941788,-0.05158556804126424
340017,0.0771,0.0583,-0.018800000000000004,"MARGARET R PARDEE MEMORIAL HOSPITAL",HENDERSONVILLE,NC,28791,0.2026315789473684,0.17607223476297967,-0.02655934418438874
370018,0.0773,0.0535,-0.023799999999999995,"JANE PHILLIPS MEDICAL CENTER",BARTLESVILLE,OK,74006,0.21587301587301588,0.19202898550724637,-0.023844030365769514
420027,0.0774,0.0718,-0.005599999999999994,"ANMED HEALTH",ANDERSON,SC,29621,0.21944809461235218,0.21153846153846154,-0.007909633073890643
290039,0.0776,0.1613,0.0837,"MOUNTAINVIEW HOSPITAL","LAS VEGAS",NV,89128,0.27416798732171155,0.277504105090312,0.003336117768600433
260097,0.0777,0.0817,0.00399999999999999,"WESTERN MISSOURI MEDICAL CENTER",WARRENSBURG,MO,64093,0.17647058823529413,0.15827338129496402,-0.018197206940330113
340015,0.0777,0.1047,0.026999999999999996,"ROWAN REGIONAL MEDICAL CENTER",SALISBURY,NC,28144,0.22149837133550487,0.2118380062305296,-0.009660365104975283
490119,0.0778,0.0476,-0.03019999999999999,"SENTARA PRINCESS ANNE HOSPITAL","VIRGINIA BEACH",VA,23456,0.17592592592592593,0.2125,0.036574074074074064
150146,0.0779,0.12,0.0421,"PARKVIEW NOBLE HOSPITAL",KENDALLVILLE,IN,46755,0.1782178217821782,0.2268041237113402,0.048586301929161996
420073,0.0779,0.0683,-0.009599999999999997,"LEXINGTON MEDICAL CENTER","WEST COLUMBIA",SC,29169,0.2222222222222222,0.19078104993597952,-0.031441172286242686
140127,0.0780,0.1123,0.0343,"BROMENN HEALTHCARE",NORMAL,IL,61761,0.208955223880597,0.2010178117048346,-0.00793741217576241
330245,0.0781,0.0615,-0.016600000000000004,"ST ELIZABETH MEDICAL CENTER",UTICA,NY,13501,0.25749167591564925,0.2176759410801964,-0.039815734835452865
150007,0.0782,0.1185,0.04029999999999999,"COMMUNITY HOWARD REGIONAL HEALTH INC",KOKOMO,IN,46904,0.21221864951768488,0.24369747899159663,0.03147882947391176
230118,0.0783,0.12,0.0417,"HURON MEDICAL CENTER","BAD AXE",MI,48413,0.25984251968503935,0.18478260869565216,-0.07505991098938719
150006,0.0784,0.1179,0.03950000000000001,"INDIANA UNIVERSITY HEALTH LA PORTE HOSPITAL","LA PORTE",IN,46350,0.21897810218978103,0.18902439024390244,-0.02995371194587859
150006,0.0784,0.1001,0.021699999999999997,"INDIANA UNIVERSITY HEALTH LA PORTE HOSPITAL","LA PORTE",IN,46350,0.21897810218978103,0.18902439024390244,-0.02995371194587859
450820,0.0787,0.0896,0.010899999999999993,"METHODIST SUGAR LAND HOSPITAL","SUGAR LAND",TX,77479,0.24649859943977592,0.23465703971119134,-0.011841559728584583
150048,0.0789,0.1017,0.0228,"REID HOSPITAL & HEALTH CARE SERVICES",RICHMOND,IN,47374,0.22465753424657534,0.2222222222222222,-0.0024353120243531257
380020,0.0791,0.1549,0.0758,"MCKENZIE-WILLAMETTE MEDICAL CENTER",SPRINGFIELD,OR,97477,0.20454545454545456,0.17427385892116182,-0.03027159562429274
230239,0.0796,0.12,0.04039999999999999,"CHIPPEWA COUNTY WAR MEMORIAL HOSPITAL","SAULT SAINTE MARIE",MI,49783,0.20253164556962025,0.19411764705882353,-0.008413998510796716
360070,0.0798,0.1005,0.02070000000000001,"MERCY MEDICAL CENTER",CANTON,OH,44708,0.23859649122807017,0.19838056680161945,-0.04021592442645072
100127,0.0799,0.0613,-0.0186,"MORTON PLANT HOSPITAL",CLEARWATER,FL,33756,0.2140391254315305,0.21168687982359427,-0.002352245607936232
290041,0.0801,0.1673,0.0872,"SUMMERLIN HOSPITAL MEDICAL CENTER","LAS VEGAS",NV,89144,0.21081081081081082,0.2433734939759036,0.03256268316509278
240043,0.0802,0.12,0.0398,"MAYO CLINIC HEALTH SYSTEM - ALBERT LEA","ALBERT LEA",MN,56007,0.19148936170212766,0.19863013698630136,0.0071407752841737004
360080,0.0802,0.1114,0.031200000000000006,"EAST OHIO REGIONAL HOSPITAL","MARTINS FERRY",OH,43935,0.2694063926940639,0.3,0.030593607305936077
150069,0.0804,0.1307,0.05030000000000001,"KING'S DAUGHTERS' HOSPITAL AND HEALTH SERVICES,THE",MADISON,IN,47250,0.2315112540192926,0.25821596244131456,0.026704708422021967
360027,0.0807,0.1344,0.0537,"AKRON GENERAL MEDICAL CENTER",AKRON,OH,44307,0.2530241935483871,0.2,-0.05302419354838711
360076,0.0807,0.1237,0.04300000000000001,"ATRIUM MEDICAL CENTER",FRANKLIN,OH,45005,0.24903474903474904,0.17595307917888564,-0.0730816698558634
270017,0.0810,0.12,0.03899999999999999,"ST JAMES HEALTHCARE",BUTTE,MT,59701,0.1503267973856209,0.11797752808988764,-0.03234926929573327
150030,0.0811,0.0999,0.018799999999999997,"HENRY COUNTY MEMORIAL HOSPITAL","NEW CASTLE",IN,47362,0.16666666666666666,0.19863013698630136,0.0319634703196347
380038,0.0811,0.2305,0.1494,"PROVIDENCE WILLAMETTE FALLS MEDICAL CENTER","OREGON CITY",OR,97045,0.18604651162790697,0.1951219512195122,0.009075439591605228
520083,0.0811,0.0848,0.003699999999999995,"ST MARY'S HOSPITAL",MADISON,WI,53715,0.1895734597156398,0.13933236574746008,-0.05024109396817972
180027,0.0815,0.1169,0.0354,"MURRAY-CALLOWAY COUNTY HOSPITAL",MURRAY,KY,42071,0.23605150214592274,0.14204545454545456,-0.09400604760046818
230055,0.0815,0.0848,0.0032999999999999974,"DICKINSON COUNTY MEMORIAL HOSPITAL","IRON MOUNTAIN",MI,49801,0.20212765957446807,0.20164609053497942,-0.0004815690394886496
230099,0.0816,0.1189,0.0373,"MERCY MEMORIAL HOSPITAL SYSTEM",MONROE,MI,48162,0.26590909090909093,0.24861878453038674,-0.017290306378704184
390304,0.0818,0.1606,0.0788,"ROXBOROUGH MEMORIAL HOSPITAL",PHILADELPHIA,PA,19128,0.3402061855670103,0.24806201550387597,-0.09214417006313436
450656,0.0818,0.0426,-0.0392,"NACOGDOCHES MEDICAL CENTER",NACOGDOCHES,TX,75961,0.24882629107981222,0.22058823529411764,-0.028238055785694577
410009,0.0822,0.136,0.053800000000000014,"KENT COUNTY MEMORIAL HOSPITAL",WARWICK,RI,02886,0.26604068857589985,0.25704225352112675,-0.008998435054773102
470005,0.0825,0.1268,0.04429999999999999,"RUTLAND REGIONAL MEDICAL CENTER",RUTLAND,VT,05701,0.21254355400696864,0.1506276150627615,-0.06191593894420713
360009,0.0831,0.0902,0.007100000000000009,"LIMA MEMORIAL HEALTH SYSTEM",LIMA,OH,45804,0.20365535248041775,0.2125984251968504,0.00894307271643266
330125,0.0832,0.0984,0.015200000000000005,"ROCHESTER GENERAL HOSPITAL",ROCHESTER,NY,14621,0.2588522588522589,0.26888604353393086,0.010033784681671987
390043,0.0832,0.0811,-0.0020999999999999908,"SOLDIERS AND SAILORS MEMORIAL HOSPITAL",WELLSBORO,PA,16901,0.22943722943722944,0.2857142857142857,0.05627705627705626
450713,0.0838,0.0722,-0.0116,"ST DAVID'S SOUTH AUSTIN MEDICAL CENTER",AUSTIN,TX,78704,0.2366288492706645,0.2423841059602649,0.005755256689600419
220071,0.0841,0.1196,0.035500000000000004,"MASSACHUSETTS GENERAL HOSPITAL",BOSTON,MA,02114,0.2540168324407039,0.2353573347662547,-0.018659497674449188
140034,0.0842,0.1221,0.0379,"ST MARYS HOSPITAL",CENTRALIA,IL,62801,0.3416988416988417,0.23820224719101124,-0.10349659450783044
330106,0.0843,0.0764,-0.007900000000000004,"NORTH SHORE UNIVERSITY HOSPITAL",MANHASSET,NY,11030,0.2812903225806452,0.21072319201995013,-0.07056713056069505
290047,0.0844,0.1335,0.049100000000000005,"SOUTHERN HILLS HOSPITAL AND MEDICAL CENTER","LAS VEGAS",NV,89148,0.2867132867132867,0.2392638036809816,-0.04744948303230512
140113,0.0845,0.1358,0.0513,"PROVENA COVENANT MEDICAL CENTER- URBANA",URBANA,IL,61801,0.251063829787234,0.258160237388724,0.007096407601489996
140167,0.0845,0.1171,0.03259999999999999,"IROQUOIS MEMORIAL HOSPITAL",WATSEKA,IL,60970,0.23645320197044334,0.23404255319148937,-0.002410648778953972
360174,0.0846,0.1204,0.0358,"UPPER VALLEY MEDICAL CENTER",TROY,OH,45373,0.23002421307506055,0.22408963585434175,-0.005934577220718801
450677,0.0847,0.0963,0.0116,"HUGULEY HEALTH SYSTEM","FORT WORTH",TX,76115,0.2540415704387991,0.21218487394957983,-0.041856696489219275
330030,0.0848,0.1682,0.08339999999999999,"NEWARK-WAYNE COMMUNITY HOSPITAL",NEWARK,NY,14513,0.27044025157232704,0.3372093023255814,0.06676905075325434
360013,0.0853,0.1054,0.020099999999999993,"WILSON MEMORIAL HOSPITAL",SIDNEY,OH,45365,0.25170068027210885,0.19424460431654678,-0.05745607595556207
140135,0.0854,0.0953,0.009899999999999992,"DECATUR MEMORIAL HOSPITAL",DECATUR,IL,62526,0.22795115332428764,0.20071047957371227,-0.027240673750575373
240104,0.0854,0.0805,-0.004900000000000002,"ST FRANCIS REGIONAL MEDICAL CENTER",SHAKOPEE,MN,55379,0.24107142857142858,0.23529411764705882,-0.005777310924369755
370229,0.0856,0.0731,-0.012499999999999997,"INTEGRIS SEMINOLE MEDICAL CENTER",SEMINOLE,OK,74868,0.3114754098360656,0.2127659574468085,-0.09870945238925707
490021,0.0859,0.0854,-0.0005000000000000004,"CENTRA  HEALTH, INC",LYNCHBURG,VA,24501,0.22975778546712802,0.1977025392986699,-0.03205524616845812
330033,0.0860,0.1646,0.0786,"CHENANGO MEMORIAL HOSPITAL, INC",NORWICH,NY,13815,0.183206106870229,0.20967741935483872,0.02647131248460971
310086,0.0862,0.1477,0.0615,"KENNEDY UNIVERSITY HOSPITAL - STRATFORD DIV",STRATFORD,NJ,08084,0.29694915254237286,0.26240115025161753,-0.03454800229075533
490040,0.0862,0.0709,-0.015299999999999994,"INOVA ALEXANDRIA HOSPITAL",ALEXANDRIA,VA,22304,0.23053435114503817,0.21983471074380165,-0.010699640401236526
100069,0.0863,0.1058,0.019500000000000003,"FLORIDA HOSPITAL CARROLLWOOD",TAMPA,FL,33614,0.21875,0.28169014084507044,0.06294014084507044
670077,0.0864,0.131,0.0446,"METHODIST WEST HOUSTON HOSPITAL",HOUSTON,TX,77094,0,0.1994535519125683,0.1994535519125683
310044,0.0866,0.1677,0.08109999999999999,"CAPITAL HEALTH MEDICAL CENTER - HOPEWELL",PENNINGTON,NJ,08534,0.2891566265060241,0.1807909604519774,-0.10836566605404668
100189,0.0868,0.1576,0.07079999999999999,"NORTHWEST MEDICAL CENTER",MARGATE,FL,33063,0.25272331154684097,0.28077753779697623,0.02805422625013526
420015,0.0868,0.12,0.03319999999999999,"BAPTIST EASLEY HOSPITAL",EASLEY,SC,29640,0.27835051546391754,0.2869198312236287,0.008569315759711149
180035,0.0875,0.1638,0.0763,"ST ELIZABETH MEDICAL CENTER NORTH",COVINGTON,KY,41014,0.25606276747503565,0.2267493356953056,-0.02931343177973006
380075,0.0876,0.1311,0.0435,"PROVIDENCE MEDFORD MEDICAL CENTER",MEDFORD,OR,97504,0.17098445595854922,0.24786324786324787,0.07687879190469865
300014,0.0877,0.1144,0.0267,"FRISBIE MEMORIAL HOSPITAL",ROCHESTER,NH,03867,0.23645320197044334,0.18828451882845187,-0.048168683141991464
330079,0.0880,0.1081,0.020100000000000007,"ADIRONDACK MEDICAL CENTER","SARANAC LAKE",NY,12983,0.2265625,0.24778761061946902,0.021225110619469023
360020,0.0881,0.1394,0.0513,"SUMMA HEALTH SYSTEMS HOSPITALS",AKRON,OH,44309,0.2545824847250509,0.22991347342398022,-0.024669011301070687
360036,0.0882,0.0924,0.004199999999999995,"WOOSTER COMMUNITY HOSPITAL",WOOSTER,OH,44691,0.1875,0.18777292576419213,0.00027292576419213344
240207,0.0883,0.0928,0.00449999999999999,"FAIRVIEW RIDGES HOSPITAL",BURNSVILLE,MN,55337,0.270935960591133,0.205761316872428,-0.06517464371870502
510007,0.0886,0.1202,0.0316,"ST MARY'S MEDICAL CENTER",HUNTINGTON,WV,25701,0.21908602150537634,0.21997755331088664,0.0008915318055102983
100081,0.0888,0.12,0.03119999999999999,"HEALTHMARK REGIONAL MEDICAL CENTER","DEFUNIAK SPRINGS",FL,32435,0.19834710743801653,0.2558139534883721,0.05746684605035557
440033,0.0888,0.12,0.03119999999999999,"TENNOVA HEALTHCARE-LAFOLLETT MEDICAL CENTER","LA FOLLETTE",TN,37766,0.22608695652173913,0.272108843537415,0.04602188701567586
260110,0.0892,0.0839,-0.005299999999999999,"SOUTHEAST MISSOURI HOSPITAL","CAPE GIRARDEAU",MO,63701,0.21593291404612158,0.23542116630669546,0.01948825226057388
340158,0.0892,0.1076,0.0184,"BRUNSWICK COMMUNITY HOSPITAL",SUPPLY,NC,28462,0.20853080568720378,0.28793774319066145,0.07940693750345768
490042,0.0892,0.0816,-0.007599999999999996,"CARILION NEW RIVER VALLEY MEDICAL CENTER",CHRISTIANSBURG,VA,24073,0.2108843537414966,0.19169329073482427,-0.019191063006672338
340109,0.0896,0.0925,0.0029,"ALBEMARLE HOSPITAL AUTHORITY","ELIZABETH CITY",NC,27909,0.21715817694369974,0.25164113785557984,0.034482960911880106
450779,0.0896,0.0677,-0.021900000000000003,"TEXAS HEALTH HARRIS METHODIST HOSPITAL SOUTHWEST F","FORT WORTH",TX,76132,0.20105820105820105,0.16802168021680217,-0.03303652084139888
200021,0.0897,0.0479,-0.041800000000000004,"MID COAST HOSPITAL",BRUNSWICK,ME,04011,0.20833333333333334,0.16342412451361868,-0.04490920881971466
140250,0.0898,0.118,0.02819999999999999,"ADVOCATE SOUTH SUBURBAN HOSPITAL","HAZEL CREST",IL,60429,0.26268115942028986,0.21894736842105264,-0.043733790999237215
360025,0.0900,0.1481,0.05810000000000001,"FIRELANDS REGIONAL MEDICAL CENTER",SANDUSKY,OH,44870,0.26464646464646463,0.2125506072874494,-0.05209585735901523
490033,0.0900,0.0906,0.0006000000000000033,"WARREN MEMORIAL HOSPITAL","FRONT ROYAL",VA,22630,0.21875,0.1895424836601307,-0.02920751633986929
330094,0.0902,0.1071,0.0169,"COLUMBIA MEMORIAL HOSPITAL",HUDSON,NY,12534,0.24093264248704663,0.25333333333333335,0.012400690846286727
490079,0.0902,0.0716,-0.018600000000000005,"MEMORIAL HOSPITAL OF MARTINSVILLE & HENRY COUNTY",MARTINSVILLE,VA,24115,0.2183288409703504,0.22119815668202766,0.002869315711677256
510031,0.0906,0.1105,0.0199,"ST FRANCIS HOSPITAL",CHARLESTON,WV,25301,0.17557251908396945,0.22413793103448276,0.04856541195051331
450010,0.0907,0.0864,-0.004299999999999998,"UNITED REGIONAL HEALTH CARE SYSTEM","WICHITA FALLS",TX,76301,0.20217391304347826,0.1673254281949934,-0.03484848484848485
520100,0.0909,0.0982,0.007300000000000001,"BELOIT MEM HSPTL",BELOIT,WI,53511,0.20440251572327045,0.13618677042801555,-0.0682157452952549
150018,0.0910,0.1061,0.015100000000000002,"ELKHART GENERAL HOSPITAL",ELKHART,IN,46514,0.20448877805486285,0.22910662824207492,0.024617850187212076
360259,0.0910,0.12,0.028999999999999998,"BAY PARK COMMUNITY HOSPITAL",OREGON,OH,43616,0.2662337662337662,0.21794871794871795,-0.04828504828504826
440048,0.0911,0.1235,0.0324,"BAPTIST MEMORIAL HOSPITAL",MEMPHIS,TN,38120,0.21201413427561838,0.2281390134529148,0.01612487917729641
330103,0.0914,0.1013,0.009900000000000006,"OLEAN GENERAL HOSPITAL",OLEAN,NY,14760,0.27320954907161804,0.251063829787234,-0.022145719284384024
450064,0.0915,0.1246,0.033100000000000004,"TEXAS HEALTH ARLINGTON MEMORIAL HOSPITAL",ARLINGTON,TX,76012,0.24920127795527156,0.21823204419889503,-0.03096923375637653
360125,0.0916,0.1288,0.0372,"ASHTABULA COUNTY MEDICAL CENTER",ASHTABULA,OH,44004,0.25,0.2822085889570552,0.032208588957055195
100121,0.0918,0.0925,0.0006999999999999923,"BARTOW REGIONAL MEDICAL CENTER",BARTOW,FL,33831,0.3032258064516129,0.256,-0.047225806451612895
100121,0.0918,0.0632,-0.0286,"BARTOW REGIONAL MEDICAL CENTER",BARTOW,FL,33831,0.3032258064516129,0.256,-0.047225806451612895
340131,0.0918,0.0725,-0.01930000000000001,"CAROLINA EAST MEDICAL CENTER","NEW BERN",NC,28560,0.2387914230019493,0.19815059445178335,-0.04064082855016596
330175,0.0920,0.12,0.027999999999999997,"CORTLAND REGIONAL MEDICAL CENTER, INC",CORTLAND,NY,13045,0.3179916317991632,0.3055555555555556,-0.012436076243607597
110005,0.0924,0.052,-0.0404,"NORTHSIDE HOSPITAL FORSYTH",CUMMING,GA,30041,0.29545454545454547,0.22016460905349794,-0.07528993640104753
240093,0.0928,0.1114,0.018600000000000005,"MAYO CLINIC HEALTH SYSTEM - MANKATO",MANKATO,MN,56002,0.16831683168316833,0.19413919413919414,0.025822362456025816
330238,0.0930,0.1197,0.0267,"NICHOLAS H NOYES MEMORIAL HOSPITAL",DANSVILLE,NY,14437,0.2905405405405405,0.19480519480519481,-0.0957353457353457
100092,0.0932,0.0916,-0.0016000000000000042,"WUESTHOFF MEDICAL CENTER  ROCKLEDGE",ROCKLEDGE,FL,32955,0.3118811881188119,0.2239858906525573,-0.08789529746625457
330211,0.0932,0.0802,-0.013000000000000012,"CLAXTON-HEPBURN MEDICAL CENTER",OGDENSBURG,NY,13669,0.2740740740740741,0.2702702702702703,-0.003803803803803796
520109,0.0937,0.0871,-0.006600000000000009,"MILE BLUFF MEDICAL CENTER, INC",MAUSTON,WI,53948,0.1978021978021978,0.2028985507246377,0.005096352922439901
150065,0.0939,0.1379,0.044,"SCHNECK MEDICAL CENTER",SEYMOUR,IN,47274,0.18439716312056736,0.112,-0.07239716312056736
330250,0.0939,0.1185,0.024599999999999997,"CHAMPLAIN VALLEY PHYSICIANS HOSPITAL MEDICAL CTR",PLATTSBURGH,NY,12901,0.27993779160186627,0.2357563850687623,-0.044181406533103984
450133,0.0939,0.1004,0.006500000000000006,"MIDLAND MEMORIAL HOSPITAL",MIDLAND,TX,79701,0.22088353413654618,0.15468409586056645,-0.06619943827597974
360092,0.0940,0.0993,0.005299999999999999,"MEMORIAL HOSPITAL OF UNION COUNTY",MARYSVILLE,OH,43040,0.15476190476190477,0.32989690721649484,0.17513500245459007
500060,0.0940,0.1094,0.015399999999999997,"CASCADE VALLEY HOSPITAL",ARLINGTON,WA,98223,0.17647058823529413,0.22916666666666666,0.05269607843137253
500060,0.0940,0.1239,0.029899999999999996,"CASCADE VALLEY HOSPITAL",ARLINGTON,WA,98223,0.17647058823529413,0.22916666666666666,0.05269607843137253
340115,0.0943,0.0809,-0.013399999999999995,"FIRSTHEALTH MOORE REGIONAL HOSPITAL",PINEHURST,NC,28374,0.25386313465783666,0.22063595068137573,-0.03322718397646093
420048,0.0943,0.0727,-0.021599999999999994,"KERSHAW HEALTH",CAMDEN,SC,29020,0.2265193370165746,0.21100917431192662,-0.015510162704647973
100048,0.0944,0.044,-0.0504,"JAY HOSPITAL",JAY,FL,32565,0.16666666666666666,0.2602739726027397,0.09360730593607305
110008,0.0944,0.0806,-0.013799999999999993,"NORTHSIDE HOSPITAL CHEROKEE",CANTON,GA,30114,0.26455026455026454,0.15343915343915343,-0.1111111111111111
240057,0.0945,0.125,0.0305,"ABBOTT NORTHWESTERN HOSPITAL",MINNEAPOLIS,MN,55407,0.21610738255033557,0.21142857142857144,-0.0046788111217641315
170014,0.0946,0.0524,-0.0422,"RANSOM MEMORIAL HOSPITAL",OTTAWA,KS,66067,0.25842696629213485,0.14285714285714285,-0.115569823434992
100077,0.0947,0.0576,-0.03710000000000001,"PEACE RIVER REGIONAL MEDICAL CENTER","PORT CHARLOTTE",FL,33952,0.24890829694323144,0.24572317262830481,-0.003185124314926624
360203,0.0947,0.12,0.02529999999999999,"SOUTHEASTERN OHIO REGIONAL MEDICAL CENTER",CAMBRIDGE,OH,43725,0.2409090909090909,0.2608695652173913,0.01996047430830039
240064,0.0949,0.113,0.018100000000000005,"GRAND ITASCA CLINIC AND HOSPITAL","GRAND RAPIDS",MN,55744,0.2236842105263158,0.21621621621621623,-0.007467994310099563
500002,0.0949,0.1308,0.0359,"PROVIDENCE ST MARY MEDICAL CENTER","WALLA WALLA",WA,99362,0.16541353383458646,0.165,-0.0004135338345864492
140046,0.0950,0.1494,0.054400000000000004,"GOOD SAMARITAN REGIONAL HLTH CENTER","MOUNT VERNON",IL,62864,0.27543424317617865,0.24202127659574468,-0.03341296658043397
160082,0.0951,0.1367,0.041599999999999984,"IOWA METHODIST MEDICAL CENTER","DES MOINES",IA,50309,0.1702127659574468,0.17420435510887772,0.003991589151430913
360052,0.0951,0.1235,0.028399999999999995,"GOOD SAMARITAN HOSPITAL",DAYTON,OH,45406,0.2668845315904139,0.23763736263736263,-0.029247168953051295
280003,0.0953,0.0735,-0.0218,"BRYANLGH MEDICAL CENTER",LINCOLN,NE,68506,0.19260204081632654,0.13738441215323646,-0.055217628663090074
380082,0.0965,0.1131,0.016600000000000004,"PROVIDENCE MILWAUKIE HOSPITAL",MILWAUKIE,OR,97222,0.20253164556962025,0.18604651162790697,-0.016485133941713276
380061,0.0966,0.1847,0.0881,"PROVIDENCE PORTLAND MEDICAL CENTER",PORTLAND,OR,97213,0.2192513368983957,0.18028846153846154,-0.038962875359934174
160001,0.0968,0.0633,-0.0335,"MARSHALLTOWN MEDICAL & SURGICAL CENTER",MARSHALLTOWN,IA,50158,0.15083798882681565,0.21212121212121213,0.06128322329439648
160001,0.0968,0.0777,-0.019099999999999992,"MARSHALLTOWN MEDICAL & SURGICAL CENTER",MARSHALLTOWN,IA,50158,0.15083798882681565,0.21212121212121213,0.06128322329439648
230270,0.0968,0.12,0.0232,"OAKWOOD HERITAGE HOSPITAL",TAYLOR,MI,48180,0.33073929961089493,0.2677165354330709,-0.06302276417782404
450718,0.0972,0.0629,-0.0343,"ROUND ROCK MEDICAL CENTER","ROUND ROCK",TX,78681,0.2363013698630137,0.16319444444444445,-0.07310692541856925
160008,0.0973,0.0294,-0.0679,"KEOKUK AREA HOSPITAL",KEOKUK,IA,52632,0.11057692307692307,0.24545454545454545,0.13487762237762238
140172,0.0974,0.1562,0.058800000000000005,"FRANCISCAN ST JAMES HEALTH","OLYMPIA FIELDS",IL,60461,0.29597946963216426,0.2885624344176285,-0.007417035214535739
200037,0.0974,0.0846,-0.012800000000000006,"FRANKLIN MEMORIAL HOSPITAL",FARMINGTON,ME,04938,0.20588235294117646,0.18,-0.025882352941176467
150051,0.0975,0.1598,0.062299999999999994,"INDIANA UNIVERSITY HEALTH BLOOMINGTON HOSPITAL",BLOOMINGTON,IN,47403,0.21161825726141079,0.14482758620689656,-0.06679067105451422
380071,0.0975,0.12,0.022499999999999992,"WILLAMETTE VALLEY MEDICAL CENTER",MCMINNVILLE,OR,97128,0.22556390977443608,0.2328042328042328,0.007240323029796714
100173,0.0977,0.1298,0.032100000000000004,"FLORIDA HOSPITAL TAMPA",TAMPA,FL,33613,0.23006134969325154,0.24087591240875914,0.010814562715507597
360236,0.0977,0.0887,-0.008999999999999994,"MERCY HOSPITAL CLERMONT",BATAVIA,OH,45103,0.2389937106918239,0.2,-0.03899371069182389
100087,0.0978,0.1177,0.0199,"SARASOTA MEMORIAL HOSPITAL",SARASOTA,FL,34239,0.19030390738060782,0.18774703557312253,-0.002556871807485289
360161,0.0983,0.1135,0.015200000000000005,"ST JOSEPH HEALTH CENTER",WARREN,OH,44481,0.2826086956521739,0.2236842105263158,-0.0589244851258581
310091,0.0984,0.1094,0.010999999999999996,"MEMORIAL HOSPITAL OF SALEM COUNTY",SALEM,NJ,08079,0.29754601226993865,0.23553719008264462,-0.06200882218729403
360064,0.0984,0.1002,0.001799999999999996,"ST ELIZABETH HEALTH CENTER",YOUNGSTOWN,OH,44501,0.26430517711171664,0.25112107623318386,-0.013184100878532778
370057,0.0985,0.0605,-0.038000000000000006,"OKMULGEE MEMORIAL HOSPITAL",OKMULGEE,OK,74447,0.2642857142857143,0.1827956989247312,-0.0814900153609831
150023,0.0986,0.1208,0.02220000000000001,"UNION HOSPITAL INC","TERRE HAUTE",IN,47804,0.25903614457831325,0.23084677419354838,-0.028189370384764878
160047,0.0986,0.1868,0.0882,"JENNIE EDMUNDSON HOSPITAL","COUNCIL BLUFFS",IA,51503,0.19900497512437812,0.15454545454545454,-0.04445952057892358
360131,0.0986,0.0828,-0.015799999999999995,"ALLIANCE COMMUNITY HOSPITAL",ALLIANCE,OH,44601,0.2345132743362832,0.23148148148148148,-0.003031792854801707
170120,0.0988,0.105,0.006199999999999997,"LABETTE HEALTH",PARSONS,KS,67357,0.3113207547169811,0.15625,-0.15507075471698112
190045,0.0990,0.0907,-0.008300000000000002,"ST TAMMANY PARISH HOSPITAL",COVINGTON,LA,70433,0.27901785714285715,0.25906735751295334,-0.019950499629903806
520057,0.0990,0.0991,0.00009999999999998899,"ST CLARE HSPTL HLTH SVCS",BARABOO,WI,53913,0.13333333333333333,0.15463917525773196,0.021305841924398633
140155,0.0991,0.1698,0.07070000000000001,"PROVENA ST MARYS HOSPITAL",KANKAKEE,IL,60901,0.32432432432432434,0.25217391304347825,-0.0721504112808461
160122,0.0996,0.12,0.0204,"FORT MADISON COMMUNITY HOSPITAL","FORT MADISON",IA,52627,0.2740740740740741,0.18584070796460178,-0.0882333661094723
360086,0.0996,0.1416,0.04200000000000001,"SPRINGFIELD REGIONAL MEDICAL CENTER",SPRINGFIELD,OH,45504,0.26337448559670784,0.2532467532467532,-0.010127732349954621
500079,0.0996,0.1222,0.02260000000000001,"MULTICARE GOOD SAMARITAN HOSPITAL",PUYALLUP,WA,98372,0.231433506044905,0.23842592592592593,0.006992419881020923
100049,0.0998,0.1269,0.027100000000000013,"HIGHLANDS REGIONAL MEDICAL CENTER",SEBRING,FL,33870,0.2678062678062678,0.225,-0.04280626780626781
130028,0.1000,0.1093,0.009299999999999989,"PORTNEUF MEDICAL CENTER",POCATELLO,ID,83201,0.15859030837004406,0.17177914110429449,0.013188832734250422
520139,0.1005,0.1443,0.043800000000000006,"AURORA WEST ALLIS MEDICAL CENTER","WEST ALLIS",WI,53227,0.27918781725888325,0.18394648829431437,-0.09524132896456888
360081,0.1006,0.1558,0.0552,"MERCY ST CHARLES HOSPITAL",OREGON,OH,43616,0.22115384615384615,0.21680216802168023,-0.004351678132165915
510029,0.1009,0.1731,0.0722,"THOMAS MEMORIAL HOSPITAL","SOUTH CHARLESTON",WV,25309,0.24193548387096775,0.2743142144638404,0.03237873059287266
450847,0.1010,0.0526,-0.048400000000000006,"MEMORIAL HERMANN KATY HOSPITAL",KATY,TX,77494,0.22340425531914893,0.24714828897338403,0.023744033654235108
420033,0.1011,0.1118,0.010700000000000001,"GREER MEMORIAL HOSPITAL",GREER,SC,29650,0.12844036697247707,0.21014492753623187,0.0817045605637548
260180,0.1015,0.1061,0.004599999999999993,"CHRISTIAN HOSPITAL NORTHEAST","SAINT LOUIS",MO,63136,0.28074534161490683,0.2710144927536232,-0.009730848861283614
420079,0.1015,0.1264,0.024900000000000005,"TRIDENT MEDICAL CENTER",CHARLESTON,SC,29406,0.2112676056338028,0.22282608695652173,0.011558481322718916
330115,0.1017,0.1179,0.016200000000000006,"ONEIDA HEALTHCARE CENTER",ONEIDA,NY,13421,0.2967032967032967,0.17757009345794392,-0.11913320324535279
140280,0.1018,0.1425,0.040699999999999986,"TRINITY ROCK ISLAND","ROCK ISLAND",IL,61201,0.23915900131406045,0.19658119658119658,-0.04257780473286388
360066,0.1018,0.1115,0.0097,"ST RITA'S MEDICAL CENTER",LIMA,OH,45801,0.2409090909090909,0.22013422818791947,-0.020774862721171433
510047,0.1018,0.1111,0.009300000000000003,"FAIRMONT GENERAL HOSPITAL",FAIRMONT,WV,26554,0.23349056603773585,0.27492447129909364,0.04143390526135779
450484,0.1019,0.1383,0.0364,"WOODLAND HEIGHTS MEDICAL CENTER",LUFKIN,TX,75904,0.1824561403508772,0.23694779116465864,0.054491650813781434
220176,0.1021,0.1312,0.029100000000000015,"ST VINCENT HOSPITAL",WORCESTER,MA,01608,0.2747524752475248,0.2654690618762475,-0.00928341337127725
500003,0.1021,0.1661,0.064,"SKAGIT VALLEY HOSPITAL","MOUNT VERNON",WA,98274,0.21103896103896103,0.17363344051446947,-0.03740552052449156
250020,0.1027,0.0962,-0.006500000000000006,"WEBSTER GENERAL HOSPITAL/SWING BED",EUPORA,MS,39744,0.2764227642276423,0.23655913978494625,-0.03986362444269603
150113,0.1028,0.136,0.03320000000000001,"COMMUNITY HOSPITAL OF ANDERSON AND MADISON COUNTY",ANDERSON,IN,46011,0.2608695652173913,0.20481927710843373,-0.05605028810895757
450571,0.1030,0.0977,-0.005299999999999999,"SHANNON MEDICAL CENTER","SAN ANGELO",TX,76903,0.19868995633187772,0.14978902953586498,-0.04890092679601274
170006,0.1031,0.0884,-0.01469999999999999,"VIA CHRISTI HOSPITAL PITTSBURG INC",PITTSBURG,KS,66762,0.2314410480349345,0.16477272727272727,-0.06666832076220724
150015,0.1034,0.109,0.005599999999999994,"FRANCISCAN ST ANTHONY HEALTH - MICHIGAN CITY","MICHIGAN CITY",IN,46360,0.22717149220489977,0.20759493670886076,-0.01957655549603901
340070,0.1034,0.1293,0.025899999999999992,"ALAMANCE REGIONAL MEDICAL CENTER",BURLINGTON,NC,27216,0.23404255319148937,0.20162932790224034,-0.03241322528924903
220033,0.1035,0.1247,0.02120000000000001,"BEVERLY HOSPITAL CORPORATION",BEVERLY,MA,01915,0.21861152141802068,0.2255729794933655,0.006961458075344817
220110,0.1038,0.1129,0.009099999999999997,"BRIGHAM AND WOMEN'S HOSPITAL",BOSTON,MA,02115,0.24793388429752067,0.24011039558417663,-0.00782348871334404
380001,0.1038,0.141,0.03719999999999998,"MID-COLUMBIA MEDICAL CENTER","THE DALLES",OR,97015,0.14912280701754385,0.140625,-0.008497807017543851
510030,0.1039,0.12,0.01609999999999999,"DAVIS MEMORIAL HOSPITAL",ELKINS,WV,26241,0.2891566265060241,0.16,-0.12915662650602408
100150,0.1043,0.0799,-0.024400000000000005,"LOWER KEYS MEDICAL CENTER","KEY WEST",FL,33040,0.27419354838709675,0.3053435114503817,0.031149963063284936
490013,0.1047,0.084,-0.020699999999999996,"HALIFAX REGIONAL HOSPITAL",HALIFAX,VA,24558,0.23717948717948717,0.17293233082706766,-0.06424715635241951
330218,0.1049,0.1225,0.017600000000000005,"OSWEGO HOSPITAL",OSWEGO,NY,13126,0.24609375,0.2857142857142857,0.0396205357142857
360239,0.1050,0.1961,0.0911,"KETTERING MEDICAL CENTER - SYCAMORE",MIAMISBURG,OH,45342,0.22727272727272727,0.2102803738317757,-0.01699235344095157
140093,0.1051,0.1543,0.049199999999999994,"PROVENA UNITED SAMARITANS MEDCTR-LOGAN",DANVILLE,IL,61832,0.275390625,0.27071823204419887,-0.00467239295580113
230121,0.1052,0.1249,0.019699999999999995,"MEMORIAL HEALTHCARE",OWOSSO,MI,48867,0.17682926829268292,0.19463087248322147,0.017801604190538556
360197,0.1052,0.12,0.014799999999999994,"MARY RUTAN HOSPITAL",BELLEFONTAINE,OH,43311,0.16083916083916083,0.20192307692307693,0.041083916083916094
450702,0.1052,0.1361,0.030899999999999997,"LONGVIEW REGIONAL MEDICAL CENTER",LONGVIEW,TX,75605,0.26108374384236455,0.18042813455657492,-0.08065560928578963
440130,0.1053,0.119,0.01369999999999999,"BAPTIST MEMORIAL HOSPITAL UNION CITY","UNION CITY",TN,38261,0.2598870056497175,0.215,-0.04488700564971751
140147,0.1062,0.0971,-0.009099999999999997,"RICHLAND MEMORIAL HOSPITAL",OLNEY,IL,62450,0.2796208530805687,0.2774566473988439,-0.002164205681724818
450083,0.1064,0.0657,-0.0407,"EAST TEXAS MEDICAL CENTER",TYLER,TX,75701,0.21956769055745165,0.23097826086956522,0.011410570312113566
220049,0.1065,0.12,0.013499999999999998,"MARLBOROUGH HOSPITAL",MARLBOROUGH,MA,01752,0.2653061224489796,0.2237442922374429,-0.0415618302115367
360109,0.1065,0.0822,-0.024300000000000002,"COSHOCTON COUNTY MEMORIAL HOSPITAL",COSHOCTON,OH,43812,0.2485207100591716,0.20481927710843373,-0.04370143295073786
380047,0.1065,0.1579,0.051400000000000015,"ST CHARLES MEDICAL CENTER - BEND",BEND,OR,97701,0.15789473684210525,0.15258855585831063,-0.005306180983794623
340051,0.1066,0.0833,-0.0233,"WATAUGA MEDICAL CENTER",BOONE,NC,28607,0.23507462686567165,0.23943661971830985,0.004361992852638191
100122,0.1070,0.0852,-0.0218,"NORTH OKALOOSA MEDICAL CENTER",CRESTVIEW,FL,32539,0.28888888888888886,0.24661246612466126,-0.042276422764227606
170175,0.1070,0.12,0.012999999999999998,"WESTERN PLAINS MEDICAL COMPLEX","DODGE CITY",KS,67801,0.16964285714285715,0.1452991452991453,-0.02434371184371184
240076,0.1071,0.0801,-0.026999999999999996,"BUFFALO HOSPITAL",BUFFALO,MN,55313,0.27472527472527475,0.20238095238095238,-0.07234432234432236
290046,0.1074,0.1964,0.089,"SPRING VALLEY HOSPITAL MEDICAL CENTER","LAS VEGAS",NV,89118,0.3229166666666667,0.21393034825870647,-0.10898631840796022
310038,0.1075,0.1393,0.03180000000000001,"ROBERT WOOD JOHNSON UNIVERSITY HOSPITAL","NEW BRUNSWICK",NJ,08901,0.2637920101458465,0.21930400525279053,-0.04448800489305599
340123,0.1077,0.1255,0.017799999999999996,"RANDOLPH HOSPITAL",ASHEBORO,NC,27204,0.2542372881355932,0.17695473251028807,-0.07728255562530514
240132,0.1081,0.0806,-0.027499999999999997,"UNITY HOSPITAL",FRIDLEY,MN,55432,0.2534562211981567,0.16666666666666666,-0.08678955453149004
100107,0.1082,0.12,0.011799999999999991,"LEHIGH REGIONAL MEDICAL CENTER","LEHIGH ACRES",FL,33936,0.26666666666666666,0.27631578947368424,0.009649122807017574
100107,0.1082,0.1145,0.0063,"LEHIGH REGIONAL MEDICAL CENTER","LEHIGH ACRES",FL,33936,0.26666666666666666,0.27631578947368424,0.009649122807017574
340060,0.1083,0.12,0.011700000000000002,"MOREHEAD MEMORIAL HOSPITAL",EDEN,NC,27288,0.27044025157232704,0.2422145328719723,-0.02822571870035473
190177,0.1090,0.2041,0.0951,"LAKEVIEW REGIONAL MEDICAL CENTER",COVINGTON,LA,70433,0.2777777777777778,0.22580645161290322,-0.05197132616487457
140012,0.1091,0.12,0.010899999999999993,"KATHERINE SHAW BETHEA HOSPITAL",DIXON,IL,61021,0.3,0.22727272727272727,-0.07272727272727272
490092,0.1093,0.0968,-0.012499999999999997,"SOUTHAMPTON MEMORIAL HOSPITAL",FRANKLIN,VA,23851,0.3068181818181818,0.27631578947368424,-0.030502392344497586
220001,0.1094,0.1754,0.066,"HEALTHALLIANCE HOSPITALS, INC",LEOMINSTER,MA,01453,0.275,0.20717131474103587,-0.06782868525896416
100211,0.1095,0.0647,-0.044800000000000006,"PASCO REGIONAL MEDICAL CENTER","DADE CITY",FL,33525,0.2645161290322581,0.17391304347826086,-0.09060308555399721
340166,0.1095,0.12,0.010499999999999995,"CAROLINAS MED CTR-UNIVERSITY",CHARLOTTE,NC,28262,0.19653179190751446,0.17142857142857143,-0.025103220478943034
440058,0.1095,0.12,0.010499999999999995,"SOUTHERN TENNESSEE MEDICAL CENTER",WINCHESTER,TN,37398,0.30976430976430974,0.25925925925925924,-0.0505050505050505
150169,0.1096,0.1356,0.025999999999999995,"COMMUNITY HOSPITAL NORTH",INDIANAPOLIS,IN,46256,0.23236514522821577,0.2,-0.032365145228215764
220073,0.1096,0.1153,0.005699999999999997,"MORTON HOSPITAL",TAUNTON,MA,02780,0.26877470355731226,0.23636363636363636,-0.032411067193675897
240115,0.1097,0.118,0.008299999999999988,"MERCY HOSPITAL","COON RAPIDS",MN,55433,0.2233502538071066,0.1320754716981132,-0.0912747821089934
330226,0.1099,0.1246,0.014700000000000005,"UNITY HOSPITAL OF ROCHESTER",ROCHESTER,NY,14626,0.23017902813299232,0.22297297297297297,-0.007206055160019348
240214,0.1100,0.1261,0.01609999999999999,"MAPLE GROVE HOSPITAL","MAPLE GROVE",MN,55369,0,0.23863636363636365,0.23863636363636365
450222,0.1102,0.1067,-0.003500000000000003,"CONROE REGIONAL MEDICAL CENTER",CONROE,TX,77304,0.27206946454413894,0.2652388797364086,-0.0068305848077303555
220175,0.1103,0.148,0.0377,"METROWEST MEDICAL CENTER",FRAMINGHAM,MA,01701,0.27,0.20920502092050208,-0.060794979079497935
330259,0.1103,0.1249,0.014600000000000002,"MERCY MEDICAL CENTER","ROCKVILLE CENTRE",NY,11570,0.3143712574850299,0.23333333333333334,-0.08103792415169658
450462,0.1104,0.1023,-0.008099999999999996,"TEXAS HEALTH PRESBYTERIAN HOSPITAL  DALLAS",DALLAS,TX,75231,0.2242562929061785,0.19189511323003575,-0.03236117967614274
250096,0.1105,0.0427,-0.0678,"CROSSGATES RIVER OAKS HOSPITAL",BRANDON,MS,39042,0.26359832635983266,0.23780487804878048,-0.02579344831105218
260138,0.1107,0.1209,0.010199999999999987,"ST LUKES HOSPITAL OF KANSAS CITY","KANSAS CITY",MO,64111,0.24780058651026393,0.21557562076749437,-0.03222496574276956
150112,0.1112,0.1414,0.030200000000000005,"COLUMBUS REGIONAL HOSPITAL",COLUMBUS,IN,47201,0.2152230971128609,0.19922630560928434,-0.015996791503576552
230244,0.1114,0.1757,0.0643,"GARDEN CITY HOSPITAL","GARDEN CITY",MI,48135,0.2802275960170697,0.24329501915708812,-0.03693257685998158
450749,0.1117,0.0353,-0.0764,"EAST TEXAS MEDICAL CENTER TRINITY",TRINITY,TX,75862,0.3559322033898305,0.2222222222222222,-0.1337099811676083
140223,0.1123,0.0944,-0.0179,"ADVOCATE LUTHERAN GENERAL HOSPITAL","PARK RIDGE",IL,60068,0.2644927536231884,0.19860017497812774,-0.06589257864506068
360107,0.1126,0.12,0.00739999999999999,"BELLEVUE HOSPITAL",BELLEVUE,OH,44811,0.25882352941176473,0.23076923076923078,-0.028054298642533948
460014,0.1129,0.1027,-0.0102,"MOUNTAIN WEST MEDICAL CENTER",TOOELE,UT,84074,0.19402985074626866,0.2549019607843137,0.060872110038045046
220086,0.1133,0.1413,0.02800000000000001,"BETH ISRAEL DEACONESS MEDICAL CENTER",BOSTON,MA,02215,0.29532403609515995,0.2334593572778828,-0.06186467881727714
450587,0.1133,0.12,0.006699999999999998,"BROWNWOOD REGIONAL MEDICAL CENTER",BROWNWOOD,TX,76801,0.22268907563025211,0.23741007194244604,0.014720996312193924
330044,0.1139,0.1997,0.08579999999999999,"FAXTON-ST LUKE'S HEALTHCARE",UTICA,NY,13503,0.2777777777777778,0.26653696498054474,-0.011240812797233046
490044,0.1142,0.1217,0.007500000000000007,"SENTARA OBICI HOSPITAL",SUFFOLK,VA,23439,0.23509369676320271,0.2175379426644182,-0.017555754098784515
270012,0.1145,0.12,0.005499999999999991,"BENEFIS HOSPITALS INC","GREAT FALLS",MT,59405,0.18716577540106952,0.14803625377643503,-0.03912952162463448
440184,0.1145,0.1076,-0.006900000000000003,"FRANKLIN WOODS COMMUNITY HOSPITAL","JOHNSON CITY",TN,37601,0.2608695652173913,0.1956521739130435,-0.06521739130434781
450187,0.1145,0.12,0.005499999999999991,"SCOTT & WHITE HOSPITAL BRENHAM",BRENHAM,TX,77833,0.18181818181818182,0.17886178861788618,-0.002956393200295643
370065,0.1146,0.1,-0.014599999999999988,"CRAIG GENERAL HOSPITAL",VINITA,OK,74301,0.296875,0.3,0.003124999999999989
360141,0.1149,0.1633,0.0484,"NORTHSIDE MEDICAL CENTER",YOUNGSTOWN,OH,44501,0.2677595628415301,0.21621621621621623,-0.051543346625313846
360077,0.1151,0.1397,0.024599999999999997,"FAIRVIEW HOSPITAL",CLEVELAND,OH,44111,0.2595190380761523,0.23318385650224216,-0.026335181573910127
490097,0.1151,0.0561,-0.059,"SOUTHERN VIRGINIA REGIONAL MEDICAL CENTER",EMPORIA,VA,23847,0.28888888888888886,0.25153374233128833,-0.03735514655760053
330276,0.1152,0.164,0.04880000000000001,"NATHAN LITTAUER HOSPITAL",GLOVERSVILLE,NY,12078,0.18840579710144928,0.25,0.06159420289855072
110198,0.1154,0.1398,0.024400000000000005,"NORTH FULTON REGIONAL HOSPITAL",ROSWELL,GA,30076,0.20512820512820512,0.2567049808429119,0.05157677571470676
110198,0.1154,0.0564,-0.059000000000000004,"NORTH FULTON REGIONAL HOSPITAL",ROSWELL,GA,30076,0.20512820512820512,0.2567049808429119,0.05157677571470676
150021,0.1155,0.1401,0.024599999999999997,"PARKVIEW REGIONAL MEDICAL CENTER","FORT WAYNE",IN,46805,0.2,0.19646799116997793,-0.003532008830022082
360156,0.1156,0.12,0.004400000000000001,"MEMORIAL HOSPITAL",FREMONT,OH,43420,0.21138211382113822,0.1262135922330097,-0.08516852158812852
150109,0.1157,0.1271,0.011399999999999993,"FRANCISCAN ST ELIZABETH HEALTH - LAFAYETTE EAST",LAFAYETTE,IN,47905,0.21787709497206703,0.18652849740932642,-0.03134859756274061
510006,0.1160,0.2029,0.08689999999999999,"UNITED HOSPITAL CENTER",BRIDGEPORT,WV,26330,0.27364185110663986,0.21113243761996162,-0.06250941348667824
490067,0.1161,0.0944,-0.021699999999999997,"SOUTHSIDE REGIONAL MEDICAL CENTER",PETERSBURG,VA,23805,0.26810477657935283,0.25218476903870163,-0.015920007540651204
100045,0.1167,0.098,-0.018699999999999994,"FLORIDA HOSPITAL DELAND",DELAND,FL,32720,0.24343675417661098,0.2267818574514039,-0.01665489672520709
380002,0.1170,0.1982,0.08119999999999998,"THREE RIVERS COMMUNITY HOSPITAL","GRANTS PASS",OR,97527,0.17204301075268819,0.23580786026200873,0.06376484950932054
450135,0.1170,0.1201,0.0030999999999999917,"TEXAS HEALTH HARRIS METHODIST FORT WORTH","FORT WORTH",TX,76104,0.22108208955223882,0.2110286320254507,-0.010053457526788129
470011,0.1172,0.142,0.02479999999999999,"BRATTLEBORO MEMORIAL HOSPITAL",BRATTLEBORO,VT,05301,0.1791044776119403,0.14457831325301204,-0.034526164358928246
230072,0.1175,0.1203,0.002800000000000011,"HOLLAND COMMUNITY HOSPITAL",HOLLAND,MI,49423,0.22404371584699453,0.15706806282722513,-0.0669756530197694
340003,0.1178,0.1179,0.00010000000000000286,"NORTHERN HOSPITAL OF SURRY COUNTY","MOUNT AIRY",NC,27030,0.21875,0.20134228187919462,-0.017407718120805382
230015,0.1182,0.12,0.001799999999999996,"THREE RIVERS HEALTH","THREE RIVERS",MI,49093,0.21153846153846154,0.23711340206185566,0.025574940523394124
340001,0.1182,0.1288,0.010599999999999998,"CAROLINAS MEDICAL CENTER-NORTHEAST",CONCORD,NC,28025,0.2376068376068376,0.22200956937799043,-0.015597268228847161
420065,0.1182,0.1456,0.027400000000000008,"BON SECOURS-ST FRANCIS XAVIER HOSPITAL",CHARLESTON,SC,29414,0.22631578947368422,0.2033195020746888,-0.022996287398995424
230005,0.1184,0.1177,-0.0007000000000000062,"EMMA L BIXBY MEDICAL CENTER",ADRIAN,MI,49221,0.14418604651162792,0.19047619047619047,0.04629014396456255
370036,0.1189,0.1118,-0.007100000000000009,"HARMON MEMORIAL HOSPITAL",HOLLIS,OK,73550,0.4576271186440678,0.20689655172413793,-0.2507305669199299
330223,0.1190,0.1009,-0.01809999999999999,"MASSENA MEMORIAL HOSPITAL",MASSENA,NY,13662,0.2146118721461187,0.24050632911392406,0.025894456967805346
510058,0.1191,0.1554,0.03630000000000001,"CAMDEN CLARK MEDICAL CENTER",PARKERSBURG,WV,26101,0.305993690851735,0.24484536082474226,-0.06114833002699274
230075,0.1193,0.1839,0.0646,"BRONSON BATTLE CREEK HOSPITAL","BATTLE CREEK",MI,49017,0.2492063492063492,0.2066115702479339,-0.04259477895841532
230151,0.1194,0.1514,0.032,"BOTSFORD HOSPITAL","FARMINGTON HILLS",MI,48336,0.2896551724137931,0.2647058823529412,-0.024949290060851947
450688,0.1198,0.1473,0.027499999999999983,"DALLAS REGIONAL MEDICAL CENTER",MESQUITE,TX,75149,0.2776203966005666,0.19083969465648856,-0.08678070194407803
340014,0.1199,0.1184,-0.0015000000000000013,"FORSYTH MEMORIAL HOSPITAL",WINSTON-SALEM,NC,27103,0.23467432950191572,0.21377183967112023,-0.020902489830795484
490045,0.1199,0.0966,-0.0233,"PRINCE WILLIAM HOSPITAL",MANASSAS,VA,20110,0.21235521235521235,0.20622568093385213,-0.006129531421360218
100130,0.1200,0.12,0,"LAKESIDE MEDICAL CENTER","BELLE GLADE",FL,33430,0.234375,0.38095238095238093,0.14657738095238093
100142,0.1200,0.12,0,"JACKSON HOSPITAL",MARIANNA,FL,32446,0.23529411764705882,0.21025641025641026,-0.02503770739064856
100175,0.1200,0.12,0,"DESOTO MEMORIAL HOSPITAL",ARCADIA,FL,34265,0.22962962962962963,0.24060150375939848,0.010971874129768855
110018,0.1200,0.12,0,"NEWTON MEDICAL CENTER",COVINGTON,GA,30014,0.21372031662269128,0.20615384615384616,-0.007566470468845121
110045,0.1200,0.12,0,"BARROW REGIONAL MEDICAL CENTER",WINDER,GA,30680,0.22818791946308725,0.13675213675213677,-0.09143578271095049
110046,0.1200,0.12,0,"CLEARVIEW  REGIONAL MEDICAL CENTER",MONROE,GA,30655,0.3157894736842105,0.15294117647058825,-0.16284829721362226
110089,0.1200,0.12,0,"COFFEE REGIONAL MEDICAL CENTER",DOUGLAS,GA,31533,0.30685920577617326,0.28095238095238095,-0.025906824823792307
110121,0.1200,0.12,0,"GRADY GENERAL HOSPITAL",CAIRO,GA,39828,0.19047619047619047,0.14130434782608695,-0.04917184265010352
140137,0.1200,0.12,0,"GREENVILLE REGIONAL HOSPITAL",GREENVILLE,IL,62246,0.2537313432835821,0.16470588235294117,-0.08902546093064093
140161,0.1200,0.0521,-0.06789999999999999,"SAINT JAMES HOSPITAL",PONTIAC,IL,61764,0.1702127659574468,0.15841584158415842,-0.011796924373288387
150045,0.1200,0.1011,-0.0189,"DEKALB HEALTH",AUBURN,IN,46706,0.10569105691056911,0.17045454545454544,0.06476348854397633
150061,0.1200,0.12,0,"DAVIESS COMMUNITY HOSPITAL",WASHINGTON,IN,47501,0.2748091603053435,0.25301204819277107,-0.02179711211257246
150064,0.1200,0.12,0,"FAYETTE REGIONAL HEALTH SYSTEM",CONNERSVILLE,IN,47331,0.18791946308724833,0.13131313131313133,-0.056606331774117
150091,0.1200,0.12,0,"PARKVIEW HUNTINGTON HOSPITAL",HUNTINGTON,IN,46750,0.1834862385321101,0.21,0.02651376146788989
150104,0.1200,0.12,0,"WITHAM HEALTH SERVICES",LEBANON,IN,46052,0.19631901840490798,0.2014388489208633,0.005119830515955326
180019,0.1200,0.12,0,"MEADOWVIEW REGIONAL MEDICAL CENTER",MAYSVILLE,KY,41056,0.2986111111111111,0.20512820512820512,-0.09348290598290598
180024,0.1200,0.12,0,"SPRING VIEW HOSPITAL",LEBANON,KY,40033,0.35514018691588783,0.21568627450980393,-0.1394539124060839
180078,0.1200,0.12,0,"PAUL B HALL REGIONAL MEDICAL CENTER",PAINTSVILLE,KY,41240,0.31724137931034485,0.3333333333333333,0.016091954022988464
180101,0.1200,0.12,0,"GEORGETOWN COMMUNITY HOSPITAL",GEORGETOWN,KY,40324,0.22950819672131148,0.2222222222222222,-0.0072859744990892705
180128,0.1200,0.12,0,"THREE RIVERS MEDICAL CENTER",LOUISA,KY,41230,0.3136094674556213,0.28187919463087246,-0.03173027282474883
190014,0.1200,0.12,0,"TECHE REGIONAL MEDICAL CENTER","MORGAN CITY",LA,70381,0.27586206896551724,0.23076923076923078,-0.045092838196286456
190025,0.1200,0.12,0,"SAVOY MEDICAL CENTER",MAMOU,LA,70554,0.3107344632768362,0.1865671641791045,-0.12416729909773169
190044,0.1200,0.2249,0.1049,"AMERICAN LEGION HOSPITAL",CROWLEY,LA,70526,0.22,0.23118279569892472,0.011182795698924719
190050,0.1200,0.12,0,"BEAUREGARD MEMORIAL HOSPITAL",DERIDDER,LA,70634,0.30666666666666664,0.23030303030303031,-0.07636363636363633
190053,0.1200,0.12,0,"JENNINGS AMERICAN LEGION HOSPITAL",JENNINGS,LA,70546,0.3497942386831276,0.21428571428571427,-0.13550852439741332
190054,0.1200,0.12,0,"IBERIA GENERAL HOSPITAL AND MEDICAL CENTER","NEW IBERIA",LA,70562,0.2367601246105919,0.22695035460992907,-0.009809770000662826
190081,0.1200,0.12,0,"WEST CARROLL MEMORIAL HOSPITAL","OAK GROVE",LA,71263,0.27419354838709675,0.21176470588235294,-0.062428842504743814
190118,0.1200,0.12,0,"DESOTO REGIONAL HEALTH SYSTEM",MANSFIELD,LA,71052,0.2815533980582524,0.24166666666666667,-0.039886731391585745
190190,0.1200,0.12,0,"CALDWELL MEMORIAL HOSPITAL",COLUMBIA,LA,71418,0.2789115646258503,0.16176470588235295,-0.11714685874349737
190218,0.1200,0.12,0,"SABINE MEDICAL CENTER",MANY,LA,71449,0.25,0.26666666666666666,0.016666666666666663
200050,0.1200,0.0405,-0.07949999999999999,"MAINE COAST MEMORIAL HOSPITAL",ELLSWORTH,ME,04605,0.2857142857142857,0.16666666666666666,-0.11904761904761904
200063,0.1200,0.12,0,"PENOBSCOT BAY MEDICAL CENTER",ROCKPORT,ME,04856,0.3074074074074074,0.18468468468468469,-0.12272272272272272
220016,0.1200,0.12,0,"BAYSTATE FRANKLIN MEDICAL CENTER",GREENFIELD,MA,01301,0.20168067226890757,0.20394736842105263,0.002266696152145059
230133,0.1200,0.12,0,"OTSEGO MEMORIAL HOSPITAL",GAYLORD,MI,49735,0.19696969696969696,0.15126050420168066,-0.0457091927680163
230217,0.1200,0.12,0,"OAKLAWN HOSPITAL",MARSHALL,MI,49068,0.21379310344827587,0.152317880794702,-0.061475222653573885
240040,0.1200,0.12,0,"UNIVERSITY MEDICAL CENTER-MESABI/ MESABA CLINICS",HIBBING,MN,55746,0.23076923076923078,0.21739130434782608,-0.013377926421404701
240069,0.1200,0.0967,-0.0233,"OWATONNA HOSPITAL",OWATONNA,MN,55060,0.19047619047619047,0.23636363636363636,0.045887445887445893
240088,0.1200,0.12,0,"RICE MEMORIAL HOSPITAL",WILLMAR,MN,56201,0.15942028985507245,0.2,0.04057971014492756
250006,0.1200,0.12,0,"BAPTIST MEMORIAL HOSPITAL UNION COUNTY","NEW ALBANY",MS,38652,0.23121387283236994,0.19111111111111112,-0.04010276172125882
250025,0.1200,0.12,0,"GILMORE MEMORIAL HOSPITAL",AMORY,MS,38821,0.26373626373626374,0.20863309352517986,-0.05510317021108388
250036,0.1200,0.12,0,"GEORGE COUNTY HOSPITAL",LUCEDALE,MS,39452,0.22556390977443608,0.18705035971223022,-0.03851355006220586
250038,0.1200,0.12,0,"MADISON RIVER OAKS MEDICAL CENTER",CANTON,MS,39046,0.35514018691588783,0.26881720430107525,-0.08632298261481258
250043,0.1200,0.12,0,"NESHOBA COUNTY GENERAL HOSPITAL",PHILADELPHIA,MS,39350,0.27586206896551724,0.20320855614973263,-0.07265351281578461
250050,0.1200,0.12,0,"OCH REGIONAL MEDICAL CENTER",STARKVILLE,MS,39759,0.16521739130434782,0.24324324324324326,0.07802585193889544
250057,0.1200,0.12,0,"KING'S DAUGHTERS MEDICAL CENTER-BROOKHAVEN",BROOKHAVEN,MS,39601,0.27102803738317754,0.14736842105263157,-0.12365961633054598
250067,0.1200,0.12,0,"CLAY COUNTY MEDICAL CENTER","WEST POINT",MS,39773,0.25,0.18382352941176472,-0.06617647058823528
250077,0.1200,0.12,0,"WAYNE GENERAL HOSPITAL",WAYNESBORO,MS,39367,0.24607329842931938,0.23308270676691728,-0.012990591662402101
250084,0.1200,0.12,0,"NATCHEZ REGIONAL MEDICAL CENTER",NATCHEZ,MS,39120,0.22613065326633167,0.189873417721519,-0.036257235544812666
250093,0.1200,0.12,0,"BOLIVAR MEDICAL CENTER",CLEVELAND,MS,38732,0.336,0.25,-0.08600000000000002
250095,0.1200,0.12,0,"SOUTH SUNFLOWER COUNTY HOSPITAL",INDIANOLA,MS,38751,0.27586206896551724,0.26804123711340205,-0.007820831852115184
250117,0.1200,0.12,0,"HIGHLAND COMMUNITY  HOSPITAL",PICAYUNE,MS,39466,0.26811594202898553,0.24210526315789474,-0.026010678871090792
250124,0.1200,0.12,0,"MAGEE GENERAL HOSPITAL",MAGEE,MS,39111,0.2714285714285714,0.17391304347826086,-0.09751552795031054
250128,0.1200,0.12,0,"TRI LAKES MEDICAL CENTER",BATESVILLE,MS,38606,0.25301204819277107,0.21153846153846154,-0.04147358665430953
250162,0.1200,0.12,0,"HANCOCK MEDICAL CENTER","BAY SAINT LOUIS",MS,39521,0.3277310924369748,0.24752475247524752,-0.08020633996172727
260015,0.1200,0.12,0,"TWIN RIVERS REGIONAL MEDICAL CENTER",KENNETT,MO,63857,0.26666666666666666,0.21428571428571427,-0.05238095238095239
260024,0.1200,0.12,0,"TEXAS COUNTY MEMORIAL HOSPITAL",HOUSTON,MO,65483,0.26881720430107525,0.21176470588235294,-0.057052498418722314
260070,0.1200,0.12,0,"PEMISCOT MEMORIAL HOSPITAL",HAYTI,MO,63851,0.22289156626506024,0.32142857142857145,0.09853700516351122
320022,0.1200,0.12,0,"PLAINS REGIONAL MEDICAL CENTER  CLOVIS",CLOVIS,NM,88101,0.2328767123287671,0.24509803921568626,0.012221326886919154
320038,0.1200,0.12,0,"REHOBOTH MCKINLEY CHRISTIAN HEALTH CARE SERVICES",GALLUP,NM,87301,0.21978021978021978,0.17582417582417584,-0.04395604395604394
320086,0.1200,0.12,0,"LOVELACE REGIONAL HOSPITAL - ROSWELL",ROSWELL,NM,88201,0.20155038759689922,0.23076923076923078,0.02921884317233156
330084,0.1200,0.12,0,"ALICE HYDE MEDICAL CENTER",MALONE,NY,12953,0.31868131868131866,0.2616279069767442,-0.05705341170457445
330088,0.1200,0.12,0,"EASTERN LONG ISLAND HOSPITAL",GREENPORT,NY,11944,0.20512820512820512,0.16666666666666666,-0.038461538461538464
330096,0.1200,0.12,0,"JONES MEMORIAL HOSPITAL",WELLSVILLE,NY,14895,0.22151898734177214,0.18181818181818182,-0.039700805523590316
330197,0.1200,0.12,0,"CANTON-POTSDAM HOSPITAL",POTSDAM,NY,13676,0.21578947368421053,0.2217573221757322,0.005967848491521682
330229,0.1200,0.12,0,"BROOKS MEMORIAL HOSPITAL",DUNKIRK,NY,14048,0.2391304347826087,0.2905982905982906,0.05146785581568192
330239,0.1200,0.12,0,"WOMAN'S CHRISTIAN ASSOCIATION",JAMESTOWN,NY,14701,0.209366391184573,0.18413597733711048,-0.025230413847462524
330265,0.1200,0.3694,0.2494,"CLIFTON SPRINGS HOSPITAL AND CLINIC","CLIFTON SPRINGS",NY,14432,0.2644628099173554,0.23809523809523808,-0.026367571822117297
340008,0.1200,0.12,0,"SCOTLAND MEMORIAL HOSPITAL",LAURINBURG,NC,28352,0.275,0.20127118644067796,-0.07372881355932207
340020,0.1200,0.12,0,"CENTRAL CAROLINA HOSPITAL",SANFORD,NC,27330,0.2708333333333333,0.28291316526610644,0.012079831932773122
340042,0.1200,0.2056,0.08560000000000001,"ONSLOW MEMORIAL HOSPITAL",JACKSONVILLE,NC,28540,0.2109375,0.2890855457227139,0.07814804572271389
340064,0.1200,0.12,0,"WILKES REGIONAL MEDICAL CENTER","NORTH WILKESBORO",NC,28659,0.21693121693121692,0.2967032967032967,0.07977207977207978
340085,0.1200,0.12,0,"THOMASVILLE MEDICAL CENTER",THOMASVILLE,NC,27360,0.2773109243697479,0.16363636363636364,-0.11367456073338428
340119,0.1200,0.1066,-0.013399999999999995,"STANLY REGIONAL MEDICAL CENTER",ALBEMARLE,NC,28001,0.1977401129943503,0.1867612293144208,-0.010978883679929496
340119,0.1200,0.12,0,"STANLY REGIONAL MEDICAL CENTER",ALBEMARLE,NC,28001,0.1977401129943503,0.1867612293144208,-0.010978883679929496
340120,0.1200,0.12,0,"VIDANT DUPLIN  HOSPITAL",KENANSVILLE,NC,28349,0.2222222222222222,0.23030303030303031,0.008080808080808105
340127,0.1200,0.12,0,"GRANVILLE MEDICAL CENTER",OXFORD,NC,27565,0.16393442622950818,0.21678321678321677,0.052848790553708586
340141,0.1200,0.12,0,"NEW HANOVER REGIONAL MEDICAL CENTER",WILMINGTON,NC,28402,0.21490467937608318,0.19886069394096323,-0.01604398543511995
340145,0.1200,0.12,0,"CAROLINAS MEDICAL CENTER-LINCOLN",LINCOLNTON,NC,28092,0.2597402597402597,0.2150170648464164,-0.04472319489384333
340151,0.1200,0.12,0,"HALIFAX REGIONAL MEDICAL CENTER INC","ROANOKE RAPIDS",NC,27870,0.2713004484304933,0.2416452442159383,-0.029655204214554975
360170,0.1200,0.12,0,"BERGER HOSPITAL",CIRCLEVILLE,OH,43113,0.2971014492753623,0.24369747899159663,-0.05340397028376567
360175,0.1200,0.1424,0.022400000000000003,"CLINTON MEMORIAL HOSPITAL",WILMINGTON,OH,45177,0.27335640138408307,0.23333333333333334,-0.04002306805074973
370029,0.1200,0.12,0,"INTEGRIS CLINTON REGIONAL HOSPITAL",CLINTON,OK,73601,0.2857142857142857,0.22727272727272727,-0.05844155844155843
370039,0.1200,0.12,0,"HILLCREST HOSPITAL CLAREMORE",CLAREMORE,OK,74017,0.18803418803418803,0.20134228187919462,0.013308093845006586
370040,0.1200,0.12,0,"EASTERN OKLAHOMA MEDICAL CENTER",POTEAU,OK,74953,0.26851851851851855,0.25287356321839083,-0.015644955300127716
370183,0.1200,0.1095,-0.010499999999999995,"HILLCREST HOSPITAL HENRYETTA",HENRYETTA,OK,74437,0.17142857142857143,0.275,0.10357142857142859
380022,0.1200,0.12,0,"SAMARITAN ALBANY GENERAL HOSPITAL",ALBANY,OR,97321,0.1485148514851485,0.16806722689075632,0.019552375405607808
380040,0.1200,0.12,0,"ST CHARLES MEDICAL CENTER - REDMOND",REDMOND,OR,97756,0.16666666666666666,0.1780821917808219,0.01141552511415525
390118,0.1200,0.12,0,"BRADFORD REGIONAL MEDICAL CENTER",BRADFORD,PA,16701,0.20125786163522014,0.1523809523809524,-0.04887690925426774
420005,0.1200,0.12,0,"MCLEOD MEDICAL CENTER - DILLON",DILLON,SC,29536,0.192090395480226,0.15217391304347827,-0.039916482436747724
420030,0.1200,0.12,0,"COLLETON MEDICAL CENTER",WALTERBORO,SC,29488,0.3038461538461538,0.28771929824561404,-0.01612685560053978
420038,0.1200,0.1304,0.010399999999999993,"LAURENS COUNTY HEALTHCARE SYSTEM",CLINTON,SC,29325,0.2191780821917808,0.18452380952380953,-0.034654272667971275
420043,0.1200,0.12,0,"UPSTATE CAROLINA MEDICAL CENTER",GAFFNEY,SC,29340,0.265625,0.15966386554621848,-0.10596113445378152
420055,0.1200,0.12,0,"MARION REGIONAL HOSPITAL",MULLINS,SC,29574,0.26666666666666666,0.25870646766169153,-0.007960199004975133
420067,0.1200,0.0944,-0.025599999999999998,"BEAUFORT COUNTY MEMORIAL HOSPITAL",BEAUFORT,SC,29902,0.32320441988950277,0.19327731092436976,-0.12992710896513301
420069,0.1200,0.12,0,"CLARENDON MEMORIAL HOSPITAL",MANNING,SC,29102,0.272108843537415,0.20175438596491227,-0.07035445757250272
440068,0.1200,0.12,0,"ATHENS REGIONAL MEDICAL CENTER",ATHENS,TN,37371,0.2235294117647059,0.216,-0.007529411764705896
440072,0.1200,0.12,0,"DYERSBURG REGIONAL MEDICAL CENTER",DYERSBURG,TN,38024,0.2732142857142857,0.2724014336917563,-0.0008128520225293978
440081,0.1200,0.12,0,"LECONTE MEDICAL CENTER",SEVIERVILLE,TN,37862,0.16463414634146342,0.23943661971830985,0.07480247337684642
440083,0.1200,0.12,0,"JAMESTOWN REGIONAL MEDICAL CENTER",JAMESTOWN,TN,38556,0.3417085427135678,0.2248995983935743,-0.11680894431999353
440153,0.1200,0.12,0,"TENNOVA HEALTHCARE-NEWPORT MEDICAL CENTER",NEWPORT,TN,37821,0.23404255319148937,0.25,0.015957446808510634
440182,0.1200,0.12,0,"MCKENZIE REGIONAL HOSPITAL","MC KENZIE",TN,38201,0.27450980392156865,0.22807017543859648,-0.04643962848297217
440227,0.1200,0.12,0,"STONECREST MEDICAL CENTER",SMYRNA,TN,37167,0.2672413793103448,0.25,-0.017241379310344807
450055,0.1200,0.12,0,"ROLLING PLAINS MEMORIAL HOSPITAL",SWEETWATER,TX,79556,0.25,0.3238095238095238,0.07380952380952382
450092,0.1200,0.12,0,"FORT DUNCAN MEDICAL CENTER","EAGLE PASS",TX,78852,0.24107142857142858,0.2583732057416268,0.017301777170198235
450178,0.1200,0.12,0,"PECOS COUNTY MEMORIAL HOSPITAL","FORT STOCKTON",TX,79735,0.19791666666666666,0.27710843373493976,0.0791917670682731
450194,0.1200,0.12,0,"EAST TEXAS MEDICAL CENTER JACKSONVILLE",JACKSONVILLE,TX,75766,0.30939226519337015,0.2376237623762376,-0.07176850281713254
450236,0.1200,0.12,0,"HOPKINS COUNTY MEMORIAL HOSPITAL","SULPHUR SPRINGS",TX,75482,0.18064516129032257,0.19021739130434784,0.009572230014025268
450292,0.1200,0.037,-0.08299999999999999,"TEXAS HEALTH PRESBYTERIAN HOSPITAL KAUFMAN",KAUFMAN,TX,75142,0.21030042918454936,0.16455696202531644,-0.045743467159232915
450399,0.1200,0.12,0,"BROWNFIELD REGIONAL MEDICAL CENTER",BROWNFIELD,TX,79316,0.21052631578947367,0.3181818181818182,0.1076555023923445
450465,0.1200,0.12,0,"MATAGORDA REGIONAL MEDICAL CENTER","BAY CITY",TX,77414,0.22142857142857142,0.23648648648648649,0.015057915057915067
450475,0.1200,0.12,0,"ETMC HENDERSON",HENDERSON,TX,75652,0.35911602209944754,0.24761904761904763,-0.11149697448039991
450653,0.1200,0.1118,-0.008199999999999999,"SCENIC MOUNTAIN MEDICAL CENTER","BIG SPRING",TX,79720,0.2709677419354839,0.2898550724637681,0.01888733052828423
450654,0.1200,0.12,0,"STARR COUNTY MEMORIAL HOSPITAL","RIO GRANDE CITY",TX,78582,0.2897196261682243,0.3888888888888889,0.09916926272066462
450840,0.1200,0.0691,-0.0509,"TEXAS HEALTH PRESBYTERIAN HOSPITAL ALLEN",ALLEN,TX,75013,0.3119266055045872,0.18181818181818182,-0.13010842368640535
450848,0.1200,0.12,0,"MEMORIAL HERMANN SUGAR LAND HOSPITAL","SUGAR LAND",TX,77479,0.3,0.2231404958677686,-0.07685950413223139
470001,0.1200,0.081,-0.03899999999999999,"CENTRAL VERMONT MEDICAL CENTER",BARRE,VT,05641,0.1694915254237288,0.12648221343873517,-0.04300931198499364
490001,0.1200,0.12,0,"NORTON COMMUNITY HOSPITAL",NORTON,VA,24273,0.3153153153153153,0.2558139534883721,-0.05950136182694321
490037,0.1200,0.12,0,"RIVERSIDE SHORE MEMORIAL HOSPITAL",NASSAWADOX,VA,23413,0.2602739726027397,0.23728813559322035,-0.022985837009519366
490060,0.1200,0.12,0,"CLINCH VALLEY MEDICAL CENTER",RICHLANDS,VA,24641,0.375,0.30697674418604654,-0.06802325581395346
490090,0.1200,0.12,0,"SOUTHSIDE COMMUNITY HOSPITAL, INC",FARMVILLE,VA,23901,0.21717171717171718,0.24422442244224424,0.027052705270527055
490115,0.1200,0.12,0,"TWIN COUNTY REGIONAL HOSPITAL",GALAX,VA,24333,0.23461538461538461,0.21818181818181817,-0.016433566433566443
500019,0.1200,0.12,0,"PROVIDENCE CENTRALIA HOSPITAL",CENTRALIA,WA,98531,0.15384615384615385,0.23738872403560832,0.08354257018945446
500031,0.1200,0.12,0,"GRAYS HARBOR COMMUNITY HOSPITAL",ABERDEEN,WA,98520,0.2476894639556377,0.2549019607843137,0.007212496828676002
500033,0.1200,0.12,0,"SAMARITAN HOSPITAL","MOSES LAKE",WA,98837,0.2,0.17708333333333334,-0.02291666666666667
500049,0.1200,0.12,0,"WALLA WALLA GENERAL HOSPITAL","WALLA WALLA",WA,99362,0.14666666666666667,0.29896907216494845,0.15230240549828178
510012,0.1200,0.12,0,"PLEASANT VALLEY HOSPITAL","POINT PLEASANT",WV,25550,0.2983425414364641,0.28859060402684567,-0.009751937409618439
510048,0.1200,0.12,0,"LOGAN REGIONAL MEDICAL CENTER",LOGAN,WV,25601,0.31666666666666665,0.27927927927927926,-0.037387387387387394
510077,0.1200,0.12,0,"WILLIAMSON MEMORIAL HOSPITAL",WILLIAMSON,WV,25661,0.26865671641791045,0.2441860465116279,-0.02447066990628255
510082,0.1200,0.12,0,"SUMMERSVILLE REGIONAL MEDICAL CENTER",SUMMERSVILLE,WV,26651,0.11688311688311688,0.20481927710843373,0.08793616022531685
530008,0.1200,0.12,0,"RIVERTON MEMORIAL HOSPITAL",RIVERTON,WY,82501,0.16666666666666666,0.1941747572815534,0.027508090614886738
670060,0.1200,0.1124,-0.007599999999999996,"TEXAS REGIONAL MEDICAL CENTER AT SUNNYVALE",SUNNYVALE,TX,75182,0.2,0.22519083969465647,0.025190839694656464
100026,0.1201,0.074,-0.0461,"BAY MEDICAL CENTER SACRED HEART HEALTH SYSTEM","PANAMA CITY",FL,32401,0.2142298670836591,0.2182468694096601,0.004017002326000996
330090,0.1203,0.1467,0.026399999999999993,"ARNOT OGDEN MEDICAL CENTER",ELMIRA,NY,14905,0.2584541062801932,0.2037037037037037,-0.054750402576489526
490052,0.1206,0.1274,0.006800000000000014,"RIVERSIDE REGIONAL MEDICAL CENTER","NEWPORT NEWS",VA,23601,0.2347266881028939,0.2384937238493724,0.003767035746478492
370032,0.1210,0.1089,-0.0121,"DEACONESS HOSPITAL","OKLAHOMA CITY",OK,73112,0.2388663967611336,0.17751479289940827,-0.061351603861725335
420019,0.1210,0.0609,-0.060099999999999994,"CHESTER REGIONAL MEDICAL CENTER",CHESTER,SC,29706,0.1888111888111888,0.2376237623762376,0.04881257356504881
140202,0.1213,0.0814,-0.039900000000000005,"ADVOCATE CONDELL MEDICAL CENTER",LIBERTYVILLE,IL,60048,0.26501766784452296,0.20422535211267606,-0.0607923157318469
440176,0.1213,0.1459,0.024599999999999997,"INDIAN PATH MEDICAL CENTER",KINGSPORT,TN,37660,0.2994011976047904,0.2972972972972973,-0.0021039003074930784
420007,0.1217,0.1261,0.004399999999999987,"SPARTANBURG REGIONAL MEDICAL CENTER",SPARTANBURG,SC,29303,0.18864468864468864,0.19441571871768357,0.005771030072994926
360065,0.1218,0.1147,-0.007100000000000009,"FISHER-TITUS HOSPITAL",NORWALK,OH,44857,0.21978021978021978,0.31981981981981983,0.10003960003960005
250040,0.1222,0.121,-0.0012000000000000066,"SINGING RIVER HOSPITAL",PASCAGOULA,MS,39581,0.296875,0.2422907488986784,-0.05458425110132159
460004,0.1223,0.1189,-0.0034000000000000002,"MCKAY DEE HOSPITAL CENTER",OGDEN,UT,84403,0.1371841155234657,0.11437908496732026,-0.022805030556145453
250123,0.1230,0.1193,-0.003699999999999995,"GARDEN PARK MEDICAL CENTER",GULFPORT,MS,39501,0.2874251497005988,0.2558139534883721,-0.03161119621222669
270049,0.1232,0.1384,0.015199999999999991,"ST VINCENT HEALTHCARE",BILLINGS,MT,59107,0.16531165311653118,0.13744075829383887,-0.02787089482269231
450617,0.1232,0.114,-0.0092,"CLEAR LAKE REGIONAL MEDICAL CENTER",WEBSTER,TX,77598,0.2631578947368421,0.21386138613861386,-0.049296508598228234
200008,0.1235,0.0708,-0.0527,"MERCY HOSPITAL",PORTLAND,ME,04101,0.2571428571428571,0.14537444933920704,-0.11176840780365008
270051,0.1236,0.2164,0.09280000000000001,"KALISPELL REGIONAL MEDICAL CENTER",KALISPELL,MT,59901,0.12244897959183673,0.1415929203539823,0.019143940762145567
330264,0.1236,0.1492,0.025599999999999998,"ST LUKE'S CORNWALL HOSPITAL",NEWBURGH,NY,12550,0.27793696275071633,0.2244165170556553,-0.053520445695061036
450424,0.1236,0.1284,0.004799999999999985,"SAN JACINTO METHODIST HOSPITAL",BAYTOWN,TX,77521,0.2080808080808081,0.21852731591448932,0.010446507833681229
110030,0.1237,0.1327,0.009000000000000008,"CARTERSVILLE MEDICAL CENTER",CARTERSVILLE,GA,30120,0.24752475247524752,0.19101123595505617,-0.05651351652019135
410001,0.1241,0.2028,0.0787,"MEMORIAL HOSPITAL OF RHODE ISLAND",PAWTUCKET,RI,02860,0.31511254019292606,0.1935483870967742,-0.12156415309615187
340097,0.1242,0.0925,-0.031700000000000006,"HUGH CHATHAM MEMORIAL HOSPITAL",ELKIN,NC,28621,0.29515418502202645,0.2388663967611336,-0.05628778826089284
450775,0.1244,0.1312,0.006800000000000014,"KINGWOOD MEDICAL CENTER",KINGWOOD,TX,77325,0.2706422018348624,0.24921135646687698,-0.021430845367985396
200009,0.1245,0.1393,0.014800000000000008,"MAINE MEDICAL CENTER",PORTLAND,ME,04102,0.20131086142322097,0.17625570776255708,-0.02505515366066388
340087,0.1245,0.12,-0.004500000000000004,"THE MCDOWELL HOSPITAL",MARION,NC,28752,0.205607476635514,0.1875,-0.018107476635514014
450104,0.1245,0.12,-0.004500000000000004,"GUADALUPE REGIONAL MEDICAL CENTER",SEGUIN,TX,78155,0.24,0.17094017094017094,-0.06905982905982905
520004,0.1245,0.1222,-0.0022999999999999965,"MAYO CLINIC HLTH SYSTEM- FRANCISCAN MED CTR, INC","LA CROSSE",WI,54601,0.14754098360655737,0.1165644171779141,-0.03097656642864327
490002,0.1247,0.0686,-0.05610000000000001,"RUSSELL COUNTY MEDICAL CENTER",LEBANON,VA,24266,0.2980132450331126,0.3333333333333333,0.03532008830022071
200031,0.1248,0.0967,-0.0281,"CARY MEDICAL CENTER",CARIBOU,ME,04736,0.24203821656050956,0.25882352941176473,0.016785312851255174
190111,0.1252,0.1364,0.011199999999999988,"WILLIS KNIGHTON MEDICAL CENTER",SHREVEPORT,LA,71103,0.2222222222222222,0.21008403361344538,-0.012138188608776829
370049,0.1253,0.1003,-0.024999999999999994,"STILLWATER MEDICAL CENTER",STILLWATER,OK,74076,0.20903954802259886,0.20297029702970298,-0.006069250992895875
440125,0.1253,0.1195,-0.0058,"FORT SANDERS REGIONAL MEDICAL CENTER",KNOXVILLE,TN,37916,0.23853211009174313,0.24642857142857144,0.007896461336828309
310070,0.1263,0.1478,0.02149999999999999,"SAINT PETER'S UNIVERSITY HOSPITAL","NEW BRUNSWICK",NJ,08901,0.2787193973634652,0.22982885085574573,-0.04889054650771946
140224,0.1264,0.1405,0.014100000000000001,"SAINT JOSEPH HOSPITAL",CHICAGO,IL,60657,0.24952380952380954,0.26535087719298245,0.015827067669172912
440035,0.1265,0.1667,0.040199999999999986,"GATEWAY MEDICAL CENTER",CLARKSVILLE,TN,37040,0.29457364341085274,0.2388888888888889,-0.055684754521963836
190040,0.1269,0.1816,0.0547,"SLIDELL MEMORIAL HOSPITAL",SLIDELL,LA,70458,0.25063291139240507,0.284789644012945,0.03415673262053992
250048,0.1269,0.1222,-0.00470000000000001,"ST DOMINIC-JACKSON MEMORIAL HOSPITAL",JACKSON,MS,39216,0.2391304347826087,0.2523629489603025,0.013232514177693777
500026,0.1269,0.1703,0.043399999999999994,"SWEDISH EDMONDS HOSPITAL",EDMONDS,WA,98026,0.2579185520361991,0.21543408360128619,-0.042484468434912936
170122,0.1271,0.1186,-0.008499999999999994,"VIA CHRISTI HOSPITALS WICHITA INC",WICHITA,KS,67214,0.21061499578770007,0.17015468607825296,-0.04046030970944711
140174,0.1274,0.1484,0.02099999999999999,"PROVENA MERCY MEDICAL CENTER",AURORA,IL,60506,0.23745819397993312,0.18450184501845018,-0.052956348961482935
240047,0.1275,0.1316,0.0040999999999999925,"ST LUKES HOSPITAL",DULUTH,MN,55805,0.20440251572327045,0.12560386473429952,-0.07879865098897093
330215,0.1277,0.12,-0.007700000000000012,"ROME MEMORIAL HOSPITAL, INC",ROME,NY,13440,0.22186495176848875,0.23985239852398524,0.01798744675549649
360172,0.1279,0.1503,0.022399999999999975,"MERCY REGIONAL MEDICAL CENTER",LORAIN,OH,44053,0.29954614220877457,0.2254335260115607,-0.07411261619721388
520011,0.1279,0.12,-0.007900000000000018,"LAKEVIEW MED CENTER","RICE LAKE",WI,54868,0.14925373134328357,0.17293233082706766,0.02367859948378409
180079,0.1280,0.2091,0.0811,"HARRISON MEMORIAL HOSPITAL",CYNTHIANA,KY,41031,0.32142857142857145,0.19047619047619047,-0.130952380952381
330188,0.1282,0.2174,0.0892,"MOUNT ST MARY'S HOSPITAL AND  HEALTH CENTER",LEWISTON,NY,14092,0.22741433021806853,0.2102803738317757,-0.017133956386292837
100067,0.1288,0.0721,-0.0567,"ST ANTHONY'S HOSPITAL","SAINT PETERSBURG",FL,33705,0.28272251308900526,0.2530755711775044,-0.029646941911500857
330246,0.1290,0.1829,0.0539,"ST CHARLES HOSPITAL","PORT JEFFERSON",NY,11777,0.24705882352941178,0.2601626016260163,0.013103778096604513
160045,0.1292,0.2392,0.10999999999999999,"ST LUKES HOSPITAL","CEDAR RAPIDS",IA,52402,0.17485265225933203,0.18487394957983194,0.010021297320499917
110069,0.1296,0.14,0.01040000000000002,"HOUSTON MEDICAL CENTER","WARNER ROBINS",GA,31093,0.29743589743589743,0.23754152823920266,-0.059894369196694774
320085,0.1298,0.2014,0.0716,"MOUNTAIN VIEW REGIONAL MEDICAL CENTER","LAS CRUCES",NM,88011,0.25,0.22137404580152673,-0.028625954198473275
450280,0.1302,0.0434,-0.08680000000000002,"BAYLOR MEDICAL CENTER AT GARLAND",GARLAND,TX,75042,0.2195945945945946,0.19850187265917604,-0.021092721935418557
460001,0.1302,0.1455,0.01529999999999998,"UTAH VALLEY REGIONAL MEDICAL CENTER",PROVO,UT,84604,0.16339869281045752,0.15625,-0.007148692810457519
100157,0.1307,0.1177,-0.013000000000000012,"LAKELAND REGIONAL MEDICAL CENTER",LAKELAND,FL,33805,0.22987012987012986,0.2609001406469761,0.031030010776846223
390180,0.1307,0.188,0.05729999999999999,"CROZER CHESTER MEDICAL CENTER",UPLAND,PA,19013,0.27686472819216185,0.25925925925925924,-0.0176054689329026
100179,0.1312,0.1521,0.020900000000000002,"MEMORIAL HOSPITAL JACKSONVILLE",JACKSONVILLE,FL,32216,0.2769556025369979,0.28311057108140947,0.006154968544411554
260175,0.1312,0.1272,-0.0040000000000000036,"GOLDEN VALLEY MEMORIAL HOSPITAL",CLINTON,MO,64735,0.2032520325203252,0.21428571428571427,0.011033681765389075
330394,0.1312,0.1799,0.04869999999999999,"UNITED HEALTH SERVICES HOSPITALS, INC","JOHNSON CITY",NY,13790,0.2181372549019608,0.22371967654986524,0.005582421647904456
150089,0.1321,0.1661,0.034,"INDIANA UNIVERSITY HEALTH BALL MEMORIAL HOSPITAL",MUNCIE,IN,47303,0.2111731843575419,0.18766404199475065,-0.023509142362791252
220020,0.1321,0.1409,0.008800000000000002,"SAINT ANNE'S HOSPITAL","FALL RIVER",MA,02721,0.26148409893992935,0.3047337278106509,0.043249628870721535
310039,0.1322,0.1846,0.052399999999999974,"RARITAN BAY MEDICAL CENTER","PERTH AMBOY",NJ,08861,0.342,0.2638121546961326,-0.07818784530386741
110029,0.1324,0.1113,-0.021099999999999994,"NORTHEAST GEORGIA MEDICAL CENTER, INC",GAINESVILLE,GA,30501,0.22241992882562278,0.18724778046811946,-0.03517214835750332
100093,0.1325,0.1395,0.007000000000000006,"BAPTIST HOSPITAL",PENSACOLA,FL,32501,0.2222222222222222,0.22507552870090636,0.0028533064786841478
150004,0.1326,0.1649,0.032299999999999995,"FRANCISCAN ST MARGARET HEALTH - HAMMOND",HAMMOND,IN,46320,0.2804005722460658,0.2865853658536585,0.00618479360759272
500016,0.1327,0.1522,0.01949999999999999,"CENTRAL WASHINGTON HOSPITAL",WENATCHEE,WA,98807,0.16526610644257703,0.14705882352941177,-0.018207282913165257
100131,0.1330,0.1206,-0.012400000000000008,"AVENTURA HOSPITAL AND MEDICAL CENTER",AVENTURA,FL,33180,0.2747909199522103,0.3086900129701686,0.03389909301795835
160110,0.1330,0.1454,0.012399999999999994,"ALLEN MEMORIAL HOSPITAL",WATERLOO,IA,50703,0.20875420875420875,0.21662125340599456,0.00786704465178581
330393,0.1332,0.1373,0.0040999999999999925,"UNIVERSITY HOSPITAL ( STONY BROOK )","STONY BROOK",NY,11794,0.24059139784946237,0.260989010989011,0.02039761313954863
360039,0.1335,0.169,0.035500000000000004,"GENESIS HEALTHCARE SYSTEM",ZANESVILLE,OH,43701,0.23636363636363636,0.2231638418079096,-0.013199794555726757
310006,0.1336,0.2129,0.07930000000000001,"ST MARY'S HOSPITAL, PASSAIC",PASSAIC,NJ,07055,0.25460829493087556,0.23088235294117648,-0.023725941989699073
360218,0.1340,0.2016,0.0676,"LICKING MEMORIAL HOSPITAL HOMECARE",NEWARK,OH,43055,0.16393442622950818,0.19230769230769232,0.028373266078184134
130049,0.1341,0.1257,-0.00839999999999999,"KOOTENAI MEDICAL CENTER","COEUR D'ALENE",ID,83814,0.19473684210526315,0.13025210084033614,-0.06448474126492701
240038,0.1341,0.1398,0.005700000000000011,"UNITED HOSPITAL","SAINT PAUL",MN,55102,0.23293172690763053,0.19088937093275488,-0.042042355974875656
380050,0.1344,0.1866,0.052199999999999996,"SKY LAKES MEDICAL CENTER","KLAMATH FALLS",OR,97601,0.18099547511312217,0.184375,0.003379524886877844
250009,0.1345,0.1088,-0.025700000000000014,"MAGNOLIA REGIONAL HEALTH CENTER",CORINTH,MS,38834,0.2787456445993031,0.267260579064588,-0.011485065534715122
100017,0.1346,0.1561,0.02149999999999999,"HALIFAX HEALTH MEDICAL CENTER","DAYTONA BEACH",FL,32114,0.26504065040650404,0.2435344827586207,-0.02150616764788335
390081,0.1347,0.2315,0.09680000000000002,"DELAWARE COUNTY MEMORIAL HOSPITAL","DREXEL HILL",PA,19026,0.2549019607843137,0.22743682310469315,-0.027465137679620555
440175,0.1349,0.187,0.05210000000000001,"CROCKETT HOSPITAL",LAWRENCEBURG,TN,38464,0.329608938547486,0.13178294573643412,-0.1978259928110519
440189,0.1350,0.1185,-0.016500000000000015,"REGIONAL HOSPITAL OF JACKSON",JACKSON,TN,38305,0.2336065573770492,0.2739018087855297,0.04029525140848053
440193,0.1353,0.1615,0.0262,"UNIVERSITY MEDICAL CENTER",LEBANON,TN,37087,0.2914572864321608,0.21965317919075145,-0.07180410724140934
100132,0.1354,0.1453,0.00990000000000002,"SOUTH FLORIDA BAPTIST HOSPITAL","PLANT CITY",FL,33563,0.2994011976047904,0.26244343891402716,-0.03695775869076323
490113,0.1357,0.1187,-0.016999999999999987,"SENTARA POTOMAC HOSPITAL",WOODBRIDGE,VA,22191,0.2597701149425287,0.225,-0.03477011494252871
100088,0.1362,0.167,0.030800000000000022,"BAPTIST MEDICAL CENTER",JACKSONVILLE,FL,32207,0.25903614457831325,0.22099039172209903,-0.03804575285621423
490063,0.1362,0.1268,-0.009399999999999992,"INOVA FAIRFAX HOSPITAL","FALLS CHURCH",VA,22042,0.24388254486133767,0.22164948453608246,-0.02223306032525521
190204,0.1364,0.1072,-0.02919999999999999,"OCHSNER MEDICAL CENTER - NORTHSHORE, LLC",SLIDELL,LA,70461,0.30392156862745096,0.34972677595628415,0.0458052073288332
440161,0.1364,0.1652,0.02880000000000002,"CENTENNIAL MEDICAL CENTER",NASHVILLE,TN,37203,0.22852983988355166,0.23076923076923078,0.002239390885679121
110150,0.1365,0.1561,0.01959999999999998,"OCONEE REGIONAL MEDICAL CENTER",MILLEDGEVILLE,GA,31061,0.20725388601036268,0.18085106382978725,-0.026402822180575436
460015,0.1368,0.12,-0.01680000000000001,"LOGAN REGIONAL HOSPITAL",LOGAN,UT,84341,0.15555555555555556,0.12643678160919541,-0.029118773946360144
260163,0.1374,0.12,-0.0174,"PARKLAND HEALTH CENTER",FARMINGTON,MO,63640,0.3008849557522124,0.20155038759689922,-0.09933456815531319
260017,0.1376,0.1357,-0.0019000000000000128,"PHELPS COUNTY REGIONAL MEDICAL CENTER",ROLLA,MO,65401,0.24566473988439305,0.22456140350877193,-0.021103336375621118
110032,0.1377,0.1211,-0.01659999999999999,"STEPHENS COUNTY HOSPITAL",TOCCOA,GA,30577,0.21888412017167383,0.17475728155339806,-0.044126838618275765
170086,0.1379,0.1386,0.0007000000000000062,"STORMONT-VAIL HEALTHCARE",TOPEKA,KS,66604,0.22087745839636913,0.17715617715617715,-0.04372128124019198
250141,0.1379,0.1383,0.00040000000000001146,"BAPTIST MEMORIAL HOSPITAL DESOTO",SOUTHAVEN,MS,38671,0.2446043165467626,0.2412008281573499,-0.0034034883894127066
520087,0.1379,0.1394,0.0015000000000000013,"GUNDERSEN LUTH MED CTR","LA CROSSE",WI,54601,0.17131474103585656,0.16333333333333333,-0.00798140770252323
500024,0.1384,0.1273,-0.011099999999999999,"PROVIDENCE ST PETER HOSPITAL",OLYMPIA,WA,98506,0.21528861154446177,0.18194254445964433,-0.03334606708481744
360133,0.1385,0.2169,0.0784,"GRANDVIEW HOSPITAL & MEDICAL CENTER",DAYTON,OH,45405,0.2185929648241206,0.2832369942196532,0.0646440293955326
230080,0.1387,0.1644,0.0257,"CENTRAL MICHIGAN COMMUNITY HOSPITAL","MOUNT PLEASANT",MI,48858,0.23383084577114427,0.18064516129032257,-0.0531856844808217
340010,0.1387,0.1544,0.01570000000000002,"WAYNE MEMORIAL HOSPITAL",GOLDSBORO,NC,27534,0.24024024024024024,0.2462406015037594,0.0060003612635191605
340021,0.1392,0.1391,-0.00009999999999998899,"CLEVELAND REGIONAL MEDICAL CENTER",SHELBY,NC,28150,0.2354014598540146,0.21142857142857144,-0.02397288842544315
310084,0.1397,0.3027,0.16300000000000003,"KIMBALL MEDICAL CENTER",LAKEWOOD,NJ,08701,0.3146417445482866,0.2169811320754717,-0.09766061247281488
100052,0.1399,0.127,-0.012899999999999995,"WINTER HAVEN HOSPITAL","WINTER HAVEN",FL,33881,0.24338624338624337,0.23470839260312945,-0.008677850783113922
100255,0.1401,0.1569,0.01680000000000001,"TOWN & COUNTRY HOSPITAL",TAMPA,FL,33615,0.2967741935483871,0.2988505747126437,0.0020763811642566243
220074,0.1401,0.1618,0.021699999999999997,"SOUTHCOAST HOSPITAL GROUP, INC","FALL RIVER",MA,02720,0.27454464682363394,0.2501162250116225,-0.024428421812011436
360132,0.1401,0.1929,0.052799999999999986,"FORT HAMILTON HUGHES MEMORIAL HOSPITAL",HAMILTON,OH,45013,0.27325581395348836,0.27106227106227104,-0.002193542891217315
260032,0.1406,0.1358,-0.004799999999999999,"BARNES JEWISH HOSPITAL","SAINT LOUIS",MO,63110,0.3202819107282694,0.23936613844870724,-0.08091577227956215
340002,0.1409,0.15,0.009099999999999997,"MEMORIAL MISSION HOSPITAL AND ASHEVILLE SURGERY CE",ASHEVILLE,NC,28801,0.19291338582677164,0.16620344635908837,-0.02670993946768327
230230,0.1410,0.1754,0.034400000000000014,"EDWARD W SPARROW HOSPITAL",LANSING,MI,48912,0.24294478527607363,0.21951219512195122,-0.023432590154122412
250004,0.1410,0.1459,0.0049000000000000155,"NORTH MISSISSIPPI MEDICAL CENTER",TUPELO,MS,38801,0.20485175202156333,0.196763202725724,-0.008088549295839326
180116,0.1414,0.1529,0.01150000000000001,"JACKSON PURCHASE MEDICAL CENTER",MAYFIELD,KY,42066,0.2631578947368421,0.24545454545454545,-0.017703349282296638
340023,0.1415,0.1434,0.0019000000000000128,"PARK RIDGE HEALTH",HENDERSONVILLE,NC,28792,0.128,0.12222222222222222,-0.0057777777777777845
380051,0.1422,0.156,0.013800000000000007,"SALEM HOSPITAL",SALEM,OR,97301,0.20984455958549222,0.18763326226012794,-0.022211297325364282
500014,0.1424,0.1617,0.01930000000000001,"PROVIDENCE REGIONAL MEDICAL CENTER EVERETT",EVERETT,WA,98201,0.19223985890652556,0.2049306625577812,0.012690803651255633
330153,0.1426,0.1629,0.020299999999999985,"ELLIS HOSPITAL",SCHENECTADY,NY,12308,0.22383419689119172,0.1841704718417047,-0.03966372504948701
440006,0.1426,0.1648,0.022199999999999998,"SKYLINE MEDICAL CENTER",NASHVILLE,TN,37207,0.20527859237536658,0.23636363636363636,0.031085043988269778
330078,0.1429,0.1754,0.0325,"SISTERS OF CHARITY HOSPITAL",BUFFALO,NY,14214,0.27234927234927236,0.23237597911227154,-0.03997329323700083
380018,0.1442,0.2028,0.05860000000000001,"ROGUE VALLEY MEDICAL CENTER",MEDFORD,OR,97504,0.16602316602316602,0.1607773851590106,-0.005245780864155419
260040,0.1445,0.1665,0.02200000000000002,"COX MEDICAL CENTER",SPRINGFIELD,MO,65807,0.19077306733167082,0.19887640449438201,0.008103337162711194
220046,0.1447,0.1845,0.0398,"BERKSHIRE MEDICAL CENTER INC",PITTSFIELD,MA,01201,0.22003034901365706,0.21733668341708542,-0.002693665596571637
110161,0.1453,0.1595,0.01419999999999999,"NORTHSIDE HOSPITAL",ATLANTA,GA,30342,0.2074074074074074,0.17518248175182483,-0.032224925655582576
410004,0.1454,0.216,0.0706,"ROGER WILLIAMS MEDICAL CENTER",PROVIDENCE,RI,02908,0.27722772277227725,0.21153846153846154,-0.06568926123381572
310009,0.1457,0.1934,0.04769999999999999,"CLARA MAASS MEDICAL CENTER",BELLEVILLE,NJ,07109,0.3037837837837838,0.22781456953642384,-0.07596921424735995
110023,0.1458,0.1524,0.006599999999999995,"GORDON HOSPITAL",CALHOUN,GA,30701,0.29365079365079366,0.17486338797814208,-0.11878740567265159
110189,0.1459,0.2049,0.059,"FANNIN REGIONAL HOSPITAL","BLUE RIDGE",GA,30513,0.27044025157232704,0.24324324324324326,-0.027197008329083783
250104,0.1466,0.1404,-0.006200000000000011,"ANDERSON REGIONAL MEDICAL CENTER",MERIDIAN,MS,39301,0.22294022617124395,0.20545977011494254,-0.017480456056301413
140208,0.1467,0.1604,0.01369999999999999,"ADVOCATE CHRIST HOSPITAL & MEDICAL CENTER","OAK LAWN",IL,60453,0.2692857142857143,0.21409395973154363,-0.05519175455417066
500077,0.1467,0.1918,0.0451,"PROVIDENCE HOLY FAMILY HOSPITAL",SPOKANE,WA,99208,0.18627450980392157,0.17777777777777778,-0.008496732026143788
250034,0.1468,0.1215,-0.025300000000000017,"BAPTIST MEMORIAL HOSPITAL NORTH MS",OXFORD,MS,38655,0.2240566037735849,0.21321961620469082,-0.010836987568894091
380060,0.1469,0.2099,0.063,"ADVENTIST MEDICAL CENTER",PORTLAND,OR,97216,0.17073170731707318,0.17307692307692307,0.002345215759849889
310064,0.1472,0.2024,0.0552,"ATLANTICARE REGIONAL MEDICAL CENTER - CITY DIV","ATLANTIC CITY",NJ,08401,0.26579163248564397,0.24410089503661514,-0.02169073744902883
340126,0.1475,0.1706,0.02310000000000001,"WILSON MEDICAL CENTER",WILSON,NC,27893,0.26280623608017817,0.1953405017921147,-0.06746573428806346
140209,0.1476,0.1734,0.02579999999999999,"METHODIST MEDICAL CENTER OF ILLINOIS",PEORIA,IL,61636,0.24366471734892786,0.24390243902439024,0.00023772167546237677
420071,0.1479,0.1395,-0.00839999999999999,"SELF REGIONAL HEALTHCARE",GREENWOOD,SC,29646,0.22083333333333333,0.18518518518518517,-0.03564814814814815
140091,0.1484,0.1674,0.01899999999999999,"CARLE FOUNDATION HOSPITAL",URBANA,IL,61801,0.24722662440570523,0.20078740157480315,-0.04643922283090207
330104,0.1484,0.2216,0.07319999999999999,"NYACK HOSPITAL",NYACK,NY,10960,0.2826086956521739,0.2608695652173913,-0.021739130434782594
140251,0.1486,0.1908,0.04219999999999999,"OUR LADY OF THE RESURRECTION MED CTR",CHICAGO,IL,60634,0.3,0.20995670995670995,-0.09004329004329004
450447,0.1489,0.1914,0.04249999999999998,"NAVARRO REGIONAL HOSPITAL",CORSICANA,TX,75110,0.25524475524475526,0.22413793103448276,-0.0311068242102725
130018,0.1491,0.2156,0.0665,"EASTERN IDAHO REGIONAL MEDICAL CENTER","IDAHO FALLS",ID,83404,0.20212765957446807,0.15841584158415842,-0.043711817990309654
450324,0.1495,0.0599,-0.08959999999999999,"TEXOMA MEDICAL CENTER",DENISON,TX,75020,0.1880108991825613,0.24007220216606498,0.05206130298350367
220019,0.1496,0.1179,-0.031700000000000006,"HARRINGTON MEMORIAL HOSPITAL",SOUTHBRIDGE,MA,01550,0.2872340425531915,0.24630541871921183,-0.04092862383397969
220035,0.1501,0.1908,0.040699999999999986,"NORTH SHORE MEDICAL CENTER",SALEM,MA,01970,0.22723091076356947,0.20611353711790392,-0.021117373645665544
440061,0.1501,0.1619,0.011799999999999977,"VOLUNTEER COMMUNITY HOSPITAL",MARTIN,TN,38237,0.24352331606217617,0.18421052631578946,-0.05931278974638671
510008,0.1501,0.1981,0.04799999999999999,"CITY HOSPITAL",MARTINSBURG,WV,25401,0.22142857142857142,0.20783132530120482,-0.013597246127366597
370099,0.1506,0.1434,-0.007200000000000012,"HILLCREST HOSPITAL CUSHING",CUSHING,OK,74023,0.29464285714285715,0.19811320754716982,-0.09652964959568733
370025,0.1509,0.1377,-0.013200000000000017,"MUSKOGEE REGIONAL MEDICAL CENTER",MUSKOGEE,OK,74401,0.2560386473429952,0.21462264150943397,-0.041416005833561226
520138,0.1519,0.1949,0.04299999999999998,"AURORA ST LUKES MEDICAL CENTER",MILWAUKEE,WI,53215,0.2466529351184346,0.22555948174322732,-0.021093453375207294
250049,0.1524,0.0682,-0.08420000000000001,"BEACHAM MEMORIAL HOSPITAL",MAGNOLIA,MS,39652,0.35443037974683544,0.22727272727272727,-0.12715765247410818
250049,0.1524,0.098,-0.054400000000000004,"BEACHAM MEMORIAL HOSPITAL",MAGNOLIA,MS,39652,0.35443037974683544,0.22727272727272727,-0.12715765247410818
520035,0.1526,0.2376,0.08499999999999999,"AURORA SHEBOYGAN MEM MED CTR",SHEBOYGAN,WI,53083,0.13145539906103287,0.12087912087912088,-0.010576278181911994
130006,0.1527,0.1449,-0.007800000000000001,"ST LUKES REGIONAL MEDICAL CENTER",BOISE,ID,83712,0.18637274549098196,0.1590493601462523,-0.027323385344729667
450678,0.1528,0.1588,0.006000000000000005,"DOCTORS HOSPITAL",DALLAS,TX,75218,0.2331002331002331,0.16835016835016836,-0.06475006475006473
520193,0.1528,0.134,-0.018799999999999983,"AURORA BAYCARE MED CTR","GREEN BAY",WI,54311,0.21768707482993196,0.22794117647058823,0.010254101640656266
450299,0.1539,0.1768,0.022900000000000004,"COLLEGE STATION MEDICAL CENTER","COLLEGE STATION",TX,77842,0.22727272727272727,0.18660287081339713,-0.040669856459330134
100071,0.1544,0.178,0.023599999999999982,"BROOKSVILLE REGIONAL HOSPITAL",BROOKSVILLE,FL,34601,0.25995316159250587,0.26112759643916916,0.001174434846663297
180013,0.1545,0.2106,0.05610000000000001,"THE MEDICAL CENTER AT BOWLING GREEN","BOWLING GREEN",KY,42101,0.23922413793103448,0.21891891891891893,-0.020305219012115544
180044,0.1547,0.2349,0.0802,"PIKEVILLE MEDICAL CENTER",PIKEVILLE,KY,41501,0.2694063926940639,0.24721189591078066,-0.022194496783283252
450597,0.1548,0.12,-0.0348,"CUERO COMMUNITY HOSPITAL",CUERO,TX,77954,0.296875,0.17880794701986755,-0.11806705298013245
140084,0.1550,0.2048,0.04980000000000001,"VISTA MEDICAL CENTER EAST",WAUKEGAN,IL,60085,0.2508833922261484,0.22945205479452055,-0.021431337431627867
230021,0.1550,0.2016,0.0466,"LAKELAND HOSPITAL, ST JOSEPH","ST JOSEPH",MI,49085,0.22007255139056833,0.1891604675876727,-0.030912083802895646
230096,0.1554,0.12,-0.035400000000000015,"STURGIS HOSPITAL",STURGIS,MI,49091,0.24031007751937986,0.15454545454545454,-0.08576462297392531
450844,0.1554,0.1331,-0.022300000000000014,"METHODIST WILLOWBROOK HOSPITAL",HOUSTON,TX,77070,0.2450592885375494,0.2706422018348624,0.025582913297312965
360159,0.1557,0.2028,0.0471,"ADENA REGIONAL MEDICAL CENTER",CHILLICOTHE,OH,45601,0.27065026362038663,0.19747899159663865,-0.07317127202374799
380021,0.1559,0.1902,0.0343,"TUALITY COMMUNITY HOSPITAL",HILLSBORO,OR,97123,0.18253968253968253,0.15,-0.032539682539682535
390070,0.1561,0.1236,-0.03249999999999999,"LOWER BUCKS HOSPITAL",BRISTOL,PA,19007,0.30201342281879195,0.24193548387096775,-0.060077938947824205
510038,0.1564,0.1579,0.0015000000000000013,"STONEWALL JACKSON MEM HOSP",WESTON,WV,26452,0.30952380952380953,0.3434343434343434,0.03391053391053389
240001,0.1570,0.164,0.007000000000000006,"NORTH MEMORIAL MEDICAL CENTER",ROBBINSDALE,MN,55422,0.21497584541062803,0.19653179190751446,-0.018444053503113567
420082,0.1580,0.1655,0.007500000000000007,"AIKEN REGIONAL MEDICAL CENTER",AIKEN,SC,29801,0.18393782383419688,0.21945701357466063,0.03551918974046375
180115,0.1584,0.1769,0.01849999999999999,"ROCKCASTLE REG HOSPITAL & RESPIRATORY CARE CTR","MOUNT VERNON",KY,40456,0.21875,0.36363636363636365,0.14488636363636365
220095,0.1584,0.2071,0.04869999999999999,"HEYWOOD HOSPITAL",GARDNER,MA,01440,0.17777777777777778,0.23529411764705882,0.057516339869281036
100007,0.1590,0.1343,-0.0247,"FLORIDA HOSPITAL",ORLANDO,FL,32803,0.2781565312244341,0.2558011049723757,-0.02235542625205844
310118,0.1593,0.2032,0.043899999999999995,"MEADOWLANDS HOSPITAL MEDICAL CENTER",SECAUCUS,NJ,07094,0.28286852589641437,0.325,0.04213147410358564
330163,0.1598,0.2424,0.0826,"EASTERN NIAGARA HOSPITAL",LOCKPORT,NY,14094,0.23275862068965517,0.26,0.027241379310344843
450518,0.1599,0.1851,0.0252,"THE MEDICAL CENTER OF SOUTHEAST TEXAS","PORT ARTHUR",TX,77640,0.23148148148148148,0.2208955223880597,-0.010585959093421776
260005,0.1604,0.1372,-0.0232,"SSM ST JOSEPH HEALTH CENTER","SAINT CHARLES",MO,63301,0.23399014778325122,0.21024258760107817,-0.023747560182173055
140164,0.1612,0.1665,0.005299999999999999,"MEMORIAL HOSPITAL OF CARBONDALE",CARBONDALE,IL,62902,0.25065963060686014,0.2669902912621359,0.016330660655275775
410007,0.1613,0.1948,0.0335,"RHODE ISLAND HOSPITAL",PROVIDENCE,RI,02902,0.2518363064008394,0.24928639391056137,-0.0025499124902780557
370054,0.1614,0.0924,-0.06899999999999999,"GRADY MEMORIAL HOSPITAL",CHICKASHA,OK,73018,0.1349206349206349,0.2079207920792079,0.073000157158573
310032,0.1617,0.2014,0.039699999999999985,"SOUTH JERSEY HEALTHCARE REGIONAL MEDICAL CENTER",VINELAND,NJ,08360,0.24722222222222223,0.24848484848484848,0.001262626262626243
490024,0.1619,0.1572,-0.004699999999999982,"CARILION ROANOKE MEMORIAL CENTER",ROANOKE,VA,24014,0.2037643207855974,0.22085048010973937,0.01708615932414198
440020,0.1621,0.1485,-0.013600000000000001,"HILLSIDE HOSPITAL",PULASKI,TN,38478,0.24561403508771928,0.3380281690140845,0.09241413392636522
150150,0.1622,0.2024,0.040199999999999986,"DUPONT HOSPITAL LLC","FORT WAYNE",IN,46825,0.20454545454545456,0.23684210526315788,0.032296650717703324
110002,0.1631,0.1595,-0.003599999999999992,"UPSON REGIONAL MEDICAL CENTER",THOMASTON,GA,30286,0.22023809523809523,0.13,-0.09023809523809523
110031,0.1631,0.1359,-0.027200000000000002,"SPALDING REGIONAL MEDICAL CENTER",GRIFFIN,GA,30223,0.24885844748858446,0.22560975609756098,-0.02324869139102348
110031,0.1631,0.1248,-0.0383,"SPALDING REGIONAL MEDICAL CENTER",GRIFFIN,GA,30223,0.24885844748858446,0.22560975609756098,-0.02324869139102348
360096,0.1634,0.12,-0.043399999999999994,"EAST LIVERPOOL CITY HOSPITAL","EAST LIVERPOOL",OH,43920,0.289044289044289,0.2608695652173913,-0.02817472382689773
340130,0.1637,0.1513,-0.012400000000000022,"CAROLINAS MEDICAL CENTER-UNION",MONROE,NC,28110,0.22274881516587677,0.2115702479338843,-0.011178567231992481
500015,0.1642,0.12,-0.04420000000000002,"AUBURN REGIONAL MEDICAL CENTER",AUBURN,WA,98001,0.2652439024390244,0.18545454545454546,-0.07978935698447895
340144,0.1651,0.1744,0.009300000000000003,"DAVIS REGIONAL MEDICAL CENTER",STATESVILLE,NC,28687,0.329608938547486,0.22058823529411764,-0.10902070325336838
450032,0.1651,0.151,-0.014100000000000001,"GOOD SHEPHERD MEDICAL CENTER MARSHALL",MARSHALL,TX,75670,0.3125,0.2315270935960591,-0.08097290640394089
490007,0.1652,0.16,-0.00520000000000001,"SENTARA NORFOLK GENERAL HOSPITAL",NORFOLK,VA,23507,0.2488938053097345,0.22421948912015138,-0.02467431618958313
420086,0.1659,0.189,0.02310000000000001,"PALMETTO HEALTH BAPTIST",COLUMBIA,SC,29220,0.2557077625570776,0.18468468468468469,-0.07102307787239293
360234,0.1662,0.0985,-0.06769999999999998,"MERCY FRANCISCAN HOSPITAL - MT AIRY",CINCINNATI,OH,45239,0.2225,0.19166666666666668,-0.030833333333333324
110177,0.1663,0.1717,0.005399999999999988,"DOCTORS HOSPITAL",AUGUSTA,GA,30909,0.2553191489361702,0.2819548872180451,0.026635738281874932
510022,0.1669,0.1866,0.019699999999999995,"CHARLESTON AREA MEDICAL CENTER",CHARLESTON,WV,25301,0.2409532215357458,0.23996723996723995,-0.0009859815685058504
420070,0.1670,0.2046,0.037599999999999995,"TUOMEY HEALTHCARE SYSTEM",SUMTER,SC,29150,0.24601769911504426,0.2236842105263158,-0.022333488588728467
420070,0.1670,0.1827,0.015699999999999992,"TUOMEY HEALTHCARE SYSTEM",SUMTER,SC,29150,0.24601769911504426,0.2236842105263158,-0.022333488588728467
100012,0.1671,0.1835,0.016399999999999998,"LEE MEMORIAL HOSPITAL","FORT MYERS",FL,33901,0.22057735011102886,0.21682098765432098,-0.003756362456707879
470003,0.1677,0.173,0.005299999999999999,"FLETCHER ALLEN HOSPITAL OF VERMONT",BURLINGTON,VT,05401,0.20467032967032966,0.2135593220338983,0.008888992363568632
190002,0.1678,0.2248,0.056999999999999995,"LAFAYETTE GENERAL MEDICAL CENTER",LAFAYETTE,LA,70503,0.25726744186046513,0.206993006993007,-0.05027443486745814
220111,0.1678,0.2506,0.08279999999999998,"GOOD SAMARITAN MEDICAL CENTER",BROCKTON,MA,02301,0.2807625649913345,0.25,-0.030762564991334507
110074,0.1679,0.1607,-0.007199999999999984,"ATHENS REGIONAL MEDICAL CENTER",ATHENS,GA,30606,0.22522522522522523,0.20961538461538462,-0.015609840609840608
100243,0.1681,0.1612,-0.0068999999999999895,"BRANDON REGIONAL HOSPITAL",BRANDON,FL,33511,0.24448217317487267,0.25,0.005517826825127331
220163,0.1681,0.2146,0.046500000000000014,"UMASS MEMORIAL MEDICAL CENTER INC",WORCESTER,MA,01655,0.2728828058169376,0.21266968325791855,-0.06021312255901903
160024,0.1684,0.2653,0.09689999999999999,"IOWA LUTHERAN HOSPITAL","DES MOINES",IA,50316,0.21176470588235294,0.18446601941747573,-0.02729868646487721
230142,0.1684,0.1877,0.01930000000000001,"OAKWOOD ANNAPOLIS HOSPITAL",WAYNE,MI,48184,0.29218106995884774,0.3333333333333333,0.041152263374485576
420036,0.1684,0.1661,-0.0022999999999999965,"SPRINGS MEMORIAL HOSPITAL",LANCASTER,SC,29720,0.24458204334365324,0.2465277777777778,0.0019457344341245464
100268,0.1690,0.1339,-0.03510000000000002,"WEST BOCA MEDICAL CENTER","BOCA RATON",FL,33428,0.25679012345679014,0.2513089005235602,-0.005481222933229946
330073,0.1693,0.2691,0.0998,"UNITED MEMORIAL MEDICAL CENTER",BATAVIA,NY,14020,0.30456852791878175,0.30303030303030304,-0.001538224888478712
450730,0.1695,0.1113,-0.058200000000000016,"BAYLOR MEDICAL CENTER AT CARROLLTON",CARROLLTON,TX,75010,0.2468354430379747,0.20670391061452514,-0.04013153242344955
180048,0.1698,0.2063,0.036500000000000005,"EPHRAIM MCDOWELL REGIONAL MEDICAL CENTER",DANVILLE,KY,40422,0.21693121693121692,0.2375296912114014,0.020598474280184492
260027,0.1701,0.148,-0.02210000000000001,"RESEARCH MEDICAL CENTER","KANSAS CITY",MO,64132,0.20952380952380953,0.18181818181818182,-0.027705627705627706
190160,0.1703,0.1891,0.018799999999999983,"GLENWOOD REGIONAL MEDICAL CENTER","WEST MONROE",LA,71291,0.3082706766917293,0.2484076433121019,-0.059863033379627395
440187,0.1718,0.2123,0.04049999999999998,"LIVINGSTON REGIONAL HOSPITAL",LIVINGSTON,TN,38570,0.2676767676767677,0.3025210084033613,0.034844240726593645
110095,0.1720,0.1849,0.012900000000000023,"TIFT REGIONAL MEDICAL CENTER",TIFTON,GA,31793,0.2430379746835443,0.23035230352303523,-0.01268567116050906
140067,0.1725,0.1916,0.019100000000000006,"SAINT FRANCIS MEDICAL CENTER",PEORIA,IL,61637,0.24834874504623514,0.21469575200918484,-0.0336529930370503
450272,0.1725,0.1335,-0.03899999999999998,"CENTRAL TEXAS MEDICAL CENTER","SAN MARCOS",TX,78666,0.21115537848605578,0.2163265306122449,0.005171152126189127
340091,0.1730,0.1562,-0.01679999999999998,"MOSES H CONE MEMORIAL HOSPITAL, THE",GREENSBORO,NC,27401,0.22434017595307917,0.18382352941176472,-0.040516646541314455
340027,0.1736,0.1435,-0.030100000000000016,"LENOIR MEMORIAL HOSPITAL",KINSTON,NC,28501,0.24849397590361447,0.24535315985130113,-0.003140816052313339
260104,0.1755,0.1637,-0.011799999999999977,"SSM DEPAUL HEALTH CENTER",BRIDGETON,MO,63044,0.3,0.23934426229508196,-0.06065573770491803
440159,0.1762,0.2304,0.0542,"DELTA MEDICAL CENTER",MEMPHIS,TN,38118,0.2872340425531915,0.425531914893617,0.1382978723404255
330158,0.1766,0.1901,0.013499999999999984,"GOOD SAMARITAN HOSPITAL OF SUFFERN",SUFFERN,NY,10901,0.2755775577557756,0.26631393298059963,-0.00926362477517595
110122,0.1772,0.1841,0.006900000000000017,"SOUTH GEORGIA MEDICAL CENTER",VALDOSTA,GA,31603,0.2302325581395349,0.2281021897810219,-0.0021303683585129907
380025,0.1772,0.2573,0.08009999999999998,"LEGACY MOUNT HOOD MEDICAL CENTER",GRESHAM,OR,97030,0.17293233082706766,0.26256983240223464,0.08963750157516698
230020,0.1777,0.2186,0.04089999999999999,"OAKWOOD HOSPITAL AND MEDICAL CENTER",DEARBORN,MI,48124,0.3093060785368478,0.28614008941877794,-0.02316598911806983
360068,0.1783,0.1918,0.013500000000000012,"TOLEDO HOSPITAL THE",TOLEDO,OH,43606,0.24665856622114216,0.18051948051948052,-0.06613908570166163
100035,0.1784,0.1414,-0.037000000000000005,"MANATEE MEMORIAL HOSPITAL",BRADENTON,FL,34208,0.2106060606060606,0.1875,-0.023106060606060602
450684,0.1788,0.137,-0.041799999999999976,"MEMORIAL HERMANN NORTHEAST",HUMBLE,TX,77338,0.26666666666666666,0.22674418604651161,-0.03992248062015505
260105,0.1791,0.2338,0.0547,"ST LOUIS UNIVERSITY HOSPITAL","SAINT LOUIS",MO,63110,0.26171875,0.23660714285714285,-0.02511160714285715
330043,0.1792,0.1567,-0.022499999999999992,"SOUTHSIDE HOSPITAL","BAY SHORE",NY,11706,0.24444444444444444,0.2225201072386059,-0.02192433720583853
110038,0.1796,0.1646,-0.015000000000000013,"JOHN D ARCHBOLD MEMORIAL HOSPITAL",THOMASVILLE,GA,31792,0.20899470899470898,0.1864406779661017,-0.022554031028607285
100275,0.1805,0.1739,-0.006599999999999995,"WELLINGTON REGIONAL MEDICAL CENTER",WELLINGTON,FL,33414,0.29714285714285715,0.21120689655172414,-0.08593596059113301
100030,0.1811,0.1452,-0.035900000000000015,"HEALTH CENTRAL",OCOEE,FL,34761,0.25740318906605925,0.20348837209302326,-0.05391481697303599
190151,0.1811,0.2059,0.02479999999999999,"RICHARDSON MEDICAL CENTER",RAYVILLE,LA,71269,0.2804878048780488,0.23529411764705882,-0.04519368723098999
330086,0.1822,0.12,-0.062200000000000005,"MOUNT VERNON HOSPITAL","MOUNT VERNON",NY,10550,0.22297297297297297,0.25,0.02702702702702703
360051,0.1827,0.2074,0.0247,"MIAMI VALLEY HOSPITAL",DAYTON,OH,45409,0.25529411764705884,0.17697841726618704,-0.0783157003808718
140054,0.1829,0.2011,0.018199999999999994,"MACNEAL  HOSPITAL",BERWYN,IL,60402,0.21223709369024857,0.15172413793103448,-0.06051295575921409
230207,0.1829,0.2222,0.0393,"MCLAREN OAKLAND",PONTIAC,MI,48342,0.27956989247311825,0.2727272727272727,-0.006842619745845546
140186,0.1831,0.2046,0.02149999999999999,"RIVERSIDE MEDICAL CENTER",KANKAKEE,IL,60901,0.2588726513569937,0.20210896309314588,-0.05676368826384784
330013,0.1831,0.1839,0.0007999999999999952,"ALBANY MEDICAL CENTER HOSPITAL",ALBANY,NY,12208,0.23690773067331672,0.26018099547511314,0.023273264801796423
420049,0.1843,0.1514,-0.032899999999999985,"CONWAY MEDICAL CENTER",CONWAY,SC,29526,0.22950819672131148,0.17832167832167833,-0.051186518399633146
220036,0.1849,0.2297,0.04479999999999998,"ST ELIZABETH'S MEDICAL CENTER",BRIGHTON,MA,02135,0.29690346083788705,0.20754716981132076,-0.08935629102656628
450352,0.1850,0.1633,-0.021699999999999997,"HUNT REGIONAL MEDICAL CENTER",GREENVILLE,TX,75401,0.24764150943396226,0.2088607594936709,-0.038780749940291376
190034,0.1856,0.2005,0.014900000000000024,"ABBEVILLE GENERAL HOSPITAL",ABBEVILLE,LA,70510,0.30246913580246915,0.2923076923076923,-0.010161443494776823
140304,0.1871,0.1555,-0.03159999999999999,"ADVENTIST BOLINGBROOK HOSPITAL",BOLINGBROOK,IL,60440,0.31277533039647576,0.23529411764705882,-0.07748121274941694
110016,0.1877,0.1679,-0.019800000000000012,"WEST GEORGIA MEDICAL CENTER",LAGRANGE,GA,30240,0.24036697247706423,0.17563739376770537,-0.06472957870935886
180009,0.1878,0.2204,0.03260000000000002,"KING'S DAUGHTERS' MEDICAL CENTER",ASHLAND,KY,41101,0.2914046121593291,0.2782122905027933,-0.013192321656535833
330386,0.1878,0.2027,0.014899999999999997,"CATSKILL REGIONAL MEDICAL CENTER",HARRIS,NY,12742,0.234375,0.268,0.033625000000000016
170123,0.1883,0.1608,-0.027499999999999997,"WESLEY MEDICAL CENTER",WICHITA,KS,67214,0.17481203007518797,0.20426065162907267,0.029448621553884696
100002,0.1884,0.1594,-0.029000000000000026,"BETHESDA MEMORIAL HOSPITAL","BOYNTON BEACH",FL,33435,0.22752043596730245,0.22279129321382843,-0.004729142753474025
190145,0.1884,0.0562,-0.1322,"LASALLE GENERAL HOSPITAL",JENA,LA,71342,0.29838709677419356,0.2391304347826087,-0.05925666199158486
250094,0.1884,0.2203,0.031899999999999984,"WESLEY MEDICAL CENTER",HATTIESBURG,MS,39402,0.2838196286472148,0.20134228187919462,-0.08247734676802021
190039,0.1886,0.1805,-0.008099999999999996,"WEST JEFFERSON MEDICAL CENTER",MARRERO,LA,70072,0.2678227360308285,0.20705882352941177,-0.060763912501416745
190039,0.1886,0.2094,0.020800000000000013,"WEST JEFFERSON MEDICAL CENTER",MARRERO,LA,70072,0.2678227360308285,0.20705882352941177,-0.060763912501416745
310075,0.1886,0.2461,0.05750000000000002,"MONMOUTH MEDICAL CENTER","LONG BRANCH",NJ,07740,0.2672897196261682,0.1898238747553816,-0.07746584487078662
180051,0.1896,0.12,-0.0696,"JENNIE STUART MEDICAL CENTER",HOPKINSVILLE,KY,42240,0.2669491525423729,0.2826086956521739,0.015659543109801
440015,0.1896,0.166,-0.023599999999999982,"UNIVERSITY OF TN MEMORIAL HOSPITAL",KNOXVILLE,TN,37920,0.24092409240924093,0.21572212065813529,-0.02520197175110564
220080,0.1902,0.2481,0.05789999999999998,"HOLY FAMILY HOSPITAL",METHUEN,MA,01844,0.2915057915057915,0.26127527216174184,-0.030230519344049633
260137,0.1906,0.1456,-0.044999999999999984,"FREEMAN HEALTH SYSTEM - FREEMAN WEST",JOPLIN,MO,64804,0.24731182795698925,0.23125,-0.01606182795698924
100063,0.1915,0.189,-0.0025000000000000022,"MORTON PLANT NORTH BAY HOSPITAL","NEW PORT RICHEY",FL,34652,0.2535885167464115,0.25069637883008355,-0.0028921379163279193
190008,0.1915,0.1851,-0.006400000000000017,"TERREBONNE GENERAL MEDICAL CENTER",HOUMA,LA,70360,0.2530755711775044,0.262987012987013,0.009911441809508592
250100,0.1915,0.1847,-0.0068000000000000005,"BAPTIST MEM HOSP/GOLDEN TRIANGLE INC",COLUMBUS,MS,39701,0.21014492753623187,0.2029520295202952,-0.007192898015936672
360087,0.1915,0.321,0.1295,"LUTHERAN HOSPITAL",CLEVELAND,OH,44113,0.24183006535947713,0.26881720430107525,0.026987138941598127
140080,0.1929,0.2316,0.03870000000000001,"RHC ST FRANCIS HOSPITAL",EVANSTON,IL,60202,0.2793017456359102,0.254601226993865,-0.0247005186420452
450152,0.1934,0.2022,0.008800000000000002,"METROPLEX HOSPITAL",KILLEEN,TX,76542,0.277992277992278,0.2364341085271318,-0.041558169465146205
310083,0.1935,0.2938,0.1003,"EAST ORANGE GENERAL HOSPITAL","EAST ORANGE",NJ,07018,0.32575757575757575,0.3018867924528302,-0.02387078330474557
450565,0.1937,0.2159,0.022199999999999998,"PALO PINTO GENERAL HOSPITAL","MINERAL WELLS",TX,76067,0.25925925925925924,0.17796610169491525,-0.08129315756434399
250019,0.1938,0.1559,-0.03789999999999999,"MEMORIAL HOSPITAL AT GULFPORT",GULFPORT,MS,39502,0.2908530318602261,0.23557126030624265,-0.05528177155398345
310092,0.1943,0.2314,0.037099999999999994,"CAPITAL HEALTH SYSTEM-FULD CAMPUS",TRENTON,NJ,08638,0.30340557275541796,0.3238095238095238,0.020403951054105862
360137,0.1946,0.211,0.016399999999999998,"UNIVERSITY HOSPITALS OF CLEVELAND",CLEVELAND,OH,44106,0.2519893899204244,0.21405750798722045,-0.03793188193320396
150002,0.1952,0.231,0.0358,"METHODIST HOSPITALS INC",GARY,IN,46402,0.30388109000825764,0.2962962962962963,-0.007584793711961357
100246,0.1955,0.2013,0.0058,"LAWNWOOD REGIONAL MEDICAL CENTER & HEART INSTITUTE","FORT PIERCE",FL,34950,0.2768817204301075,0.2514177693761815,-0.025463951053926015
330108,0.1957,0.431,0.23529999999999998,"ST JOSEPH'S HOSPITAL, INC",ELMIRA,NY,14902,0.19760479041916168,0.22641509433962265,0.028810303920460967
450147,0.1967,0.1509,-0.04580000000000001,"DETAR HOSPITAL NAVARRO",VICTORIA,TX,77902,0.2505353319057816,0.2,-0.05053533190578158
340069,0.1971,0.2095,0.012399999999999994,"WAKEMED, RALEIGH CAMPUS",RALEIGH,NC,27610,0.2219639744334689,0.21702404158544508,-0.004939932848023826
370202,0.1972,0.0779,-0.11929999999999999,"HILLCREST HOSPITAL SOUTH",TULSA,OK,74133,0.24363636363636362,0.19433198380566802,-0.049304379830695605
120006,0.1983,0.1814,-0.0169,"CASTLE MEDICAL CENTER",KAILUA,HI,96734,0.28488372093023256,0.2222222222222222,-0.06266149870801035
450132,0.1989,0.1703,-0.028599999999999987,"MEDICAL CENTER HOSPITAL",ODESSA,TX,79761,0.20652173913043478,0.23952095808383234,0.03299921895339755
100135,0.1992,0.1654,-0.0338,"TALLAHASSEE MEMORIAL HEALTHCARE",TALLAHASSEE,FL,32308,0.17750439367311072,0.18658892128279883,0.009084527609688114
450080,0.1996,0.12,-0.0796,"TITUS REGIONAL MEDICAL CENTER","MOUNT PLEASANT",TX,75455,0.2222222222222222,0.1761006289308176,-0.04612159329140461
420051,0.2002,0.1832,-0.016999999999999987,"MCLEOD REGIONAL MEDICAL CENTER-PEE DEE",FLORENCE,SC,29506,0.2333019755409219,0.2174721189591078,-0.0158298565818141
500058,0.2003,0.2227,0.022400000000000003,"KADLEC REGIONAL MEDICAL CENTER",RICHLAND,WA,99352,0.2242562929061785,0.23684210526315788,0.012585812356979392
340132,0.2009,0.1797,-0.021199999999999997,"MARIA PARHAM MEDICAL CENTER",HENDERSON,NC,27536,0.20093457943925233,0.2698412698412698,0.0689066904020175
270023,0.2013,0.2787,0.0774,"COMMUNITY MEDICAL CENTER INC",MISSOULA,MT,59804,0.18518518518518517,0.1590909090909091,-0.026094276094276087
220052,0.2029,0.266,0.06310000000000002,"SIGNATURE HEALTHCARE BROCKTON HOSPITAL",BROCKTON,MA,02302,0.2835820895522388,0.25742574257425743,-0.02615634697798136
420078,0.2029,0.232,0.029100000000000015,"GREENVILLE MEMORIAL HOSPITAL",GREENVILLE,SC,29605,0.1767578125,0.176878612716763,0.00012080021676300068
340053,0.2032,0.1828,-0.0204,"PRESBYTERIAN HOSPITAL",CHARLOTTE,NC,28233,0.21793416572077184,0.2233632862644416,0.005429120543669758
420020,0.2033,0.1369,-0.06640000000000001,"GEORGETOWN MEMORIAL HOSPITAL",GEORGETOWN,SC,29440,0.32323232323232326,0.21991701244813278,-0.10331531078419048
190086,0.2034,0.2036,0.00020000000000000573,"NORTHERN LOUISIANA MEDICAL CENTER",RUSTON,LA,71270,0.2539325842696629,0.25806451612903225,0.004131931859369331
330241,0.2043,0.2434,0.039099999999999996,"UNIVERSITY HOSPITAL S U N Y HEALTH SCIENCE CENTER",SYRACUSE,NY,13210,0.2743682310469314,0.2597173144876325,-0.014650916559298899
100110,0.2047,0.1789,-0.02579999999999999,"OSCEOLA REGIONAL MEDICAL CENTER",KISSIMMEE,FL,34741,0.2707275803722504,0.29922779922779924,0.02850021885554882
110107,0.2047,0.1934,-0.011300000000000004,"MEDICAL CENTER OF CENTRAL GEORGIA",MACON,GA,31201,0.23988153998025666,0.23560767590618337,-0.004273864074073291
160146,0.2062,0.2545,0.04830000000000001,"ST LUKES REGIONAL MEDICAL CENTER","SIOUX CITY",IA,51104,0.20187793427230047,0.15,-0.051877934272300474
100242,0.2066,0.1998,-0.0068000000000000005,"GULF COAST MEDICAL CENTER","PANAMA CITY",FL,32405,0.2191780821917808,0.2120253164556962,-0.007152765736084615
420068,0.2076,0.245,0.03739999999999999,"TRMC OF ORANGEBURG & CALHOUN",ORANGEBURG,SC,29115,0.25894736842105265,0.22701149425287356,-0.031935874168179085
330160,0.2083,0.2042,-0.00410000000000002,"STATEN ISLAND UNIVERSITY HOSPITAL","STATEN ISLAND",NY,10305,0.24019607843137256,0.21437908496732025,-0.025816993464052307
250058,0.2086,0.1623,-0.04630000000000001,"SOUTH CENTRAL REG MED CTR",LAUREL,MS,39440,0.22926829268292684,0.2546728971962617,0.025404604513334844
330184,0.2090,0.1897,-0.019299999999999984,"SOUND SHORE MEDICAL CENTER OF WESTSCHESTER","NEW ROCHELLE",NY,10802,0.2913907284768212,0.24083769633507854,-0.05055303214174264
340068,0.2092,0.2022,-0.007000000000000006,"COLUMBUS REGIONAL HEALTHCARE SYSTEM",WHITEVILLE,NC,28472,0.26582278481012656,0.20220588235294118,-0.06361690245718538
180105,0.2103,0.2207,0.01040000000000002,"MONROE COUNTY MEDICAL CENTER",TOMPKINSVILLE,KY,42167,0.2982456140350877,0.2246376811594203,-0.07360793287566741
250078,0.2118,0.1993,-0.012499999999999983,"FORREST GENERAL HOSPITAL",HATTIESBURG,MS,39404,0.29152542372881357,0.2661795407098121,-0.02534588301900148
310096,0.2119,0.2904,0.07849999999999999,"SAINT MICHAEL'S MEDICAL CENTER, INC",NEWARK,NJ,07102,0.2807244501940492,0.2975609756097561,0.016836525415706904
310096,0.2119,0.3037,0.09180000000000002,"SAINT MICHAEL'S MEDICAL CENTER, INC",NEWARK,NJ,07102,0.2807244501940492,0.2975609756097561,0.016836525415706904
320021,0.2122,0.2661,0.0539,"PRESBYTERIAN HOSPITAL",ALBUQUERQUE,NM,87106,0.1724137931034483,0.17894736842105263,0.006533575317604345
290021,0.2124,0.3305,0.11810000000000001,"VALLEY HOSPITAL MEDICAL CENTER","LAS VEGAS",NV,89106,0.2924791086350975,0.2923076923076923,-0.00017141632740519386
500027,0.2125,0.2196,0.007099999999999995,"SWEDISH MEDICAL CENTER",SEATTLE,WA,98122,0.25073746312684364,0.2737752161383285,0.023037753011484863
190202,0.2132,0.2481,0.03489999999999999,"OCHSNER MEDICAL CENTER-BATON ROUGE","BATON ROUGE",LA,70816,0.22842639593908629,0.22702702702702704,-0.0013993689120592456
500044,0.2143,0.2335,0.019200000000000023,"DEACONESS HOSPITAL",SPOKANE,WA,99210,0.24604966139954854,0.2004950495049505,-0.04555461189459803
440051,0.2146,0.3596,0.14499999999999996,"MCNAIRY REGIONAL HOSPITAL",SELMER,TN,38375,0.2905982905982906,0.30952380952380953,0.018925518925518914
220063,0.2156,0.1893,-0.026300000000000018,"LOWELL GENERAL HOSPITAL",LOWELL,MA,01854,0.23529411764705882,0.23591087811271297,0.0006167604656541481
140118,0.2179,0.231,0.0131,"METROSOUTH MEDICAL CENTER","BLUE ISLAND",IL,60406,0.2993710691823899,0.22972972972972974,-0.06964133945266018
340071,0.2179,0.1895,-0.02840000000000001,"BETSY JOHNSON REGIONAL  HOSPITAL",DUNN,NC,28334,0.27873563218390807,0.2703962703962704,-0.008339361787637667
150058,0.2181,0.2577,0.039599999999999996,"MEMORIAL HOSPITAL OF SOUTH BEND","SOUTH BEND",IN,46601,0.1545595054095827,0.1838351822503962,0.029275676840813503
100296,0.2183,0.1729,-0.045399999999999996,"DOCTORS HOSPITAL INC","CORAL GABLES",FL,33146,0.24444444444444444,0.21395348837209302,-0.030490956072351416
230208,0.2184,0.195,-0.023400000000000004,"CARSON CITY HOSPITAL","CARSON CITY",MI,48811,0.1810344827586207,0.2839506172839506,0.10291613452532991
440049,0.2184,0.2192,0.0007999999999999952,"METHODIST HEALTHCARE MEMPHIS HOSPITALS",MEMPHIS,TN,38104,0.26491310474401125,0.22029934518241348,-0.04461375956159777
450037,0.2186,0.1904,-0.028199999999999975,"GOOD SHEPHERD MEDICAL CENTER",LONGVIEW,TX,75601,0.2326454033771107,0.24874371859296482,0.016098315215854114
140191,0.2192,0.2472,0.027999999999999997,"INGALLS MEMORIAL HOSPITAL",HARVEY,IL,60426,0.28611898016997167,0.273955773955774,-0.012163206214197697
240080,0.2198,0.2199,0.00010000000000001674,"UNIVERSITY OF MINNESOTA  MEDICAL CENTER, FAIRVIEW",MINNEAPOLIS,MN,55454,0.3008474576271186,0.24583333333333332,-0.0550141242937853
150074,0.2204,0.2598,0.03939999999999996,"COMMUNITY HOSPITAL EAST",INDIANAPOLIS,IN,46219,0.23755656108597284,0.19423076923076923,-0.043325791855203605
110001,0.2214,0.2228,0.0013999999999999846,"HAMILTON MEDICAL CENTER",DALTON,GA,30720,0.23132969034608378,0.22259696458684655,-0.008732725759237225
450200,0.2215,0.1851,-0.036400000000000016,"WADLEY REGIONAL MEDICAL CENTER",TEXARKANA,TX,75501,0.2062937062937063,0.22392638036809817,0.01763267407439187
110036,0.2234,0.262,0.03860000000000002,"MEMORIAL HEALTH UNIV MED CEN, INC",SAVANNAH,GA,31403,0.24039829302987198,0.20677361853832443,-0.033624674491547546
110092,0.2234,0.12,-0.10339999999999999,"DODGE COUNTY HOSPITAL",EASTMAN,GA,31023,0.31666666666666665,0.2727272727272727,-0.043939393939393945
130014,0.2237,0.2189,-0.004799999999999999,"WEST VALLEY MEDICAL CENTER",CALDWELL,ID,83605,0.17796610169491525,0.19801980198019803,0.020053700285282777
330005,0.2247,0.1996,-0.02510000000000001,"KALEIDA HEALTH",BUFFALO,NY,14210,0.25983037779491136,0.20319432120674358,-0.05663605658816778
500054,0.2250,0.2386,0.013600000000000001,"PROVIDENCE SACRED HEART MEDICAL CENTER",SPOKANE,WA,99204,0.17574257425742573,0.17446808510638298,-0.0012744891510427514
310003,0.2253,0.2577,0.032399999999999984,"PALISADES MEDICAL CTR-NY PRESBYTERIAN HEALTHCARE S","NORTH BERGEN",NJ,07047,0.3270440251572327,0.30112359550561796,-0.02592042965161473
370149,0.2255,0.1997,-0.025800000000000017,"UNITY HEALTH CENTER",SHAWNEE,OK,74804,0.21031746031746032,0.17105263157894737,-0.03926482873851295
290005,0.2262,0.3939,0.16769999999999996,"NORTH VISTA HOSPITAL","NORTH LAS VEGAS",NV,89030,0.3548387096774194,0.22459893048128343,-0.13023977919613594
180106,0.2269,0.2186,-0.008300000000000002,"CLINTON COUNTY HOSPITAL, INC",ALBANY,KY,42602,0.32786885245901637,0.2647058823529412,-0.06316297010607519
110075,0.2272,0.2325,0.005299999999999999,"EAST GEORGIA REGIONAL MEDICAL CENTER",STATESBORO,GA,30458,0.30434782608695654,0.21476510067114093,-0.0895827254158156
330261,0.2272,0.2344,0.007199999999999984,"PHELPS MEMORIAL HOSPITAL ASSN","SLEEPY HOLLOW",NY,10591,0.22023809523809523,0.2556390977443609,0.035401002506265655
190036,0.2276,0.1912,-0.03639999999999999,"OCHSNER FOUNDATION HOSPITAL","NEW ORLEANS",LA,70121,0.30414201183431955,0.23919915700737618,-0.06494285482694337
110105,0.2277,0.1766,-0.051100000000000007,"COLQUITT REGIONAL MEDICAL CENTER",MOULTRIE,GA,31768,0.21266968325791855,0.20909090909090908,-0.0035787741670094686
220024,0.2277,0.2327,0.004999999999999977,"HOLYOKE MEDICAL CENTER",HOLYOKE,MA,01040,0.268370607028754,0.2287390029325513,-0.03963160409620267
100154,0.2282,0.275,0.046800000000000036,"SOUTH MIAMI HOSPITAL, INC","SOUTH MIAMI",FL,33143,0.24537037037037038,0.24242424242424243,-0.0029461279461279466
320065,0.2291,0.2875,0.05839999999999998,"LEA REGIONAL MEDICAL CENTER",HOBBS,NM,88240,0.30303030303030304,0.2032520325203252,-0.09977827050997784
450137,0.2301,0.219,-0.011099999999999999,"BAYLOR ALL SAINTS MEDICAL CENTER AT FW","FORT WORTH",TX,76104,0.18843683083511778,0.2564935064935065,0.06805667565838872
140048,0.2306,0.275,0.04440000000000002,"ADVOCATE TRINITY HOSPITAL",CHICAGO,IL,60617,0.30434782608695654,0.2627551020408163,-0.04159272404614023
180017,0.2307,0.2824,0.051699999999999996,"T J SAMSON COMMUNITY HOSPITAL",GLASGOW,KY,42141,0.1864406779661017,0.20903954802259886,0.02259887005649716
140114,0.2308,0.2785,0.04770000000000002,"SWEDISH COVENANT HOSPITAL",CHICAGO,IL,60625,0.29895366218236175,0.24744027303754265,-0.051513389144819094
260113,0.2324,0.1942,-0.038199999999999984,"MISSOURI DELTA MEDICAL CENTER",SIKESTON,MO,63801,0.2392638036809816,0.25287356321839083,0.013609759537409227
100032,0.2332,0.1874,-0.04579999999999998,"BAYFRONT MEDICAL CENTER INC","SAINT PETERSBURG",FL,33701,0.28173374613003094,0.22357723577235772,-0.05815651035767322
250007,0.2333,0.2405,0.007199999999999984,"BILOXI REGIONAL MEDICAL CENTER",BILOXI,MS,39533,0.30201342281879195,0.251063829787234,-0.05094959303155794
340028,0.2334,0.2608,0.02739999999999998,"CAPE FEAR VALLEY MEDICAL CENTER",FAYETTEVILLE,NC,28302,0.23918174665617625,0.2293046357615894,-0.009877110894586844
180088,0.2336,0.2647,0.03109999999999999,"NORTON HOSPITALS, INC",LOUISVILLE,KY,40202,0.24233661075766338,0.20921985815602837,-0.03311675260163502
500150,0.2339,0.1786,-0.05529999999999999,"LEGACY SALMON CREEK MEDICAL CENTER",VANCOUVER,WA,98686,0.26245847176079734,0.2238372093023256,-0.03862126245847175
190065,0.2341,0.1397,-0.09440000000000001,"BATON ROUGE GENERAL MEDICAL CENTER","BATON ROUGE",LA,70806,0.24960753532182103,0.23909531502423265,-0.010512220297588387
420010,0.2349,0.1965,-0.03839999999999999,"CAROLINA PINES REGIONAL MEDICAL CENTER",HARTSVILLE,SC,29550,0.2838283828382838,0.2317596566523605,-0.052068726185923314
500053,0.2359,0.1948,-0.0411,"KENNEWICK GENERAL HOSPITAL",KENNEWICK,WA,99336,0.2793522267206478,0.23511904761904762,-0.044233179101600184
220116,0.2360,0.2924,0.056400000000000006,"TUFTS MEDICAL CENTER",BOSTON,MA,02111,0.3060747663551402,0.21912350597609562,-0.08695126037904458
360037,0.2368,0.4044,0.16759999999999997,"ST VINCENT CHARITY MEDICAL CENTER",CLEVELAND,OH,44115,0.3079710144927536,0.24305555555555555,-0.06491545893719805
340106,0.2372,0.12,-0.1172,"SANDHILLS REGIONAL MEDICAL CENTER",HAMLET,NC,28345,0.34347826086956523,0.20279720279720279,-0.14068105807236245
230017,0.2375,0.2265,-0.010999999999999982,"BRONSON METHODIST HOSPITAL",KALAMAZOO,MI,49007,0.19269521410579346,0.2162883845126836,0.02359317040689013
340040,0.2375,0.224,-0.013499999999999984,"VIDANT MEDICAL CENTER",GREENVILLE,NC,27835,0.25052928722653495,0.2343839541547278,-0.016145333071807155
340113,0.2377,0.2283,-0.009399999999999992,"CAROLINAS MEDICAL CENTER/BEHAV HEALTH",CHARLOTTE,NC,28203,0.20422535211267606,0.2006403415154749,-0.0035850105972011492
320018,0.2382,0.3432,0.10500000000000001,"MEMORIAL MEDICAL CENTER INC","LAS CRUCES",NM,88011,0.20634920634920634,0.1926605504587156,-0.01368865589049073
250069,0.2383,0.2435,0.005199999999999982,"RUSH FOUNDATION HOSPITAL",MERIDIAN,MS,39301,0.18220338983050846,0.22072072072072071,0.038517330890212254
340075,0.2413,0.1718,-0.06949999999999998,"GRACE HOSPITAL INC",MORGANTON,NC,28655,0.2356020942408377,0.15985130111524162,-0.07575079312559607
450747,0.2418,0.1624,-0.0794,"PALESTINE REGIONAL MEDICAL CENTER",PALESTINE,TX,75801,0.21176470588235294,0.19801980198019803,-0.013744903902154909
500129,0.2443,0.3102,0.06589999999999999,"TACOMA GENERAL ALLENMORE HOSPITAL",TACOMA,WA,98415,0.2735674676524954,0.19515669515669515,-0.07841077249580025
340024,0.2461,0.1804,-0.06570000000000001,"SAMPSON REGIONAL MEDICAL CENTER",CLINTON,NC,28328,0.21301775147928995,0.27796610169491526,0.06494835021562531
450431,0.2462,0.1992,-0.047000000000000014,"ST DAVIDS MEDICAL CENTER",AUSTIN,TX,78705,0.20671834625322996,0.1877890841813136,-0.018929262071916364
110091,0.2472,0.2273,-0.0199,"ROCKDALE MEDICAL CENTER",CONYERS,GA,30012,0.2415902140672783,0.23098591549295774,-0.010604298574320548
250097,0.2478,0.2364,-0.011399999999999993,"SOUTHWEST MS REGIONAL MEDICAL CENTER",MCCOMB,MS,39649,0.2819767441860465,0.2226027397260274,-0.059374004460019114
330203,0.2479,0.2579,0.010000000000000009,"CROUSE HOSPITAL",SYRACUSE,NY,13210,0.24924012158054712,0.23247863247863249,-0.016761489101914634
450686,0.2484,0.2239,-0.024500000000000022,"UNIVERSITY MEDICAL CENTER",LUBBOCK,TX,79415,0.2534722222222222,0.19202898550724637,-0.06144323671497584
230053,0.2503,0.2966,0.04629999999999995,"HENRY FORD HOSPITAL",DETROIT,MI,48202,0.30300568643379366,0.2675222112537019,-0.03548347518009176
340107,0.2514,0.1967,-0.0547,"VIDANT EDGECOMBE HOSPITAL",TARBORO,NC,27886,0.2546583850931677,0.20327102803738317,-0.05138735705578451
250138,0.2516,0.2713,0.019699999999999995,"RIVER OAKS HOSPITAL",JACKSON,MS,39208,0.28225806451612906,0.21052631578947367,-0.07173174872665539
420018,0.2519,0.259,0.007099999999999995,"PALMETTO HEALTH RICHLAND",COLUMBIA,SC,29203,0.2190082644628099,0.2,-0.0190082644628099
500036,0.2519,0.2733,0.021399999999999975,"YAKIMA VALLEY MEMORIAL HOSPITAL",YAKIMA,WA,98902,0.1935483870967742,0.1663619744058501,-0.02718641269092409
150056,0.2522,0.2768,0.02460000000000001,"INDIANA UNIVERSITY HEALTH",INDIANAPOLIS,IN,46206,0.28125,0.244173140954495,-0.037076859045505006
260078,0.2528,0.1984,-0.05440000000000003,"OZARKS MEDICAL CENTER","WEST PLAINS",MO,65775,0.18141592920353983,0.19282511210762332,0.011409182904083492
330024,0.2548,0.267,0.012199999999999989,"MOUNT SINAI HOSPITAL","NEW YORK",NY,10029,0.27519893899204245,0.2414885193982581,-0.033710419593784346
220077,0.2570,0.2535,-0.003500000000000003,"BAYSTATE MEDICAL CENTER",SPRINGFIELD,MA,01199,0.2287847929395791,0.2016895459345301,-0.027095247005049006
340099,0.2590,0.12,-0.139,"VIDANT ROANOKE CHOWAN HOSPITAL",AHOSKIE,NC,27910,0.2925170068027211,0.2815884476534296,-0.010928559149291472
190060,0.2594,0.299,0.03959999999999997,"LAKE CHARLES MEMORIAL HOSPITAL","LAKE CHARLES",LA,70601,0.23205741626794257,0.22761194029850745,-0.00444547596943512
310019,0.2599,0.3021,0.04219999999999996,"ST JOSEPH'S REGIONAL MEDICAL CENTER",PATERSON,NJ,07503,0.291866028708134,0.27146814404432135,-0.02039788466381265
180132,0.2610,0.3112,0.05019999999999997,"LAKE CUMBERLAND REGIONAL HOSPITAL",SOMERSET,KY,42502,0.22727272727272727,0.2326454033771107,0.005372676104383439
100006,0.2617,0.2523,-0.009399999999999964,"ORLANDO HEALTH",ORLANDO,FL,32806,0.25796178343949044,0.20137693631669534,-0.0565848471227951
240106,0.2622,0.2518,-0.010399999999999965,"REGIONS HOSPITAL","SAINT PAUL",MN,55101,0.2570281124497992,0.1644295302013423,-0.09259858224845688
330135,0.2625,0.12,-0.14250000000000002,"BON SECOURS COMMUNITY HOSPITAL","PORT JERVIS",NY,12771,0.23300970873786409,0.2300469483568075,-0.002962760381056584
310016,0.2655,0.3599,0.09439999999999998,"CHRIST HOSPITAL","JERSEY CITY",NJ,07306,0.3250883392226148,0.27514792899408286,-0.04994041022853196
510001,0.2660,0.274,0.008000000000000007,"WEST VIRGINIA UNIVERSITY HOSPITALS",MORGANTOWN,WV,26506,0.29461756373937675,0.27370689655172414,-0.02091066718765261
140182,0.2664,0.2264,-0.040000000000000036,"ADVOCATE ILLINOIS MASONIC MEDICAL CENTER",CHICAGO,IL,60657,0.32189973614775724,0.20599250936329588,-0.11590722678446136
330195,0.2669,0.233,-0.03390000000000001,"LONG ISLAND JEWISH MEDICAL CENTER","NEW HYDE PARK",NY,11040,0.24293193717277486,0.24582560296846012,0.0028936657956852574
100128,0.2679,0.2615,-0.006400000000000017,"TAMPA GENERAL HOSPITAL",TAMPA,FL,33606,0.30831643002028397,0.2375601926163724,-0.07075623740391157
310014,0.2691,0.2923,0.0232,"COOPER UNIVERSITY HOSPITAL",CAMDEN,NJ,08103,0.27256317689530685,0.24177631578947367,-0.030786861105833174
450330,0.2710,0.1608,-0.11020000000000002,"OAKBEND MEDICAL CENTER",RICHMOND,TX,77469,0.24545454545454545,0.2356020942408377,-0.009852451213707758
310027,0.2727,0.3461,0.07340000000000002,"TRINITAS REGIONAL MEDICAL CENTER",ELIZABETH,NJ,07207,0.27040816326530615,0.23943661971830985,-0.0309715435469963
370014,0.2737,0.2707,-0.0030000000000000027,"MEDICAL CENTER OF SOUTHEASTERN OKLAHOMA",DURANT,OK,74702,0.3800738007380074,0.28296703296703296,-0.09710676777097443
260119,0.2757,0.2756,-0.00009999999999998899,"POPLAR BLUFF REGIONAL MEDICAL CENTER","POPLAR BLUFF",MO,63901,0.2804232804232804,0.27636363636363637,-0.004059644059644041
370166,0.2763,0.33,0.053700000000000025,"WAGONER COMMUNITY HOSPITAL",WAGONER,OK,74467,0.2545454545454545,0.23333333333333334,-0.021212121212121182
200034,0.2765,0.1969,-0.07960000000000003,"ST MARYS REGIONAL MEDICAL CENTER",LEWISTON,ME,04240,0.17131474103585656,0.13368983957219252,-0.03762490146366404
290003,0.2771,0.4087,0.1316,"SUNRISE HOSPITAL AND MEDICAL CENTER","LAS VEGAS",NV,89109,0.24814814814814815,0.236084452975048,-0.012063695173100158
220010,0.2776,0.3116,0.033999999999999975,"LAWRENCE GENERAL HOSPITAL",LAWRENCE,MA,01842,0.24594992636229748,0.2393026941362916,-0.006647232226005884
330201,0.2821,0.2811,-0.0010000000000000009,"KINGSBROOK JEWISH MEDICAL CENTER",BROOKLYN,NY,11203,0.35658914728682173,0.3684210526315789,0.011831905344757199
140292,0.2822,0.3008,0.018600000000000005,"ADVENTIST GLENOAKS","GLENDALE HEIGHTS",IL,60139,0.296,0.2302158273381295,-0.06578417266187048
310040,0.2830,0.3579,0.07490000000000002,"HOBOKEN UNIVERSITY MEDICAL CENTER",HOBOKEN,NJ,07030,0.31343283582089554,0.2594594594594595,-0.053973376361436065
330028,0.2839,0.2843,0.00040000000000001146,"RICHMOND UNIVERSITY MEDICAL CENTER","STATEN ISLAND",NY,10304,0.30275229357798167,0.24615384615384617,-0.0565984474241355
440156,0.2842,0.3335,0.04930000000000001,"PARKRIDGE MEDICAL CENTER",CHATTANOOGA,TN,37404,0.23555555555555555,0.17577197149643706,-0.05978358405911849
340050,0.2845,0.2564,-0.02809999999999996,"SOUTHEASTERN REGIONAL MEDICAL CENTER",LUMBERTON,NC,28359,0.2981220657276995,0.2674846625766871,-0.030637403151012377
140181,0.2856,0.4231,0.13749999999999996,"SOUTH SHORE HOSPITAL",CHICAGO,IL,60617,0.3074074074074074,0.3333333333333333,0.025925925925925908
450097,0.2857,0.2882,0.0025000000000000022,"BAYSHORE MEDICAL CENTER",PASADENA,TX,77504,0.22632794457274827,0.2268041237113402,0.0004761791385919367
330101,0.2858,0.2797,-0.006099999999999994,"NEW YORK-PRESBYTERIAN HOSPITAL","NEW YORK",NY,10021,0.27893422148209823,0.21744471744471744,-0.06148950403738079
450213,0.2860,0.3309,0.04490000000000005,"UNIVERSITY HEALTH SYSTEM","SAN ANTONIO",TX,78229,0.27956989247311825,0.16296296296296298,-0.11660692951015528
330234,0.2864,0.3003,0.013900000000000023,"WESTCHESTER MEDICAL CENTER",VALHALLA,NY,10595,0.2396694214876033,0.23648648648648649,-0.0031829350011168267
450855,0.2895,0.2538,-0.035699999999999954,"HARLINGEN MEDICAL CENTER",HARLINGEN,TX,78550,0.24509803921568626,0.17553191489361702,-0.06956612432206924
110004,0.2931,0.0405,-0.25260000000000005,"HUTCHESON MEDICAL CENTER","FORT OGLETHORPE",GA,30742,0.19672131147540983,0.22580645161290322,0.029085140137493387
360112,0.2937,0.346,0.05229999999999996,"MERCY ST VINCENT MEDICAL CENTER",TOLEDO,OH,43608,0.26608695652173914,0.2297551789077213,-0.036331777614017846
100008,0.2940,0.2434,-0.05059999999999998,"BAPTIST HOSPITAL OF MIAMI INC",MIAMI,FL,33176,0.2691315563198624,0.23646408839779007,-0.03266746792207234
330219,0.2988,0.3115,0.012699999999999989,"ERIE COUNTY MEDICAL CENTER",BUFFALO,NY,14215,0.26595744680851063,0.25862068965517243,-0.0073367571533382026
100075,0.2991,0.2742,-0.024899999999999978,"ST JOSEPH'S HOSPITAL",TAMPA,FL,33677,0.28822882288228824,0.22142857142857142,-0.06680025145371682
190026,0.3001,0.29,-0.010099999999999998,"RAPIDES REGIONAL MEDICAL CENTER",ALEXANDRIA,LA,71301,0.2327718223583461,0.20583468395461912,-0.026937138403726968
140125,0.3009,0.3929,0.09200000000000003,"GATEWAY REGIONAL MEDICAL CENTER","GRANITE CITY",IL,62040,0.23195876288659795,0.2611111111111111,0.02915234822451318
450209,0.3011,0.3152,0.014100000000000001,"NORTHWEST TEXAS HOSPITAL",AMARILLO,TX,79106,0.2125748502994012,0.1476923076923077,-0.0648825426070935
220017,0.3032,0.4166,0.1134,"CARNEY HOSPITAL",BOSTON,MA,02124,0.2664233576642336,0.22137404580152673,-0.04504931186270686
450659,0.3051,0.2161,-0.089,"PARK PLAZA HOSPITAL",HOUSTON,TX,77004,0.19004524886877827,0.20689655172413793,0.016851302855359657
190046,0.3086,0.358,0.0494,"TOURO INFIRMARY","NEW ORLEANS",LA,70115,0.22982885085574573,0.23333333333333334,0.0035044824775876116
190167,0.3147,0.3322,0.017500000000000016,"MERCY REGIONAL MEDICAL CENTER","VILLE PLATTE",LA,70586,0.3380952380952381,0.27697841726618705,-0.061116820829051066
110165,0.3190,0.295,-0.02400000000000002,"SOUTHERN REGIONAL MEDICAL CENTER",RIVERDALE,GA,30274,0.2607758620689655,0.2671232876712329,0.006347425602267365
450644,0.3206,0.2977,-0.022899999999999976,"WEST HOUSTON MEDICAL CENTER",HOUSTON,TX,77082,0.2229965156794425,0.21374045801526717,-0.009256057664175338
250072,0.3218,0.3002,-0.021599999999999953,"CENTRAL MISSISSIPPI MEDICAL CENTER",JACKSON,MS,39204,0.284,0.2777777777777778,-0.006222222222222185
100314,0.3220,0.3182,-0.0038000000000000256,"WEST KENDALL BAPTIST HOSPITAL",MIAMI,FL,33196,0,0.22767857142857142,0.22767857142857142
380007,0.3224,0.3881,0.06569999999999998,"LEGACY EMANUEL MEDICAL CENTER",PORTLAND,OR,97227,0.152,0.24647887323943662,0.09447887323943663
670047,0.3240,0.2951,-0.028900000000000037,"SIERRA PROVIDENCE EAST MEDICAL CENTER","EL PASO",TX,79938,0.23622047244094488,0.26066350710900477,0.024443034668059888
390290,0.3253,0.398,0.07270000000000004,"HAHNEMANN UNIVERSITY HOSPITAL",PHILADELPHIA,PA,19102,0.32432432432432434,0.2852112676056338,-0.03911305671869053
260210,0.3295,0.4136,0.08410000000000001,"ST ALEXIUS HOSPITAL","SAINT LOUIS",MO,63118,0.2331288343558282,0.2857142857142857,0.05258545135845749
100050,0.3313,0.4513,0.12,"PALM SPRINGS GENERAL HOSPITAL",HIALEAH,FL,33012,0.34104046242774566,0.3168724279835391,-0.024168034444206565
100034,0.3391,0.1706,-0.1685,"MOUNT SINAI MEDICAL CENTER","MIAMI BEACH",FL,33140,0.2739495798319328,0.263768115942029,-0.010181463889903819
330169,0.3395,0.3496,0.010099999999999998,"BETH ISRAEL MEDICAL CENTER","NEW YORK",NY,10003,0.296551724137931,0.28245787908820613,-0.014093845049724885
450716,0.3395,0.3688,0.029299999999999993,"CYPRESS FAIRBANKS MEDICAL CENTER",HOUSTON,TX,77065,0.2236842105263158,0.24761904761904763,0.023934837092731837
370037,0.3396,0.1903,-0.14930000000000002,"ST ANTHONY HOSPITAL","OKLAHOMA CITY",OK,73101,0.22933333333333333,0.2400990099009901,0.010765676567656757
450024,0.3403,0.3434,0.0030999999999999917,"UNIVERSITY MEDICAL CENTER OF EL PASO","EL PASO",TX,79905,0.07894736842105263,0.24324324324324326,0.16429587482219063
310002,0.3414,0.3813,0.03989999999999999,"NEWARK BETH ISRAEL MEDICAL CENTER",NEWARK,NJ,07112,0.31167268351383876,0.24242424242424243,-0.06924844108959632
230024,0.3420,0.404,0.062,"SINAI-GRACE HOSPITAL",DETROIT,MI,48235,0.36629213483146067,0.312316715542522,-0.053975419288938675
330208,0.3426,0.4267,0.08410000000000001,"ST JOHN'S RIVERSIDE HOSPITAL",YONKERS,NY,10701,0.28183361629881154,0.2820121951219512,0.00017857882313965234
330046,0.3470,0.3474,0.00040000000000001146,"ST LUKE'S ROOSEVELT HOSPITAL","NEW YORK",NY,10025,0.33098591549295775,0.23633156966490299,-0.09465434582805476
330236,0.3570,0.2954,-0.06159999999999999,"NEW YORK METHODIST HOSPITAL",BROOKLYN,NY,11215,0.32356134636264927,0.2572227399813607,-0.06633860638128858
100183,0.3579,0.3793,0.02140000000000003,"CORAL GABLES HOSPITAL","CORAL GABLES",FL,33134,0.2946058091286307,0.30141843971631205,0.006812630587681334
110115,0.3589,0.3212,-0.03770000000000001,"ATLANTA MEDICAL CENTER",ATLANTA,GA,30312,0.3275862068965517,0.25,-0.07758620689655171
110115,0.3589,0.2665,-0.09239999999999998,"ATLANTA MEDICAL CENTER",ATLANTA,GA,30312,0.3275862068965517,0.25,-0.07758620689655171
330055,0.3643,0.3211,-0.043200000000000016,"NEW YORK HOSPITAL MEDICAL CENTER OF QUEENS",FLUSHING,NY,11355,0.28627145085803435,0.24662162162162163,-0.03964982923641272
250082,0.3646,0.3414,-0.0232,"DELTA REGIONAL MEDICAL CENTER",GREENVILLE,MS,38704,0.23210831721470018,0.19089316987740806,-0.04121514733729212
450661,0.3651,0.3412,-0.023899999999999977,"ODESSA REGIONAL HOSPITAL",ODESSA,TX,79761,0.2631578947368421,0.14450867052023122,-0.11864922421661087
100209,0.3673,0.4088,0.04149999999999998,"KENDALL REGIONAL MEDICAL CENTER",MIAMI,FL,33175,0.3008298755186722,0.31017369727047145,0.009343821751799264
330027,0.3678,0.3712,0.0033999999999999586,"NASSAU UNIVERSITY MEDICAL CENTER","EAST MEADOW",NY,11554,0.3622448979591837,0.28708133971291866,-0.07516355824626503
110079,0.3713,0.3914,0.020100000000000007,"GRADY MEMORIAL HOSPITAL",ATLANTA,GA,30303,0.23552894211576847,0.2591743119266055,0.023645369810837036
190176,0.3728,0.3718,-0.0010000000000000009,"TULANE MEDICAL CENTER","NEW ORLEANS",LA,70112,0.21578947368421053,0.25,0.03421052631578947
330193,0.3791,0.4111,0.03200000000000003,"FLUSHING HOSPITAL MEDICAL CENTER",FLUSHING,NY,11355,0.34674922600619196,0.2556053811659193,-0.09114384484027266
450039,0.3803,0.3441,-0.03620000000000001,"JPS HEALTH NETWORK","FORT WORTH",TX,76104,0.2898550724637681,0.2302158273381295,-0.05963924512563862
330065,0.3805,0.3707,-0.009800000000000031,"NIAGARA FALLS MEMORIAL MEDICAL CENTER","NIAGARA FALLS",NY,14302,0.2768361581920904,0.22935779816513763,-0.04747836002695277
250099,0.3846,0.2915,-0.09310000000000002,"GREENWOOD LEFLORE HOSPITAL",GREENWOOD,MS,38930,0.27882037533512066,0.2087912087912088,-0.07002916654391186
510055,0.3916,0.434,0.04239999999999999,"CABELL-HUNTINGTON HOSPITAL INC",HUNTINGTON,WV,25701,0.2895927601809955,0.225,-0.0645927601809955
180043,0.4004,0.4445,0.04410000000000003,"MEMORIAL HOSPITAL",MANCHESTER,KY,40962,0.3397129186602871,0.3829787234042553,0.04326580474396824
310074,0.4005,0.3447,-0.055800000000000016,"LIBERTYHEALTH-JERSEY CITY MEDICAL CENTER CAMPUS","JERSEY CITY",NJ,07302,0.3520309477756286,0.25,-0.1020309477756286
260091,0.4064,0.3977,-0.008699999999999986,"SSM ST MARYS HEALTH CENTER","RICHMOND HEIGHTS",MO,63117,0.22492401215805471,0.2014519056261343,-0.023472106531920417
330350,0.4105,0.4485,0.038000000000000034,"UNIVERSITY HOSPITAL OF BROOKLYN ( DOWNSTATE )",BROOKLYN,NY,11203,0.334070796460177,0.31042128603104213,-0.02364951042913488
330006,0.4107,0.4953,0.08460000000000001,"ST JOSEPH'S MEDICAL CENTER",YONKERS,NY,10701,0.3288888888888889,0.25268817204301075,-0.07620071684587815
140124,0.4117,0.455,0.043300000000000005,"JOHN H STROGER JR HOSPITAL",CHICAGO,IL,60612,0.24571428571428572,0.23857868020304568,-0.00713560551124004
360059,0.4123,0.4688,0.056499999999999995,"METROHEALTH SYSTEM",CLEVELAND,OH,44109,0.3139240506329114,0.30295566502463056,-0.01096838560828084
450130,0.4136,0.3594,-0.054200000000000026,"NIX HEALTH CARE SYSTEM","SAN ANTONIO",TX,78205,0.21768707482993196,0.255,0.03731292517006804
330056,0.4193,0.4527,0.033399999999999985,"BROOKLYN HOSPITAL CENTER AT DOWNTOWN CAMPUS",BROOKLYN,NY,11201,0.3333333333333333,0.32061068702290074,-0.012722646310432573
330019,0.4258,0.4211,-0.0047000000000000375,"NEW YORK COMMUNITY HOSPITAL OF BROOKLYN, INC.",BROOKLYN,NY,11229,0.29516129032258065,0.2523809523809524,-0.04278033794162828
230273,0.4274,0.4851,0.057699999999999974,"DETROIT RECEIVING HOSPITAL & UNIV HEALTH CENTER",DETROIT,MI,48201,0.3543956043956044,0.2966360856269113,-0.05775951876869312
330395,0.4287,0.4123,-0.016400000000000026,"ST JOHN'S EPISCOPAL HOSPITAL AT SOUTH SHORE","FAR ROCKAWAY",NY,11691,0.3413173652694611,0.29385964912280704,-0.04745771614665406
450035,0.4329,0.4488,0.01589999999999997,"ST JOSEPH MEDICAL CENTER",HOUSTON,TX,77002,0.2581818181818182,0.19367588932806323,-0.06450592885375495
190098,0.4337,0.4823,0.04860000000000003,"LSU HEALTH SCIENCES CENTER - SHREVEPORT",SHREVEPORT,LA,71130,0.2422680412371134,0.2932692307692308,0.05100118953211738
250042,0.4455,0.4474,0.0019000000000000128,"NORTHWEST MISSISSIPPI REGIONAL MEDICAL CENTER",CLARKSDALE,MS,38614,0.34134615384615385,0.2585034013605442,-0.08284275248560963
150024,0.4459,0.4824,0.03649999999999998,"WILLIAM N WISHARD MEMORIAL HOSPITAL",INDIANAPOLIS,IN,46202,0.30115830115830117,0.28076923076923077,-0.020389070389070396
100181,0.4463,0.4513,0.0050000000000000044,"LARKIN COMMUNITY HOSPITAL","SOUTH MIAMI",FL,33143,0.3645833333333333,0.2698412698412698,-0.09474206349206349
240004,0.4469,0.4423,-0.004599999999999993,"HENNEPIN COUNTY MEDICAL CENTER",MINNEAPOLIS,MN,55415,0.34806629834254144,0.29012345679012347,-0.05794284155241797
190011,0.4472,0.5431,0.09590000000000004,"E A CONWAY MEDICAL CENTER",MONROE,LA,71202,0.2553191489361702,0.2962962962962963,0.04097714736012609
230104,0.4472,0.4715,0.02429999999999999,"HARPER UNIVERSITY HOSPITAL",DETROIT,MI,48201,0.31313131313131315,0.26907630522088355,-0.0440550079104296
100187,0.4473,0.4317,-0.015600000000000003,"PALMETTO GENERAL HOSPITAL",HIALEAH,FL,33016,0.30812854442344045,0.28809523809523807,-0.020033306328202383
450029,0.4532,0.4173,-0.03589999999999999,"LAREDO MEDICAL CENTER",LAREDO,TX,78044,0.2717557251908397,0.25101214574898784,-0.020743579441851845
220031,0.4536,0.5016,0.04800000000000004,"BOSTON MEDICAL CENTER CORPORATION",BOSTON,MA,02118,0.28378378378378377,0.2266857962697274,-0.05709798751405637
450662,0.4697,0.3664,-0.1033,"VALLEY REGIONAL MEDICAL CENTER",BROWNSVILLE,TX,78526,0.358974358974359,0.21584699453551912,-0.14312736443883986
330014,0.4711,0.477,0.005899999999999961,"JAMAICA HOSPITAL MEDICAL CENTER",JAMAICA,NY,11418,0.2614213197969543,0.27472527472527475,0.013303954928320427
450711,0.4725,0.456,-0.01649999999999996,"RIO GRANDE REGIONAL HOSPITAL",MCALLEN,TX,78503,0.2490974729241877,0.267515923566879,0.018418450642691264
450643,0.4791,0.3708,-0.10830000000000001,"DOCTORS HOSPITAL OF LAREDO",LAREDO,TX,78041,0.30952380952380953,0.2153392330383481,-0.09418457648546144
330233,0.4813,0.4676,-0.01369999999999999,"BROOKDALE HOSPITAL MEDICAL CENTER",BROOKLYN,NY,11212,0.29310344827586204,0.2930232558139535,-0.0000801924619085459
450289,0.4838,0.5669,0.08309999999999995,"HARRIS COUNTY HOSPITAL DISTRICT",HOUSTON,TX,77054,0.26143790849673204,0.2421875,-0.01925040849673204
450119,0.4867,0.4632,-0.02350000000000002,"SOUTH TEXAS HEALTH SYSTEM",EDINBURG,TX,78539,0.25061830173124483,0.22756005056890014,-0.023058251162344695
370097,0.4884,0.1613,-0.3271,"SOUTHWESTERN MEDICAL CENTER",LAWTON,OK,73505,0.17391304347826086,0.21052631578947367,0.03661327231121281
100284,0.4890,0.4339,-0.05509999999999998,"WESTCHESTER GENERAL HOSPITAL",MIAMI,FL,33155,0.3798449612403101,0.24175824175824176,-0.13808671948206833
140177,0.4899,0.522,0.03210000000000002,"JACKSON PARK HOSPITAL",CHICAGO,IL,60649,0.3785310734463277,0.3853211009174312,0.006790027471103521
330194,0.4899,0.4505,-0.03939999999999999,"MAIMONIDES MEDICAL CENTER",BROOKLYN,NY,11219,0.2752652149637074,0.2639240506329114,-0.011341164330796016
330059,0.4901,0.3972,-0.09289999999999998,"MONTEFIORE MEDICAL CENTER",BRONX,NY,10467,0.28355127322780455,0.256891495601173,-0.02665977762663152
100125,0.4937,0.4468,-0.04690000000000005,"HOMESTEAD HOSPITAL",HOMESTEAD,FL,33033,0.3440366972477064,0.2112676056338028,-0.1327690916139036
140180,0.5031,0.5118,0.008700000000000041,"ST MARY & ELIZABETH MED CTR-DIVISION CAMPUS",CHICAGO,IL,60622,0.26558891454965355,0.2692307692307692,0.003641854681115664
330221,0.5169,0.5294,0.012499999999999956,"WYCKOFF HEIGHTS MEDICAL CENTER",BROOKLYN,NY,11237,0.3436293436293436,0.27759197324414714,-0.06603737038519647
140068,0.5341,0.5524,0.018299999999999983,"ROSELAND COMMUNITY HOSPITAL",CHICAGO,IL,60628,0.30198019801980197,0.21978021978021978,-0.0821999782395822
450015,0.5346,0.492,-0.04259999999999997,"PARKLAND HEALTH AND HOSPITAL SYSTEM",DALLAS,TX,75235,0.24324324324324326,0.226890756302521,-0.01635248694072225
450697,0.5357,0.4828,-0.05289999999999995,"SOUTHWEST GENERAL HOSPITAL","SAN ANTONIO",TX,78224,0.2819548872180451,0.27380952380952384,-0.008145363408521289
450128,0.5455,0.4335,-0.11199999999999999,"KNAPP MEDICAL CENTER",WESLACO,TX,78596,0.24772727272727274,0.24092409240924093,-0.006803180318031815
330397,0.5589,0.6029,0.04400000000000004,"INTERFAITH MEDICAL CENTER",BROOKLYN,NY,11213,0.40384615384615385,0.37333333333333335,-0.030512820512820504
100022,0.5644,0.4363,-0.1281,"JACKSON MEMORIAL HOSPITAL",MIAMI,FL,33136,0.3092006033182504,0.2956521739130435,-0.013548429405206897
140103,0.5654,0.5819,0.01649999999999996,"ST BERNARD HOSPITAL",CHICAGO,IL,60621,0.3524904214559387,0.30837004405286345,-0.04412037740307523
450869,0.5712,0.5319,-0.0393,"DOCTORS HOSPITAL AT RENAISSANCE",EDINBURG,TX,78539,0.2743055555555556,0.23316912972085385,-0.04113642583470173
450803,0.5738,0.532,-0.04179999999999995,"DOCTORS HOSPITAL TIDWELL",HOUSTON,TX,77091,0.25,0.24074074074074073,-0.009259259259259273
450176,0.5965,0.5071,-0.08940000000000003,"MISSION REGIONAL MEDICAL CENTER",MISSION,TX,78572,0.3,0.2722222222222222,-0.02777777777777779
140206,0.6254,0.6276,0.0022000000000000908,"NORWEGIAN-AMERICAN HOSPITAL",CHICAGO,IL,60622,0.25,0.22641509433962265,-0.023584905660377353
330399,0.7435,0.6908,-0.05270000000000008,"ST BARNABAS HOSPITAL",BRONX,NY,10457,0.33043478260869563,0.27586206896551724,-0.054572713643178394
330009,0.7690,0.7215,-0.04749999999999999,"BRONX-LEBANON HOSPITAL CENTER",BRONX,NY,10456,0.31868131868131866,0.3433734939759036,0.02469217529458495
